name,address,nature,nightlife,drink,music,dance,history,sports,art,museum,walk,restaurant,movie,Latitude,Longitude
ZSL London Zoo,"Regent's Park, Outer Circle, London, United Kingdom",1,0,0,0,0,0,0,0,0,1,0,0,51.5323658,-0.1640889
Tate Britain,Millbank,0,0,0,0,0,1,0,1,1,0,0,0,51.4926121,-0.1290435
Grosvenor Gardens,"Grosvenor Gardens, London, United Kingdom",0,0,1,0,0,0,0,0,0,0,0,0,51.497117,-0.146082
Soho Square,"London, United Kingdom",0,0,1,0,0,0,0,0,0,0,0,0,51.5074456,-0.1277653
Ministry of Sound,"103 Gaunt Street, London, United Kingdom",0,1,1,1,1,0,0,0,0,0,0,0,51.4977677,-0.0994957
Duke of Cambridge,30 St Peter's St,0,1,1,1,0,0,0,0,0,0,1,0,51.5345894,-0.0986938
The Blackfriar,174 Queen Victoria St,0,1,1,1,0,0,0,0,0,0,1,0,51.5121467,-0.1036468
The Holly Bush,22 Holly Mount,0,1,1,1,0,0,0,0,0,0,1,0,54.5413008,-6.0092299
Dogstar,389 Coldharbour Ln.,0,1,1,1,0,0,0,0,0,0,0,0,51.4616786,-0.1118685
The Atlas,16 Seagrave Rd.,0,1,1,1,0,0,0,0,0,0,1,0,51.4861841,-0.1962858
Ye Olde Spotted Horse,122 Putney High St,0,1,1,1,0,0,0,0,0,0,1,0,51.4627042,-0.2166634
The Coat and Badge,10 Lacy Road,0,1,1,1,0,0,1,0,0,0,1,0,44.2810843,-73.8160628
Blue Anchor,13 Lower Mall,0,1,1,1,0,0,0,0,0,0,1,0,47.6099845,-122.3180799
The Cow,89 Westbourne Park Rd,0,1,1,1,0,0,0,0,0,0,1,0,51.5191522,-0.1953645
Founder's Arms,52 Hopton St,0,1,1,1,0,0,1,0,0,0,1,0,51.5085137,-0.1015999
Pig & Whistle,479-481 Merton Rd,0,1,1,1,0,0,1,0,0,0,1,0,51.4410741,-0.1966886
The Lost Angel,339 Battersea Park Rd,0,1,1,1,0,0,0,0,0,0,1,0,51.4740944,-0.1570764
Studio North,"277 New North Road, London, United Kingdom",0,1,1,1,0,0,0,0,0,0,1,0,51.5401561,-0.0950182
Cargo,"83 Rivington Street, London, United Kingdom",0,1,1,1,0,0,1,0,0,0,1,0,51.5265071,-0.0787166
The King's Head,1 The Green,0,1,1,1,0,0,0,0,0,0,1,0,51.7433712,-0.8882408
East Hill Gallery,"49 East Hill, London, United Kingdom",0,1,1,1,0,0,1,0,0,0,1,0,51.4576308,-0.1842573
The Grapes,76 Narrow St.,0,1,1,1,0,0,0,0,0,0,1,0,51.50885,-0.0339611
The Ten Bells,84 Commercial St.,0,1,1,1,0,0,0,0,0,0,1,0,42.0438915,-70.1925016
Scala,275 Pentonville Rd,0,1,1,0,0,0,0,0,0,0,0,1,51.5309755,-0.119804
The Palm Tree,127 Grove Rd,0,1,1,1,0,0,1,0,0,0,0,0,51.5291674,-0.0406929
The Gun,27 Cold Harbour,0,1,1,1,0,0,0,0,0,0,1,0,51.5018302,-0.0077364
Londesborough,36 Barbauld Road,0,1,1,1,1,0,0,0,0,0,1,0,51.5576243,-0.0806089
The Clapham Grand,"21-25 Saint John's Hill, London, United Kingdom",0,1,1,1,1,0,1,0,0,0,0,0,51.4631057,-0.1694453
The Good Ship,289 Kilburn High Road,0,1,1,1,1,0,0,0,0,0,0,0,51.5438188,-0.2003215
Pub on the Park,19 Martello St,0,1,1,1,0,0,0,0,0,0,1,0,41.8181807,-71.359791
Zigfrid von Underbelly,11 Hoxton Sq,0,1,1,1,1,0,0,0,0,0,1,0,51.5280278,-0.0816764
The Roof Gardens,"99 Kensington High Street, London, United Kingdom",1,1,0,0,0,0,0,0,0,0,1,0,51.5011463,-0.1914769
Amersham Arms,388 New Cross Rd.,0,1,1,1,1,0,0,0,0,0,1,0,51.4757315,-0.0325764
Jamm,"261 Brixton Road, London, United Kingdom",0,1,1,1,1,0,0,0,0,0,0,0,51.4706805,-0.112081
Plan B,418 Brixton Road,0,1,1,1,1,0,0,0,0,0,0,0,51.4644457,-0.1145037
Pembury Tavern,90 Amhurst Rd.,0,1,1,1,0,0,0,0,0,0,1,0,51.5493377,-0.0592592
The Old Queen's Head,44 Essex Rd.,1,1,1,1,1,0,0,0,0,0,1,0,51.5747563,-0.0018095
Infernos Disco,"146 Clapham High Street, London, United Kingdom",0,1,1,1,1,0,0,0,0,0,0,0,51.4626957,-0.1359223
Jazz Cafe,5 Parkway,0,1,1,1,0,0,0,0,0,0,1,0,-41.2479127,174.9447234
KOKO,1A Camden High St.,0,1,1,1,1,0,0,0,0,0,0,0,51.5347484,-0.1381645
Electric Ballroom,"184 Camden High Street, London, United Kingdom",0,1,1,1,1,0,0,0,0,0,0,0,51.5397245,-0.142943
Club 414,"414-416 Coldharbour Lane, London, United Kingdom",0,1,1,1,0,0,0,0,0,0,0,0,51.5170221,-0.4080717
The Garage,"20-22 Highbury Crescent, London, United Kingdom",0,1,1,1,1,0,0,0,0,0,0,0,51.5476086,-0.104437
Embargo 59,"533B King's Road, London, United Kingdom",0,1,1,1,0,0,0,0,0,0,0,0,51.4816503,-0.1818652
The Underworld,174 Camden High St.,0,1,1,1,0,0,0,0,0,0,0,0,51.5391316,-0.1422001
Dublin Castle,94 Parkway,0,1,1,1,0,0,0,0,0,0,0,0,-41.2442411,174.9375511
Coronet Theatre,28 New Kent Rd.,0,1,0,0,0,0,0,0,0,0,0,0,43.1649496,-73.7261257
The Lexington,96-98 Pentonville Rd.,0,1,1,1,0,0,0,0,0,0,1,0,51.5317739,-0.1114456
Area Club,"67 Albert Embankment, London, United Kingdom",0,1,1,1,0,0,0,0,0,0,0,0,51.4871752,-0.1232588
The Academy,Kingston Lane,0,1,1,1,0,0,0,0,0,0,0,0,51.5330234,-0.4678276
Pacha,"Terminus Place, London, United Kingdom",0,1,1,1,1,0,0,0,0,0,0,0,51.4962096,-0.14419
Electrowerkz,"7 Torrens Street, London, United Kingdom",0,1,1,1,0,0,0,0,0,0,0,0,51.5325239,-0.1050459
National Portrait Gallery,"St. Martin's Place, London, United Kingdom",0,0,0,0,0,0,0,1,1,0,0,0,51.6107527,0.2215101
Natural History Museum,"Cromwell Road, London, United Kingdom",1,0,0,0,0,1,0,0,1,0,1,0,51.4948775,-0.1855369
London Canal Museum,"12-13 New Wharf Road, London, United Kingdom",0,0,0,0,0,1,0,0,1,0,0,0,51.5342186,-0.1202069
London Transport Museum,"Covent Garden Piazza, London, United Kingdom",0,0,0,0,0,1,0,0,1,0,0,0,51.5120077,-0.1218073
Museum of Fulham Palace,Bishops Avenue,0,0,0,0,0,1,0,0,1,0,0,0,51.4020271,0.0284012
Westminster Abbey,20 Dean's Yard,0,0,0,0,0,1,0,0,1,0,0,0,51.499399,-0.127391
Horse Guards Parade,Whitehall,0,0,0,0,0,1,0,0,0,0,0,0,51.5028204,-0.1259778
The Photographers' Gallery,"16-18 Ramillies Street, London, United Kingdom",0,0,0,0,0,0,0,1,0,0,1,0,51.514957,-0.1390442
Hackney City Farm,1 Goldsmiths Row,1,0,0,0,0,0,0,0,0,1,1,0,51.5317525,-0.0665747
Albert Memorial,"Kensington Gardens, London, United Kingdom",1,0,0,0,0,0,0,0,0,1,0,0,51.5066463,-0.1804266
Kensington Palace,"Kensington Gardens, London, United Kingdom",0,0,0,0,0,1,0,0,1,0,0,0,51.5066463,-0.1804266
Battersea Power Station,188 Kirtling St,0,0,0,0,0,1,0,0,0,0,0,1,51.4810677,-0.1406001
Battersea Park,Albert Bridge Rd.,1,0,0,0,0,0,1,0,0,1,0,0,51.4798031,-0.1655751
Highgate Cemetery,Swain's Ln,0,0,0,0,0,1,0,0,0,1,0,0,51.5619646,-0.1490177
Victoria Park,360 Victoria Park Rd.,1,0,0,0,0,0,0,0,0,1,0,0,51.5416438,-0.0376889
Island Gardens,"London, United Kingdom",1,0,1,0,0,0,0,0,0,1,1,0,51.5074456,-0.1277653
Millennium Bridge,Millennium Bridge,1,0,0,0,0,1,0,0,0,1,0,0,51.5098883,-0.0985076
Holland Park Salon,"31 St Anns Road, London, United Kingdom",1,0,0,0,0,0,0,0,0,1,0,0,51.5088222,-0.2159824
Crystal Palace Park,"Thicket Road, London, Crystal Palace, United Kingdom",1,0,1,0,0,0,0,0,0,1,1,0,51.4186333,-0.0616281
Golders Hill Park,"London, United Kingdom",1,0,0,0,0,0,1,0,0,1,0,0,51.5074456,-0.1277653
Gunnersbury Park Museum,"Gunnersbury Park, Pope's Lane, London, United Kingdom",1,0,0,0,0,0,0,0,1,1,1,0,51.5009192,-0.2889801
Paddington Recreation Ground,"Randolph Avenue, London, United Kingdom",1,0,0,0,0,0,1,0,0,1,1,0,51.5245798,-0.1793179
Kenwood House,"Hampstead Lane, London, Hampstead, United Kingdom",1,0,0,0,0,1,0,0,0,1,1,0,51.5717006,-0.1728224
Eltham Palace and Gardens,"Court Yard, United Kingdom",1,0,0,0,0,1,0,1,0,0,0,0,56.7292585,-2.5408625
Royal Observatory Greenwich,"Blackheath Avenue, Greenwich, United Kingdom",0,0,0,0,0,1,0,0,1,0,0,0,51.4746797,0.0019569
Big Ben,Parliament Sq.,0,0,0,0,0,1,0,0,0,0,0,0,51.5006049,-0.1268306
Tower of London Park,"London, United Kingdom",0,0,0,0,0,1,0,0,1,0,0,0,51.5074456,-0.1277653
The London Dungeon,"County Hall, Westminster Bridge Rd",0,0,0,0,0,1,0,0,0,0,0,0,51.5016258,-0.1194656
Madame Tussauds London,"Marylebone Road, London, United Kingdom",0,0,0,0,0,0,0,0,1,0,0,0,51.5219899,-0.1586096
Syon Park,"Syon Park, London Road, Brentford, United Kingdom",1,0,0,1,0,0,0,0,0,1,1,0,51.4796558,-0.3151652
Chiswick House & Gardens,Burlington Ln,1,0,1,0,0,0,0,0,0,1,1,0,51.4864574,-0.2522042
Ham House and Garden,"Ham Street, Ham, Richmond-upon-Thames, United Kingdom",1,0,0,0,0,1,0,0,0,0,0,0,51.4408303,-0.314458
Marble Hill Park,United Kingdom,1,0,0,1,0,0,0,0,0,1,0,0,54.7023545,-3.2765753
Osterley Park,Jersey Rd.,1,0,0,0,0,0,0,0,0,1,1,0,51.5651939,-0.0017949
Sutton House,"2-4 Homerton High Street, London, United Kingdom",0,0,1,0,0,1,0,0,1,0,0,0,51.5484579,-0.0504538
Somerset House,Strand,0,0,1,0,0,0,1,1,1,1,1,1,51.5134265,-0.1132218
Hoxton Square,"London, United Kingdom",0,0,1,0,0,0,0,0,0,1,0,0,51.5074456,-0.1277653
Soho Square Garden,"Soho Square, London, United Kingdom",1,0,1,0,0,0,1,0,0,1,1,0,51.514971,-0.1326034
Golden Square,"London, United Kingdom",1,0,1,0,0,0,1,0,0,1,1,0,51.5074456,-0.1277653
Abbey Road Studios,3 Abbey Rd.,0,0,0,1,0,0,0,0,0,0,0,0,42.6188143,-73.8414462
Queen's House,"Romney Road, London, United Kingdom",0,0,0,0,0,1,0,1,0,0,0,0,51.4821549,-0.0051874
Leicester Square,Leicester Sq,0,0,0,0,0,1,0,0,0,1,1,0,51.5105346,-0.1295956
Finsbury Park,"Endymion Road, London, United Kingdom",1,0,0,1,0,0,1,0,0,1,0,0,51.5723508,-0.1053956
Tavistock Square Gardens,"London, United Kingdom",1,0,0,0,0,0,0,0,0,1,0,0,51.5074456,-0.1277653
Vauxhall Bridge,Vauxhall Bridge Rd,0,0,0,0,0,1,0,1,0,0,0,0,51.4962301,-0.1426198
Potters Fields Park,"London, United Kingdom",1,0,0,1,0,0,0,0,0,1,1,1,51.5074456,-0.1277653
Grosvenor Square Garden,"London, United Kingdom",1,0,0,1,0,1,0,0,0,1,0,0,51.5074456,-0.1277653
Mudchute Park,"London, United Kingdom",1,0,0,0,0,0,0,0,0,1,1,0,51.5074456,-0.1277653
Millennium Park,"London, United Kingdom",1,0,0,0,0,0,1,0,0,1,0,0,51.5074456,-0.1277653
Furnivall Gardens,"London, United Kingdom",1,0,0,0,0,0,0,0,0,1,0,0,51.5074456,-0.1277653
Christ Church,Commercial St.,0,0,0,0,0,1,0,0,0,0,0,0,51.5222851,-0.0767645
St Pancras Church,Euston Rd.,0,0,0,0,0,1,0,0,0,0,0,0,51.5247178,-0.1385303
Tower Hamlets Cemetery Park,"Southern Grove, London, United Kingdom",1,0,0,0,0,1,0,0,0,1,0,0,51.5247366,-0.0312895
Hainault Forest Country Park,United Kingdom,1,0,0,0,1,0,0,0,0,1,0,0,54.7023545,-3.2765753
Ealing Common,"London, United Kingdom",0,0,0,0,0,0,0,0,0,1,0,0,51.5074456,-0.1277653
Museum of London,"150 London Wall, London, United Kingdom",0,0,0,0,0,1,0,1,1,0,0,0,51.5178798,-0.0963053
The British Museum,"Great Russell Street, London, United Kingdom",0,0,0,0,0,1,0,1,1,0,0,0,51.5183072,-0.1259211
National Maritime Museum,"Romney Road, London, United Kingdom",0,0,0,0,0,1,0,0,1,0,0,0,51.4821549,-0.0051874
Design Museum,"28 Shad Thames, London, United Kingdom",0,0,0,0,0,1,0,1,1,0,0,0,51.5029111,-0.0718143
Geffrye Museum,"136 Kingsland Road, London, United Kingdom",1,0,0,0,0,0,0,0,1,1,0,0,51.5315243,-0.07643
Horniman Museum & Gardens,"100 London Road, London, United Kingdom",0,0,0,0,0,1,0,1,1,0,0,0,51.5279693,0.0200589
Dulwich Picture Gallery,"College Road, United Kingdom",0,0,0,0,0,0,0,1,1,0,0,0,51.443842,-0.0850085
Barbican Centre,Silk St,0,0,1,0,0,0,0,0,0,0,1,1,42.217449,-76.1934801
The Sherlock Holmes Museum,"221B Baker Street, London, United Kingdom",0,0,0,0,0,0,0,0,1,0,0,0,51.5233879,-0.1582367
Serpentine Gallery,"Kensington Gardens, London, United Kingdom",0,0,1,0,0,0,0,1,0,0,0,0,51.5066463,-0.1804266
Kew Bridge Steam Museum,"Green Dragon Lane, Brentford, United Kingdom",0,0,0,0,0,1,0,0,0,0,0,0,51.4896546,-0.2980194
Hogarth's House,"London, United Kingdom",0,0,0,0,0,0,0,1,0,1,0,0,51.5074456,-0.1277653
Royal Academy of Arts,"Burlington House, Piccadilly, London, United Kingdom",0,0,0,0,0,0,0,1,1,0,0,0,51.5092768,-0.1397381
South London Gallery,"67 Peckham Road, London, United Kingdom",0,0,0,0,0,0,0,1,0,0,0,0,51.4742332,-0.0796542
National Army Museum,"Royal Hospital Road, London, United Kingdom",0,0,0,0,0,1,0,0,1,0,0,0,51.489102,-0.1566738
Garden Museum,"5 Lambeth Palace Road, London, United Kingdom",1,0,0,0,0,0,0,0,1,1,0,0,51.4948514,-0.1197895
Freud Museum,"20 Maresfield Gardens, London, United Kingdom",0,0,0,0,0,1,0,0,1,0,0,0,51.5483391,-0.1773926
Churchill War Rooms (Churchill Museum & Cabinet War Rooms),King Charles St.,0,0,0,0,0,1,0,0,1,0,0,0,51.5021061,-0.126102
Imperial War Museum,"Lambeth Road, London, United Kingdom",0,0,0,0,0,1,0,0,1,0,0,0,51.4960433,-0.113278
Bloomsbury Square Gardens,"London, United Kingdom",1,0,0,0,0,0,0,0,0,1,0,0,51.5074456,-0.1277653
Pump House Gallery,"London, United Kingdom",0,0,0,0,0,0,0,1,0,0,0,0,51.5074456,-0.1277653
Discover,"383-387 High Street, London, United Kingdom",0,0,0,0,0,0,0,0,0,0,0,0,51.539026,-0.0001722
Dominion Theatre,268-269 Tottenham Court Rd.,0,0,0,1,0,0,0,1,0,0,0,0,51.5227818,-0.136439
Her Majesty's Theatre,Haymarket,0,0,0,1,0,0,0,1,0,0,0,0,55.9451838,-3.2193738
Victoria Palace Theatre,Victoria Street,0,0,0,1,0,0,0,1,0,0,0,0,44.9557403,-93.1364979
New Wimbledon Theatre,93 The Broadway,0,0,0,1,0,0,0,1,0,0,0,0,51.4192211,-0.2014217
Southbank Centre,"Belvedere Road, London, United Kingdom",0,0,1,0,0,0,0,1,0,0,0,0,51.505174,0.13266
Everyman Baker St,"96-98 Baker Street, London, United Kingdom",0,0,1,0,0,0,0,0,0,0,0,1,51.5205429,-0.1565668
Royal Albert Hall,Kensington Gore,0,0,0,1,0,0,0,0,0,0,0,0,51.5010667,-0.178161
Sadler's Wells,Rosebery Ave.,0,0,1,1,0,0,0,1,0,0,0,0,51.8491161,-2.2465696
The Gate Cinema,"87 Notting Hill Gate, London, United Kingdom",0,0,0,0,0,0,0,0,0,0,0,1,51.5086889,-0.1972506
Richmond Theatre,Little Green,0,0,0,1,0,0,0,1,0,0,0,0,52.4959178,1.1313988
BAC (Battersea Arts Centre),Lavender Hill,0,0,1,0,0,0,0,0,0,0,0,0,37.4422733,-88.3689273
Polka Theatre,"240 The Broadway, London, United Kingdom",0,0,0,0,0,0,0,0,0,0,0,1,51.4984458,-0.1331781
Clapham Picturehouse,"76 Venn Street, London, United Kingdom",0,0,0,0,0,0,0,0,0,0,0,0,51.4625014,-0.1381521
Odeon Cinema Swiss Cottage,"96 Finchley Road, London, United Kingdom",0,0,0,0,0,0,0,0,0,0,0,0,51.5424955,-0.1745718
Renoir Cinema,"The Brunswick, London, United Kingdom",0,0,0,0,0,0,0,0,0,0,0,0,53.8020209,-1.537433
Rio Cinema,"107 Kingsland High Street, London, United Kingdom",0,0,0,0,0,0,0,0,0,0,0,0,51.5496199,-0.0755805
Grosvenor Victoria Casino,"150-162 Edgware Road, London, United Kingdom",0,1,0,0,0,0,0,0,0,0,0,0,51.517212,-0.1654983
Vue,"Leicester Square, 3 Cranbourn Street, London, United Kingdom",0,0,0,0,0,0,0,0,0,0,0,1,51.5112449,-0.1293677
Odeon Cinema Holloway,"419-427 Holloway Road, London, United Kingdom",0,0,0,0,0,0,0,0,0,0,0,1,51.5586425,-0.1214617
Everyman Screen on the Green,"83 Upper Street, London, United Kingdom",0,0,0,0,0,0,0,0,0,0,0,1,51.5368532,-0.1036648
Emirates Stadium,75 Drayton Pk,0,0,0,0,0,0,1,0,0,0,0,0,51.5550403,-0.1083997
Hackney Empire,291 Mare St.,0,0,0,0,0,0,0,0,0,0,0,0,51.5456229,-0.0557025
indigO2,Millennium Way,0,1,1,1,1,0,0,0,0,0,0,0,51.4988256,0.0023354
Theatre Royal Stratford East,Gerry Raffles Square,0,0,0,0,0,0,0,0,0,0,0,0,51.5425181,0.0004785
The Albany,Douglas Way,0,0,0,0,0,0,0,0,0,0,0,0,51.4775877,-0.0271032
The O2 Arena,Peninsula Sq.,0,0,0,1,0,0,1,0,0,0,0,0,22.3114249,114.1898083
Roundwood Park,Harlesden Rd.,1,0,0,0,0,0,1,0,0,1,0,0,51.5388886,-0.2384279
The Space,269 Westferry Road,0,0,0,0,0,0,0,1,0,0,0,0,51.4921314,-0.0243142
White Bear Theatre Club,138 Kennington Park Road,0,0,0,0,0,0,0,0,0,0,0,0,51.4868905,-0.1080999
The Battersea Barge,9 Elms Lane,0,0,0,0,0,0,0,0,0,0,0,0,40.9396941,-72.8557444
Corsica Studios,"4/5 Elephant Road, London, United Kingdom",0,1,0,1,1,0,0,0,0,0,0,0,51.4934892,-0.0987681
The Jack Studio Theatre,410 Brockley Rd,0,0,0,0,0,0,0,0,0,0,0,0,43.1682465,-77.5444475
Village Underground,"54 Holywell Lane, London, United Kingdom",0,1,1,1,1,0,0,0,0,0,0,0,51.5235955,-0.0786639
Crystal Palace National Sports Centre,"Ledrington Road, London, United Kingdom",0,0,0,0,0,0,1,0,0,0,0,0,51.4184392,-0.0740619
Arches Leisure Centre,"80 Trafalgar Road, London, United Kingdom",0,0,0,0,0,0,1,0,0,0,0,0,51.4184596,-0.1889542
Mile End Stadium,"190 Burdett Road, London, United Kingdom",0,0,0,0,0,0,1,0,0,0,0,0,51.5190214,-0.0334207
White Hart Lane Stadium,748 High Rd,0,0,0,0,0,0,1,0,0,0,0,0,41.6271585,-72.7874805
The Hippodrome Kingston,"1 St James Road, Kingston upon Thames, United Kingdom",1,0,1,0,0,0,0,0,0,0,0,0,51.408279,-0.3049293
Alexandra Palace,"Alexandra Palace Way, London, United Kingdom",0,0,0,1,0,0,0,1,0,1,0,0,51.5923843,-0.1340262
Surrey Docks Watersports Centre,"Rope Street, United Kingdom",0,0,0,0,0,0,1,0,0,0,0,0,51.4945015,-0.0338475
Brent Valley Golf Course,Brent Valley Golf Course,0,0,0,0,0,0,1,0,0,0,0,0,51.5173411,-0.3445661
The Hurlingham Club,Ranelagh Gardens,0,0,0,0,0,0,1,0,0,0,0,0,51.4867782,-0.1531942
Alexandra Palace Skateboard Park,"The Avenue, London, United Kingdom",0,0,0,0,0,0,1,0,0,0,0,0,51.6035674,0.0733811
Boujis,"43 Thurloe Street, London, United Kingdom",0,1,1,1,1,0,0,0,0,0,0,0,51.4944743,-0.1744098
Curzon Soho,"99 Shaftesbury Avenue, London, United Kingdom",0,0,0,0,0,0,0,0,0,0,0,1,51.5126577,-0.1306078
Peckham Rye Park,"London, United Kingdom",1,0,0,0,0,0,0,0,0,1,0,0,51.5074456,-0.1277653
Charlie's,"9 Crosswall, London, United Kingdom",0,0,0,0,0,0,0,0,0,0,1,0,51.5116636,-0.0767166
The Old Vic,The Cut,0,0,0,0,0,0,0,0,0,0,0,0,52.3461641,1.5040453
The Phoenix Cinema,"52 High Road, East Finchley, London, United Kingdom",0,0,0,0,0,0,0,0,0,0,0,1,51.5976451,-0.1720453
The Alma,499 Old York Rd,0,1,1,1,0,0,0,0,0,0,1,0,51.4604351,-0.1875578
The Stag,67 Fleet Rd,0,0,1,0,0,0,0,0,0,0,1,0,51.5533303,-0.1615808
Queen Adelaide,35 Putney Bridge Rd,0,1,1,1,0,0,0,0,0,0,1,0,51.459868,-0.1993173
The Canonbury,21 Canonbury Place,0,0,1,0,0,0,0,0,0,0,1,0,51.5447044,-0.0974988
The Gowlett,62 Gowlett Rd,0,0,1,0,0,0,0,0,0,0,1,0,51.4637958,-0.0705573
The North London Tavern,Kilburn High Rd,0,0,1,0,0,0,0,0,0,0,1,0,51.5377475,-0.1913533
The Falcon,33 Bedford Road,0,0,1,0,0,0,0,0,0,0,1,0,-37.8155613,145.2348001
The Prince George,40 Parkholme Rd.,0,0,1,0,0,0,0,0,0,0,1,0,51.5450115,-0.0681172
The Roebuck,130 Richmond Hill,0,0,1,0,0,0,0,0,0,0,1,0,51.4524929,-0.2985121
Walpole Park,"London, United Kingdom",1,0,0,0,0,0,0,0,0,1,0,0,51.5074456,-0.1277653
Ravenscourt Park,16 Ravenscourt Ave.,1,0,0,0,0,0,0,0,0,1,0,0,51.4937035,-0.2379434
Balham Bowls Club,7-9 Ramsden Rd.,0,0,1,0,0,0,0,0,0,0,1,0,51.4449518,-0.1523815
Dalston Superstore,"117 Kingsland High Street, London, United Kingdom",0,1,1,1,1,0,0,0,0,0,0,0,51.5500956,-0.075368
Buffalo Bar,"259 Upper Street, London, United Kingdom",0,0,1,0,0,0,0,0,0,0,0,0,51.5460069,-0.1035265
Turnham Green,"Chiswick High Road, London, United Kingdom",1,0,0,0,0,0,0,0,0,1,0,0,51.4933519,-0.2467058
Blue Anchor Pub,Bridgen Road,0,0,1,0,0,0,0,0,0,0,1,0,51.4451139,0.133513
The Dignity,363 Regents Park Road,0,0,1,0,0,0,0,0,0,0,1,0,51.6008404,-0.1946078
The Palm Beach Casino,"30 Berkeley Street, London, United Kingdom",0,1,0,0,0,0,0,0,0,0,0,0,51.5085978,-0.143934
The Lord Nelson,386 Old Kent Rd.,0,0,1,0,0,0,0,0,0,0,1,0,51.4867601,-0.0741916
Vestry House Museum,"Vestry Road, London, United Kingdom",0,0,0,0,0,1,0,0,1,0,0,0,51.4715475,-0.0824819
Fountain Studios,128 Wembley Park Dr.,0,0,0,0,0,0,0,0,0,0,0,0,51.5613396,-0.2875247
Acton Park,"21 East Churchfield Road, London, United Kingdom",1,0,0,0,0,0,0,0,0,1,0,0,51.5093194,-0.259676
The Lord Clyde,340-342 Essex Road,0,0,1,0,0,0,0,0,0,0,1,0,51.5437325,-0.0899587
Ironmonger Row Baths,Ironmonger Row,0,0,0,0,0,0,1,0,0,0,0,0,51.5268031,-0.0944142
The Five Bells,165-167 East End Rd,0,0,1,0,0,0,0,0,0,0,1,0,51.5908058,-0.1722957
Wandsworth Common,Bellevue Rd.,1,0,0,0,0,0,0,0,0,1,0,0,51.6163303,-0.1497632
Clissold Park,Church St,1,0,0,0,0,0,0,0,0,1,0,0,40.7112703,-74.0107145
The Lauriston,162 Victoria Park Road,0,0,1,0,0,0,0,0,0,0,1,0,51.5378669,-0.0451705
Prince Charles Cinema,"7 Leicester Place, London, United Kingdom",0,0,0,0,0,0,0,0,0,0,0,1,51.5114906,-0.1302175
Haynes Park,United Kingdom,1,0,0,0,0,0,0,0,0,1,0,0,54.7023545,-3.2765753
Defectors Weld,170 Uxbridge Rd.,0,0,1,0,0,0,0,0,0,0,1,0,51.5083056,-0.3405139
Curzon,"206 King's Road, London, United Kingdom",0,0,0,0,0,0,0,0,0,0,0,1,51.4816503,-0.1818652
Fenton House,"Hampstead Grove, London, United Kingdom",1,0,0,0,0,1,0,0,0,1,0,0,51.5598347,-0.1793577
The Herne Tavern,2 Forest Hill Rd,0,1,1,0,0,0,0,0,0,0,1,0,51.4541308,-0.0632655
London Fields Fitness Studio,"London, United Kingdom",0,0,0,0,0,0,1,0,0,0,0,0,51.5074456,-0.1277653
The Bedford,77 Bedford Hill,0,1,1,1,0,0,0,0,0,0,1,0,51.4427243,-0.1493607
The Gardener's Arms,Merton Road,0,0,1,0,0,0,0,0,0,0,1,0,51.4568736,-0.1985642
Greenwich Picturehouse,"180 Greenwich High Road, London, United Kingdom",0,0,0,0,0,0,0,0,0,0,0,1,51.4794518,-0.0096829
"Queen's Wood, N10","London, United Kingdom",1,0,0,0,0,0,0,0,0,1,0,0,51.5074456,-0.1277653
Chestnuts Park,"London, United Kingdom",1,0,0,0,0,0,0,0,0,1,0,0,51.5074456,-0.1277653
White Hart,The Terrace,0,0,1,0,0,0,0,0,0,0,1,0,-33.565,150.7677778
Everyman Belsize Park,203 Haverstock Hill,1,0,0,0,0,0,0,0,0,1,0,0,51.5508149,-0.1657783
The Curtains Up,28a Comeragh Rd.,0,0,1,0,0,0,0,0,0,0,1,0,51.4894087,-0.2095194
The Sun Inn,7 Church Road,0,0,1,0,0,0,0,0,0,0,1,0,51.3830535,-2.6611602
Keats House,"10 Keats Grove, London, United Kingdom",0,0,0,0,0,1,0,0,0,0,0,0,51.5554386,-0.1682031
Barnes Common,"London, United Kingdom",1,0,0,0,0,0,0,0,0,1,0,0,51.5074456,-0.1277653
The Blind Beggar,337 Whitechapel Rd,0,0,1,0,0,0,0,0,0,0,1,0,51.5200404,-0.0569096
Tricycle Theatre,269 Kilburn High Road,0,0,0,0,0,0,0,0,0,0,0,0,51.5431686,-0.2003532
Orleans House Gallery,United Kingdom,0,0,0,0,0,0,0,1,0,0,0,0,54.7023545,-3.2765753
The Tailor's Chalk (Wetherspoon),47-49 High St.,0,0,1,0,0,0,0,0,0,0,1,0,51.4494761,-2.5173561
Altab Ali Park,"Alder Street, London, United Kingdom",1,0,0,0,0,0,0,0,0,1,0,0,51.5154751,-0.0021606
The City Barge,27 Strand on the Green,0,0,1,0,0,0,0,0,0,0,1,0,51.486424,-0.2798847
FacesNightclub,"458-462 Cranbrook Road, Ilford, United Kingdom",0,1,1,1,1,0,0,0,0,0,0,0,51.5600663,0.0698451
Russell Square,"London, United Kingdom",0,0,0,0,0,0,0,0,0,1,0,0,51.5074456,-0.1277653
PeckhamPlex,"95A Rye Lane, London, United Kingdom",0,0,0,0,0,0,0,0,0,0,0,1,51.470859,-0.0679233
The Moon Under Water (Wetherspoon),84-86 Staines Rd.,0,0,1,0,0,0,0,0,0,0,0,0,51.4669939,-0.3694887
Shakespeare's Globe Theatre,21 New Globe Walk,0,0,0,0,0,0,0,0,0,0,0,0,51.5081196,-0.0971901
The White Cross,Riverside,0,0,1,0,0,0,0,0,0,0,1,0,33.9824949,-117.374238
Florist Arms,255 Globe Rd.,0,1,1,0,0,0,0,0,0,0,0,0,51.5285657,-0.0514366
Two Brewers,114 Clapham High St.,0,1,1,0,0,0,0,0,0,0,0,0,51.4630658,-0.1348306
The Bree Louise,69 Coburg St,0,1,1,0,0,0,0,0,0,0,0,0,42.9579135,-78.8447569
Lincoln's Inn Fields,"Newman's Row, London, United Kingdom",0,0,0,0,0,0,1,0,0,0,0,0,51.5174333,-0.1155622
The Old Eagle,251 Royal College Street,0,0,1,0,0,0,0,0,0,0,0,0,51.5427531,-0.1394522
Myddleton Arms,52 Canonbury Rd.,0,0,1,0,0,0,0,0,0,0,1,0,51.5417862,-0.0976536
Lock Tavern,35 Chalk Farm Rd.,0,0,1,0,0,0,0,0,0,0,1,0,51.5428711,-0.1477044
The Telegraph,Telegraph Rd,0,0,0,0,0,0,0,0,0,0,1,0,44.854034,-93.383845
The Ring,72 Blackfriars Rd.,0,1,1,0,0,0,0,0,0,0,0,0,51.5035604,-0.1048205
Coborn Arms,8 Coborn Rd.,0,0,1,0,0,0,0,0,0,0,0,0,51.5269766,-0.0300082
Shoreditch Park Boulder,"Poole Street, London, United Kingdom",0,0,0,0,0,0,1,0,0,0,0,0,51.5355148,-0.0885916
The Elephant's Head,224 Camden High Street,0,1,1,0,0,0,0,0,0,0,0,0,51.5407752,-0.143798
Gordon Square Garden,"London, United Kingdom",1,0,0,0,0,0,0,0,0,1,0,0,51.5074456,-0.1277653
Cineworld,"63-65 Haymarket, London, United Kingdom",0,0,0,0,0,0,0,0,0,0,0,1,51.5088571,-0.1320752
Lambeth Palace Gardens,"London, United Kingdom",1,0,0,0,0,0,0,0,0,1,0,0,51.5074456,-0.1277653
Essex Yeoman (Original Pub Company),70 Station Rd.,0,0,1,0,0,0,0,0,0,0,0,0,51.4713732,-0.2465912
Kelsey Park,"Manor Way, London, United Kingdom",1,0,0,0,0,0,0,0,0,1,0,0,51.439793,0.1449892
Earl Ferrers,Ferrers Road,0,0,1,1,0,0,0,0,0,0,1,0,51.4234891,-0.1335722
Well Hall Pleasaunce,"London, United Kingdom",1,0,0,0,0,0,0,0,0,1,0,0,51.5074456,-0.1277653
Thatched House,St Marys Ln.,0,0,1,0,0,0,0,0,0,0,1,0,36.2083082,-86.8239271
Cineworld Wandsworth,"Southside Shopping Centre, Wandsworth High Street, London, United Kingdom",0,0,0,0,0,0,0,0,0,0,0,1,51.4544227,-0.1940165
The Duke of Wellington,119 Balls Pond Rd,0,0,1,0,0,0,0,0,0,0,1,0,51.5462821,-0.0805736
Whittington & Cat,89 Highgate Hill,0,0,1,0,0,0,0,0,0,0,0,0,51.5673859,-0.1386816
The Bald Faced Stag,69 High Road,0,0,1,0,0,0,0,0,0,0,1,0,52.7125353,1.5888037
The Old Bull & Bush,North End Way,0,0,1,0,0,0,0,0,0,0,1,0,51.566242,-0.1821268
The Furze Wren (Wetherspoon),"Unit 6, Market Place",0,0,1,0,0,0,0,0,0,0,1,0,52.6753477,-0.3170006
Battersea Bridge Gardens,"London, United Kingdom",1,0,0,0,0,0,0,0,0,1,0,0,51.5074456,-0.1277653
Golden Lion,2 High St.,0,1,1,0,0,0,0,0,0,0,1,0,51.5884783,0.0811236
Saatchi Gallery,"Duke Of York's HQ, King's Road, London, United Kingdom",0,0,0,0,0,0,0,1,0,0,0,0,51.4906483,-0.1587943
Coach & Horses,173-175 Clapham Park Rd.,0,0,1,0,0,0,0,0,0,0,0,0,51.4597098,-0.1340418
Saint George's Square Garden,"London, United Kingdom",1,0,0,0,0,0,0,0,0,1,0,0,51.5074456,-0.1277653
The Prince Albert (Whitton),Hounslow Road,0,0,1,0,0,0,0,0,0,0,0,0,51.451671,-0.4060275
The Bull & Last,168 Highgate Rd,0,0,1,0,0,0,0,0,0,0,1,0,51.5588853,-0.1486569
The William Webb Ellis (Wetherspoon),24 London Rd.,0,0,1,0,0,0,0,0,0,0,1,0,-33.9285772,18.4639396
Ye Olde Rose And Crown,53 Hoe St,0,0,1,0,0,0,0,0,0,0,1,0,20.9193905,-156.3753752
Eventim Apollo,45 Queen Caroline St,0,0,0,0,0,0,0,0,0,0,0,0,51.4907465,-0.2244517
Victoria and Albert Museum,"Cromwell Road, London, United Kingdom",0,0,0,0,0,0,0,1,1,0,0,0,51.4948775,-0.1855369
The Old White Lion,121 Great North Road,0,1,1,0,0,0,0,0,0,0,1,0,51.5865951,-0.1644135
Barfly,49 Chalk Farm Rd,0,1,1,1,0,0,0,0,0,0,0,0,51.5431079,-0.1492355
Meath Gardens,"London, United Kingdom",1,0,0,0,0,0,0,0,0,1,0,0,51.5074456,-0.1277653
J.J. Moon's (Wetherspoon),397 High Rd.,0,1,1,0,0,0,0,0,0,0,0,0,51.5534551,-0.2927474
The Snooty Fox,75 Grovesnor Avenue,0,1,1,1,0,0,0,0,0,0,0,0,6.7642117,-58.1754644
King George's Park,"Burr Road, London, United Kingdom",1,0,0,0,0,0,0,0,0,1,0,0,51.4473643,-0.195777
The Prince Alfred,5A Formosa St,0,1,1,0,0,0,0,0,0,0,1,0,51.5244269,-0.1848853
Teddington Studios,Broom Rd.,0,0,0,0,0,1,0,0,0,0,0,0,51.4204856,-0.3110466
Curzon Mayfair Cinema,"38 Curzon Street, London, United Kingdom",0,0,0,0,0,0,0,0,0,0,0,1,51.5064474,-0.14799
Dirty Dicks,202 Bishopsgate,0,1,1,0,0,0,0,0,0,0,1,0,51.5179012,-0.0792945
Rosemary Branch Theatre and Pub,2 Shepperton Rd,0,0,1,0,0,0,0,0,0,0,1,0,51.5375954,-0.0869273
Vue Cinema Finchley Road,"O2 Centre, 255 Finchley Road, London, United Kingdom",0,0,0,0,0,0,0,0,0,0,0,1,51.5479375,-0.1816585
Brockwell Park,"Dulwich Road, London, United Kingdom",1,0,0,0,0,0,0,0,0,1,0,0,51.4548583,-0.1094449
The Red Lion (Fulwell),Stanley Road,0,0,1,0,0,0,0,0,0,0,0,0,51.5668683,-0.3531933
The Crown & Greyhound,73 Dulwich Village,0,0,1,0,0,0,0,0,0,0,1,0,51.4493782,-0.0847221
Northampton Square Garden,"London, United Kingdom",1,0,0,0,0,0,0,0,0,1,0,0,51.5074456,-0.1277653
Twickenham Green,"Twickenham, United Kingdom",1,0,0,0,0,0,0,0,0,1,0,0,51.4467444,-0.3281887
Blythe Hill Tavern,319 Stanstead Road,0,0,1,0,0,0,0,0,0,0,0,0,51.4423194,-0.033722
Hackney Downs,"Downs Park Road, London, United Kingdom",1,0,0,0,0,0,0,0,0,1,0,0,51.5516722,-0.0659137
Eaton Square Gardens,"London, United Kingdom",1,0,0,0,0,0,0,0,0,1,0,0,51.5074456,-0.1277653
Queen's Park,"London, United Kingdom",1,0,0,0,0,0,0,0,0,1,0,0,51.5074456,-0.1277653
The Chamberlayne,83 Chamberlayne Rd,0,0,1,0,0,0,0,0,0,0,1,0,51.5340626,-0.2186573
The Claret Freehouse,Lower Addiscombe Road,0,0,1,0,0,0,0,0,0,0,1,0,51.3849451,-0.0638094
Chelsea Arts Club,"143 Old Church Street, London, United Kingdom",0,0,0,0,0,0,0,0,0,0,1,0,51.4878673,-0.1746108
Lexi Cinema,"194b Chamberlayne Rd, London, United Kingdom",0,0,0,0,0,0,0,0,0,0,0,1,51.5375274,-0.2224753
Raynes Park Tavern,Coombe Lane,0,1,1,0,0,0,0,0,0,0,0,0,51.3598192,-0.0600802
The Brown Bear,Leman Rd.,0,0,1,0,0,0,0,0,0,0,1,0,-17.7890855,31.0425808
The Station Tavern,257 Green St,0,0,1,0,0,0,0,0,0,0,0,0,51.5402237,0.0327907
St Margarets Pub,107 St Margarets Road,0,0,1,0,0,0,0,0,0,0,1,0,51.4546639,-0.3191838
The Gym Wood Green,"725-731 Lordship Lane, London, United Kingdom",0,0,0,0,0,0,1,0,0,0,0,0,51.4585235,-0.0749628
The Devonshire,39 Balham High Rd.,0,0,1,0,0,0,0,0,0,0,0,0,51.4469022,-0.1490137
The London Apprentice,62 Church Street,0,0,1,0,0,0,0,0,0,0,1,0,-37.9090983,144.6572262
William IV,786 Harrow Road,0,0,1,0,0,0,0,0,0,0,1,0,51.5289169,-0.2183479
Henry Addington,22-28 Mackenzie Walk,0,0,1,0,0,0,0,0,0,0,0,0,51.5043058,-0.0225667
Shakespeare's Head (Wetherspoon),64-68 Kingsway,0,0,1,0,0,0,0,0,0,0,1,0,51.5169668,-0.1193736
Dulwich Woodhouse,39 Sydenham Hill,0,0,1,0,0,0,0,0,0,0,1,0,51.4327597,-0.0726831
The Capitol (Wetherspoon),11-21 London Rd.,0,0,1,0,0,0,0,0,0,0,0,0,51.4389738,-0.0549483
All Inn One,53 Perry Vale,0,0,1,0,0,0,0,0,0,0,1,0,51.435121,-0.0430306
East Dulwich Tavern,1 Lordship Ln.,0,0,1,0,0,0,0,0,0,0,1,0,51.4603788,-0.0750598
The Cuckfield,31 High St.,0,0,1,0,0,0,0,0,0,0,1,0,51.5892676,0.0811427
Hackney Marsh,"Homerton Road, London, United Kingdom",1,0,0,0,0,0,0,0,0,1,0,0,51.5507213,-0.032041
Sydenham Wells Park,"London, United Kingdom",1,0,0,0,0,0,0,0,0,1,0,0,51.5074456,-0.1277653
Mount Street Gardens,"London, United Kingdom",1,0,0,0,0,0,0,0,0,1,0,0,51.5074456,-0.1277653
Westow Park,"London, United Kingdom",1,0,0,0,0,0,0,0,0,1,0,0,51.5074456,-0.1277653
The Rookery,"Covington Way, London, United Kingdom",1,0,0,0,0,0,0,0,0,1,0,0,51.4210814,-0.1189593
The Salisbury,1 Grand Parade,0,0,1,0,0,0,0,0,0,0,1,0,53.3303963,-6.2591192
The Pheasant Pub,98 West End Lane,0,0,1,0,0,0,0,0,0,0,1,0,51.546199,-0.1909758
Wembley Stadium Parking,"Wembley Stadium, Wembley, United Kingdom",0,0,0,0,0,0,1,0,0,0,0,0,51.5560695,-0.2796034
Odeon Cinema Richmond,"72 Hill St, Richmond, United Kingdom",0,0,0,0,0,0,0,0,0,0,0,1,51.4585767,-0.3051781
Clapton Common,"Clapton Common, London, United Kingdom",1,0,0,0,0,0,0,0,0,1,0,0,51.5724626,-0.067246
The Tally Ho (Wetherspoon),749 High Rd.,0,0,1,0,0,0,0,0,0,0,1,0,51.6141038,-0.1765556
Fox & Firkin,316 High St.,0,1,1,1,0,0,0,0,0,0,1,0,40.7743641,-77.6690885
The Metropolitan,60 Great Western Rd.,0,1,1,1,0,0,0,0,0,0,1,0,51.5206199,-0.2007333
Baby Spa By Laura Sevenus,"6 Lancer Square, London, United Kingdom",0,0,0,0,0,0,0,0,0,0,0,0,51.5030252,-0.1910675
Priory Park,"London, United Kingdom",1,0,0,0,0,0,0,0,0,1,0,0,51.5074456,-0.1277653
The Clapham North,409 Clapham Road,0,0,1,0,0,0,0,0,0,0,0,0,51.4654366,-0.1292058
The Birdcage,57 Stamford Hill,0,0,1,0,0,0,0,0,0,0,0,0,51.5678973,-0.0734272
The Duke of Kent,2 Scotch Common,0,0,1,0,0,0,0,0,0,0,1,0,51.5249448,-0.3201302
The Fulham Mitre,81 Dawes Rd.,0,0,1,0,0,0,0,0,0,0,1,0,-36.3098691,145.0338238
The National Archives,Bessant Drive,0,0,0,0,0,1,0,0,0,0,0,0,51.4786301,-0.2803267
BFI IMAX,"1 Charlie Chaplin Walk, London, United Kingdom",0,0,0,0,0,0,0,0,0,0,0,1,51.5067272,-0.1151999
Camberwell Green,"London, United Kingdom",1,0,0,0,0,0,0,0,0,1,0,0,51.5074456,-0.1277653
The Prince Albert Battersea,Albert Bridge rd,0,0,1,0,0,0,0,0,0,0,1,0,51.4803849,-0.1658216
Hanger Hill Park,"London, United Kingdom",1,0,0,0,0,0,0,0,0,1,0,0,51.5074456,-0.1277653
Haven Green,"London, United Kingdom",1,0,0,0,0,0,0,0,0,1,0,0,51.5074456,-0.1277653
Railway Bell,87 George Ln,0,0,1,0,0,0,0,0,0,0,0,0,34.6663417,-92.3434192
The Valley,"Floyd Road, London, United Kingdom",0,0,0,0,0,0,1,0,0,0,0,0,51.4871921,0.0345313
The Telegraph (at The Earl of Derby),"87 Dennetts Road, Telegraph Hill",0,0,1,0,0,0,0,0,0,0,1,0,51.4709158,-0.0501253
Hand & Flower,1 Hammersmith Rd,0,0,1,0,0,0,0,0,0,0,1,0,51.4958494,-0.2080518
The Bear,26-28 York St.,0,0,1,0,0,0,0,0,0,0,0,0,51.4472572,-0.3272912
Ailsa Tavern - Shepherd Neame,263 St Margarets Road,0,0,1,0,0,0,0,0,0,0,0,0,51.4605466,-0.3229113
The Rose & Crown,55 High St.,0,0,1,0,0,0,0,0,0,0,0,0,-36.8486667,174.766169
Skehans Freehouse,1 Kitto Rd,0,0,1,0,0,0,0,0,0,0,1,0,51.4675797,-0.0494655
The Three Crowns,175 Stoke Newington High St,0,0,1,0,0,0,0,0,0,0,1,0,51.5621443,-0.0739483
Captain Kidd,108 Wapping High St.,0,0,1,0,0,0,0,0,0,0,1,0,51.5032724,-0.0579202
The Lass O' Richmond Hill,8 Queen's Road,0,0,1,0,0,0,0,0,0,0,1,0,51.4861432,-2.435556
Three Hammers,The Ridgeway,0,0,1,0,0,0,0,0,0,0,1,0,-35.3390736,149.2612379
Saint Mary Abbots Gardens,"London, United Kingdom",1,0,0,0,0,0,0,0,0,1,0,0,51.5074456,-0.1277653
Highbury Fields,"London, United Kingdom",1,0,0,0,0,0,0,0,0,1,0,0,51.5074456,-0.1277653
The Highbury Barn,26 Highbury Park,0,0,1,0,0,0,0,0,0,0,1,0,25.0452458,-77.3227567
Red Lion,"Linkfield Road, Isleworth",0,1,1,0,0,0,0,0,0,0,1,0,51.4735437,-0.3343819
Markfield Park,"London, United Kingdom",1,0,0,0,0,0,0,0,0,1,0,0,51.5074456,-0.1277653
Big Red,385 Holloway Rd,0,0,0,0,0,0,0,0,0,0,1,0,51.5573872,-0.1191956
Primrose Hill,"Primrose Hill Road, London, United Kingdom",1,0,0,0,0,0,0,0,0,1,0,0,51.5402022,-0.1586636
Larkhall Park,"London, United Kingdom",1,0,0,0,0,0,0,0,0,1,0,0,51.5074456,-0.1277653
The Southampton Arms,139 Highgate Rd,0,0,1,0,0,0,0,0,0,1,0,0,51.5560581,-0.1461998
Stratford East Picturehouse,"Salway Road, London, United Kingdom",0,0,0,0,0,0,0,0,0,0,0,1,51.5432143,0.0020809
The Faltering Fullback,19 Perth Rd.,0,1,1,0,0,0,0,0,0,0,1,0,51.5685203,-0.1081989
Grand Union Kennington,111 Kennington Rd.,0,1,1,0,0,0,0,0,0,0,0,0,51.4953279,-0.1106915
The Castle,15 Grosvenor Rise E,0,0,1,0,0,0,0,0,0,0,1,0,51.5806331,-0.0112057
Arundel Square Garden,"London, United Kingdom",1,0,0,0,0,0,0,0,0,1,0,0,51.5074456,-0.1277653
The Prince Regent,69 Dulwich Rd,0,0,1,0,0,0,0,0,0,0,1,0,51.453829,-0.1065085
County Arms,Trinity Road,0,1,1,0,0,0,0,0,0,0,0,0,51.4371462,-0.1617278
The Minories,64-73 The Minories,0,0,1,0,0,0,0,0,0,0,0,0,52.1936784,-1.7086798
Manor House Gardens,"Taunton Road, Lee, United Kingdom",1,0,0,0,0,0,0,0,0,1,0,0,51.4545859,0.0061919
Prince Blucher,The Green (Twickenham),0,0,1,0,0,0,0,0,0,0,1,0,51.4612711,-0.3083749
Oddfellows Arms,"Waxwell Lane, Pinner",0,1,1,1,0,0,0,0,0,0,1,0,51.5991342,-0.3856124
Weavers Fields,"London, United Kingdom",1,0,0,0,0,0,0,0,0,1,0,0,51.5074456,-0.1277653
Islington Green,"Upper Street, London, United Kingdom",1,0,0,0,0,0,0,0,0,1,0,0,51.5403341,-0.1026053
Highbury Corner Garden,"London, United Kingdom",1,0,0,0,0,0,0,0,0,1,0,0,51.5074456,-0.1277653
Hither Green Village,Leahurst Road,0,0,0,0,0,0,0,0,0,1,0,0,51.4536737,-0.0014301
Mountsfield Park,"The Lodge, Mountsfield Park, Stainton Road, Catford, United Kingdom",1,0,0,0,0,0,0,0,0,1,0,0,51.448399,-0.0081177
The Bolingbroke,174 Northcote Rd.,0,0,1,0,0,0,0,0,0,0,1,0,51.5839234,-0.0355862
Central YMCA,"112 Great Russell Street, London, United Kingdom",0,0,0,0,0,0,1,0,0,0,0,0,51.5183072,-0.1259211
The Red Cow,59 Sheen Road,0,0,1,0,0,0,0,0,0,0,0,0,46.9977288,-68.0201838
The Wheatsheaf,41 Haven Ln.,0,0,1,0,0,0,0,0,0,0,1,0,51.5169211,-0.299932
The Black Lion,266-280 Kilburn High Rd,0,0,1,0,0,0,0,0,0,0,1,0,51.5438188,-0.2003215
Odeon Whiteleys,"Whiteleys Centre, Queensway, London, United Kingdom",0,0,0,0,0,0,0,0,0,0,0,1,51.5148417,-0.1888356
The Spurstowe Arms,38 Greenwood Rd,0,0,1,0,0,0,0,0,0,0,0,0,55.7862163,-4.2787526
Wapping Woods,"London, United Kingdom",1,0,0,0,0,0,0,0,0,1,0,0,51.5074456,-0.1277653
Beauty by Olivia (GI Salons),"6 Hendon Lane, London, United Kingdom",0,0,0,0,0,0,0,0,0,0,0,0,51.5994681,-0.1975108
Paterson Park,"London, United Kingdom",1,0,0,0,0,0,0,0,0,1,0,0,51.5074456,-0.1277653
Drayton Court Pub,The Avenue,0,1,1,1,1,0,0,0,0,0,1,0,55.0801365,-1.5062088
Willoughby Arms,47 Willoughby Road,0,0,1,0,0,0,0,0,0,0,0,0,51.4162594,-0.2923524
Terrace Gardens,"Richmond, United Kingdom",1,0,0,0,0,0,0,0,0,1,0,0,51.4405529,-0.3076394
Terrace Field,"Richmond, United Kingdom",0,0,0,0,0,0,0,0,0,1,0,0,51.4405529,-0.3076394
Thames Barrier Park,"North Woolwich Road, London, United Kingdom",1,0,0,0,0,0,0,0,0,1,0,0,51.5031182,0.0211035
The New Crown (Wetherspoon),80-84 Chase Side,0,0,1,0,0,0,0,0,0,0,1,0,51.6333482,-0.1305923
The Barmy Arms,The Embankment,0,0,1,0,0,0,0,0,0,0,1,0,53.2739136,-6.4266208
The Raven,375 Goldhawk Rd,0,1,1,1,0,0,0,0,0,0,1,0,51.4950799,-0.2445682
The Fox,Fox Lane,0,0,1,0,0,0,0,0,0,0,1,0,51.3130393,-0.7716176
The Yacht,5-7 Crane St,0,0,1,0,0,0,0,0,0,0,1,0,51.4749909,-0.0767504
The Lamb,73 Brighton Road,0,0,1,0,0,0,0,0,0,0,1,0,42.9906923,-78.870769
Wandle Park,"London, United Kingdom",1,0,0,0,0,0,0,0,0,1,0,0,51.5074456,-0.1277653
Oceana,"154 Clarence Street, Kingston upon Thames, United Kingdom",0,1,1,1,1,0,0,0,0,0,0,0,51.4114692,-0.3001784
The Tichenham Inn (Wetherspoon),11 Swakeleys Rd.,0,1,1,0,0,0,0,0,0,0,1,0,51.5644308,-0.4447813
The Rocket,11-13 Churchfield Rd,0,0,1,0,0,0,0,0,0,0,1,0,51.5087219,-0.2639648
The Earl Haig,Little Heath Rd.,0,0,1,0,0,0,0,0,0,0,1,0,51.4726817,0.1405555
Secret Paradise Spa Ltd,"83 Church Road, London, United Kingdom",0,0,0,0,0,0,0,0,0,0,0,0,51.4608516,0.138186
Chislehurst Caves,Caveside Close,0,0,1,0,0,0,0,0,0,0,1,0,51.4077096,0.0565092
The Tabard,2 Bath Rd,0,0,0,0,0,0,0,0,0,0,0,0,51.3534108,-2.0081745
Camden Square Gardens,"London, United Kingdom",1,0,0,0,0,0,0,0,0,1,0,0,51.5074456,-0.1277653
Showcase Cinemas,"Jenkins Lane, Barking, United Kingdom",0,0,0,0,0,0,0,0,0,0,0,1,51.5244004,0.0758271
Apollo Victoria Theatre,17 Wilton Rd,0,0,0,0,0,0,0,0,0,0,0,0,41.0119243,-73.6867446
Cineworld Ilford,"Clements Road, Ilford, United Kingdom",0,0,0,0,0,0,0,0,0,0,0,1,51.5573744,0.0728694
The Great Spoon of Ilford (Wetherspoon),114-116 Cranbrook Rd.,0,0,1,0,0,0,0,0,0,0,0,0,51.5619997,0.0690817
Slug and Lettuce,4 Saint John's Hill,0,0,1,0,0,0,0,0,0,0,1,0,50.8762118,0.0090253
Waddon Ponds,"35-99 The Ridgeway, Croydon, United Kingdom",1,0,0,0,0,0,0,0,0,1,0,0,51.3695235,-0.1224763
Charlton Park,"London, United Kingdom",1,0,0,0,0,0,0,0,0,1,0,0,51.5074456,-0.1277653
Dundonald Recreation Ground,"Dundonald Road, London, United Kingdom",0,0,0,0,0,0,1,0,0,0,0,0,51.4177292,-0.2077975
The Union Bar,4 Sheldon Sq.,0,0,1,0,0,0,0,0,0,0,0,0,51.5195407,-0.1797209
The Pilot,56 Wellesley Rd.,0,1,1,0,0,0,0,0,0,0,1,0,-36.9526,174.7720526
Southwark Park,"Gomm Road, London, United Kingdom",1,0,0,0,0,0,1,0,0,1,0,0,51.4953787,-0.052978
Harefield,Everywhere!,1,0,0,0,0,1,0,0,0,1,0,0,39.6262264,19.9036023
The Edward Rayne (Wetherspoon),8-12 Coombe Lane,0,0,1,0,0,0,0,0,0,0,1,0,51.4098225,-0.2287642
Purple Turtle,65 Crowndale Rd,0,1,1,1,1,0,0,0,0,0,0,0,51.5344823,-0.1378475
The Talbot,109 Mortimer Rd,0,0,1,0,0,0,0,0,0,0,1,0,51.506375,-2.5644417
Crown and Sceptre,Junction road,0,0,1,0,0,0,0,0,0,0,1,0,50.990888,0.5229324
The Bull,74-76 Market Pl,0,0,1,0,0,0,0,0,0,0,1,0,52.6753477,-0.3170006
Paradise Park,"London, United Kingdom",1,0,0,0,0,0,0,0,0,1,0,0,51.5074456,-0.1277653
The Jolly Farmers,2 Enfield Road,0,0,1,0,0,0,0,0,0,0,1,0,51.491387,-0.3082551
London's Transport Museum Depot,"London, United Kingdom",0,0,0,0,0,1,0,0,1,0,0,0,51.5074456,-0.1277653
Royal Forest Hotel (Brewers Fayre),Rangers Road,0,0,1,0,0,0,0,0,0,0,1,0,51.6341337,0.0131128
Plumstead Common,"Plumstead Common Road, London, United Kingdom",1,0,0,0,0,0,0,0,0,1,0,0,51.4804521,0.082647
Beddington Park,"London, United Kingdom",1,0,0,0,0,0,0,0,0,1,0,0,51.5074456,-0.1277653
Bearcat Comedy Club,28 Winchester Rd,0,1,1,1,1,0,0,0,0,0,0,0,51.6055374,-0.002193
The Nightingale Pub,Nightingale Lane,0,0,1,0,0,0,0,0,0,0,1,0,42.6707133,-83.0235312
The Red House Beefeater,Redbridge Ln. E.,0,0,1,0,0,0,0,0,0,0,1,0,51.5816268,0.0576362
The Swan Inn,1 Swan St.,0,0,1,0,0,0,0,0,0,0,1,0,42.8025937,-73.9303474
Ham Common,"Richmond, United Kingdom",1,0,0,0,0,0,0,0,0,1,0,0,51.4405529,-0.3076394
Cotton Park,"Cottons Approach, Romford, United Kingdom",1,0,0,0,0,0,0,0,0,1,0,0,51.5772162,0.1743068
The Kenton,38 Kenton Road,0,0,1,0,0,0,0,0,0,0,1,1,51.4361546,-0.9182841
3 Mills Studios,Sugar House Ln.,0,0,1,0,0,0,0,0,0,0,1,1,51.531413,-0.0094734
Victoria,166 Queenstown Road,0,0,1,0,0,0,0,0,0,0,1,0,51.4729253,-0.1481732
Cineworld Hammersmith,"207 King Street, London, United Kingdom",0,0,0,0,0,0,0,0,0,0,0,1,51.6016966,-0.0707863
The Three Stags,67-69 Kennington Road,0,0,1,0,0,0,0,0,0,0,1,0,51.496702,-0.1112509
Selhurst Park Stadium,"Whitehorse Lane, London, United Kingdom",0,0,0,0,0,0,1,0,0,0,0,0,51.399732,-0.0858222
The Bricklayers Arms,803-805 High Rd.,0,0,1,0,0,0,0,0,0,0,1,0,48.6345262,-123.8320297
The Victoria,1 Lower Belgrave St.,0,0,1,0,0,0,0,0,0,0,1,0,51.4956292,-0.1460347
Bacchus Late Bar and Venue,"2 Union Street, Kingston upon Thames, United Kingdom",0,1,1,1,1,0,0,0,0,0,0,0,51.4103315,-0.3050754
Saint George's Gardens,"London, United Kingdom",1,0,0,0,0,0,0,0,0,1,0,0,51.5074456,-0.1277653
Old Deer Park,"Twickenham Road, Richmond, United Kingdom",1,0,0,0,0,0,0,0,0,1,0,0,51.4604945,-0.3142135
The Pembroke,261 Old Brompton Rd,0,0,1,0,0,0,0,0,0,0,1,0,51.4889152,-0.1914946
Brockley Barge (Wetherspoon),184 Brockley Rd,0,0,1,0,0,0,0,0,0,0,1,0,51.4640577,-0.0364956
Dukes Head,6 Manor Road,0,0,1,0,0,0,0,0,0,0,1,0,53.7375229,-0.4927691
Leathermarket Gardens,"London, United Kingdom",1,0,0,0,0,0,0,0,0,1,0,0,51.5074456,-0.1277653
Cutty Sark Tavern,4-6 Ballast Quay,0,0,1,0,0,0,0,0,0,0,1,0,51.4863743,-0.0004177
Three Horseshoes Pub,"1166, High Rd",0,0,1,0,0,0,0,0,0,0,1,0,49.8929183,-119.4764146
Richmond Green,"Richmond, United Kingdom",1,0,0,0,0,0,0,0,0,1,0,0,51.4405529,-0.3076394
Hampstead Heath Extension,"London, United Kingdom",1,0,0,0,0,0,0,0,0,1,0,0,51.5074456,-0.1277653
The Cock & Bull Sutton,26 High Street,0,0,1,0,0,0,0,0,0,0,1,0,52.0788199,0.5807861
The Three Horseshoes,1 Sunbury Rd,0,0,1,0,0,0,0,0,0,0,1,0,51.4379569,-0.4207013
Camden Arts Centre,Arkwright Road,0,0,1,0,0,0,0,0,0,0,1,0,51.5511049,-0.1828925
The Railway Tavern,18 Clapham High St.,0,0,1,0,0,0,0,0,0,0,1,0,51.4645682,-0.1311962
Club Colosseum Complex,"1 Nine Elms Lane, London, United Kingdom",0,1,1,1,1,0,0,0,0,0,0,0,51.4843436,-0.1268811
National Tennis Centre,"London, United Kingdom",0,0,0,0,0,0,1,0,0,0,0,0,51.5074456,-0.1277653
Jerwood Space,171 Union Street,0,0,1,0,0,0,0,1,0,0,1,0,51.5036454,-0.0992785
Harrow Arts Centre,United Kingdom,0,0,0,1,0,0,0,1,0,0,0,0,54.7023545,-3.2765753
The Others,"6 & 8 Manor Road, London, United Kingdom",0,0,0,1,0,0,0,1,0,0,0,0,51.5169306,0.007252
The Half Moon,93 Lower Richmond Rd.,0,0,1,1,0,0,0,0,0,0,1,0,51.4672637,-0.2200723
Horatia,100 Holloway Rd.,0,0,1,0,0,0,0,0,0,0,1,0,51.5499797,-0.1084338
Ganleys Irish Bar,43-47 London Rd.,0,0,1,0,0,0,0,0,0,0,1,0,51.5366683,-0.2044548
Kensington Gardens,"London, United Kingdom",1,0,0,0,0,0,0,0,0,1,0,0,51.5074456,-0.1277653
Gunners Pub,204 Blackstock Rd,0,0,1,0,0,0,1,0,0,0,0,0,51.5589646,-0.0988731
The Sir Michael Balcon (Wetherspoon),46-47 The Mall,0,0,1,0,0,0,0,0,0,0,1,0,51.5136177,-0.2988011
The Grey Horse,46 Richmond Road,0,1,1,0,0,0,0,0,0,0,1,0,50.8363545,-0.1296556
Linden Gardens by onefinestay,"Linden Gardens, London, United Kingdom",1,0,0,0,0,0,0,0,0,1,0,0,51.66223,-0.0594475
The Fez Club,"200b Upper Richmond Road, London, United Kingdom",0,1,1,1,0,0,0,0,0,0,0,0,51.4608078,-0.2166524
The Cocoanut,Mill street,0,0,1,0,0,0,0,0,0,0,1,0,43.3806444,-72.6086662
North Nineteen (N19),194-196 Sussex Way,0,0,1,0,0,0,0,0,0,0,1,0,51.6472715,-0.1370729
The Rag Factory,"16-18 Heneage Street, London, United Kingdom",0,0,0,0,0,0,0,1,1,0,0,0,51.5188673,-0.0703127
Blythe Hill Fields,"Blythe Hill Lane, London, United Kingdom",1,0,0,0,0,0,0,0,0,1,0,0,51.4438302,-0.0342263
King's Head,2 Crouch End Hill,0,0,1,1,1,0,0,0,0,0,1,0,51.5753803,-0.1266012
The Windmill On The Common Hotel,Windmill Drive,0,0,1,0,0,0,0,0,0,0,1,0,51.456939,-0.144751
Mellows Park,United Kingdom,1,0,0,0,0,0,0,0,0,1,0,0,54.7023545,-3.2765753
Pitshanger Park,"London, United Kingdom",1,0,0,0,0,0,0,0,0,1,0,0,51.5074456,-0.1277653
Hampton Wick Royal Cricket Club,"Bushy Park, Hampton Wick, United Kingdom",0,0,1,0,0,0,1,0,0,0,0,0,51.4198407,-0.3198812
Haggerston Park,"Audrey Street, London, United Kingdom",1,0,0,0,0,0,0,0,0,1,0,0,51.5335653,-0.0657796
Manor Park,"Sutton, United Kingdom",1,0,0,0,0,0,0,0,0,1,0,0,51.3574644,-0.1736269
Dolphin Square,Chichester St.,0,0,1,0,0,0,0,0,0,0,1,0,-33.9430045,151.2366373
Murray Park,United Kingdom,1,0,0,0,0,0,0,0,0,1,0,0,54.7023545,-3.2765753
Ox and Gate,Coles Green Road,0,0,1,0,0,0,0,0,0,0,1,0,51.5680562,-0.2349261
The Crown,28 Wickham Rd.,0,0,1,0,0,0,0,0,0,0,1,0,51.4276206,-0.9044032
Stolenspace Gallery,"17 Osborn Street, London, United Kingdom",0,0,0,0,0,0,0,1,1,0,0,0,51.5164739,-0.0701673
Wandsworth Park,"London, United Kingdom",1,0,0,0,0,0,0,0,0,1,0,0,51.5074456,-0.1277653
Greenland Dock,Worgan St.,1,0,0,0,0,0,0,0,0,1,0,0,51.4936815,-0.0450652
Telegraph Hill,"Pepys Road, London, United Kingdom",1,0,0,0,0,0,0,0,0,1,0,0,51.4136284,-0.2291248
Friary Park,"London, United Kingdom",0,0,1,0,0,0,0,0,0,0,1,0,51.5074456,-0.1277653
The Springbok,121 South Africa Rd.,0,0,1,0,0,0,0,0,0,0,1,0,51.5104517,-0.2303487
The Cherry Tree,32 Station Rd.,0,0,1,0,0,0,0,0,0,0,0,0,55.9418897,-4.3161423
The Mayflower,117 Rotherhithe St.,0,0,1,0,0,0,0,0,0,0,1,0,51.5018051,-0.0535913
Maureen Paley,"21 Herald Street London E2 6JT, United Kingdom",0,0,0,0,0,0,0,1,1,0,0,0,51.525284,-0.0559535
Bank of Friendship,224 Blackstock Road,0,0,1,0,0,0,0,0,0,0,0,0,53.3445735,-1.445332
Jono's,13 Station Parade,0,0,1,0,0,0,0,0,0,0,0,0,-37.5412111,144.9681963
PureGym London Wandsworth,"52 Wandsworth High Street, London, United Kingdom",0,0,0,0,0,0,1,0,0,0,0,0,51.4569124,-0.1920659
The Belmont,267-271 Brighton Rd.,0,0,1,0,0,0,0,0,0,0,1,0,51.3590174,-0.1912971
Old Suffolk Punch,80 Fulham Palace Rd.,0,0,1,0,0,0,0,0,0,0,1,0,51.4887085,-0.2231006
The Queen's Gardens,"Croydon, United Kingdom",1,0,0,0,0,0,0,0,0,1,0,0,51.3713049,-0.101957
Coronation Gardens,"Buckingham Road, London, United Kingdom",1,0,0,0,0,0,0,0,0,1,0,0,51.4261355,-0.3734395
Red Gate Gallery,"209A Coldharbour Lane, London, United Kingdom",0,0,0,0,0,0,0,1,1,0,0,0,51.4656036,-0.1022598
The Good Yarn (Wetherspoon),132 High St.,0,0,1,0,0,0,0,0,0,0,1,0,55.8593119,-4.2407574
The Tiger,18 Camberwell Gn,0,0,1,0,0,0,0,0,0,0,1,0,51.4737816,-0.0926007
Two Brewers - Shepherd Neame,"221 Gloucester Road, Croydon, United Kingdom",0,1,1,0,0,0,0,0,0,0,1,0,51.3884972,-0.0899479
Green Park,United Kingdom,1,0,0,0,0,0,0,0,0,1,0,0,54.7023545,-3.2765753
Salmon & Ball,502 Bethnal Green Rd.,0,1,1,0,0,0,0,0,0,0,0,0,51.5273123,-0.0559389
Harrow,Everywhere!,1,0,0,0,0,0,0,0,0,1,0,0,39.6262264,19.9036023
Ye Old Mitre Inne,58 High Street,0,0,1,0,0,0,0,0,0,0,1,0,51.4261696,-0.3562295
The Plume of Feathers,19 Park Vista,0,0,1,0,0,0,0,0,0,0,1,0,51.4818507,-0.0011276
Tiger Tiger,16 High St.,0,1,1,1,0,0,0,0,0,0,0,0,52.9172454,1.3448797
Sunray Gardens,"London, United Kingdom",1,0,0,0,0,0,0,0,0,1,0,0,51.5074456,-0.1277653
Danson House,"Danson Pk, Bexleyheath, United Kingdom",0,0,1,0,0,0,0,0,0,0,1,0,51.454878,0.1175876
David Lloyd Hampton,"Staines Road, Hampton, United Kingdom",0,0,0,0,0,0,1,0,0,0,0,0,51.4392091,-0.3621671
Daylight inn,Staion square,0,0,1,0,0,0,0,0,0,0,1,0,51.9009421,0.8935982
Victoria Embankment Gardens,"Victoria Embankment, City of Westminster, United Kingdom",1,0,0,0,0,0,0,0,0,1,0,0,51.5104602,-0.1156891
Victoria Tower Gardens,"London, United Kingdom",1,0,0,0,0,1,0,0,0,1,0,0,51.5074456,-0.1277653
The Beauty Room,"708 High Road, London, North Finchley, United Kingdom",0,0,0,0,0,0,0,0,0,0,0,0,51.6135157,-0.1757393
Green Man,Wildcroft Rd.,0,0,1,0,0,0,0,0,0,0,1,0,51.4532068,-0.2218272
Porchester Square,"London, United Kingdom",0,0,1,0,0,0,0,0,0,0,1,0,51.5074456,-0.1277653
Cannizaro Park,"London, United Kingdom",1,0,0,0,0,0,0,0,0,1,0,0,51.5074456,-0.1277653
Hilly Fields Stone Circle,"London, United Kingdom",1,0,0,0,0,1,0,0,0,1,0,0,51.5074456,-0.1277653
LHT Urban Bar,176 Whitechapel Rd,0,0,1,0,0,0,0,0,0,0,1,0,51.5190934,-0.0589373
Salisbury Arms,Hoppers Rd.,0,0,1,0,0,0,0,0,0,0,1,0,51.6271981,-0.1041906
Wood Wharf,"Poplar, London, United Kingdom",0,0,1,0,0,0,0,0,0,0,1,0,51.5110713,-0.0144629
The Red Lion,2 Castelnau,0,0,1,0,0,0,0,0,0,0,1,0,51.475482,-0.2389586
The Orchid Retreat,"366 Ballards Lane, London, United Kingdom",0,0,0,0,0,0,0,0,0,0,0,0,51.6135796,-0.1768182
The Oaks Park,"Banstead, United Kingdom",1,0,1,0,0,0,0,0,0,1,1,0,51.3238969,-0.1986813
The Tollington,115 Hornsey Road,0,0,1,0,0,0,0,0,0,0,1,0,-27.5426211,152.8722047
Auld Shillelagh,105 Church St.,0,0,0,0,0,0,0,0,0,0,0,0,51.3737505,-0.1050214
The Green Dragon,58-60 High St,0,0,1,0,0,0,0,0,0,0,1,0,51.3342843,1.3146754
Ye Olde Cherry Tree,The Green,0,0,1,0,0,0,0,0,0,0,1,0,35.2239154,-80.8469124
The Swan,215 Clapham Road,0,1,1,1,0,0,0,0,0,0,0,0,39.0503248,-75.4600339
Vauxhall Park,"London, United Kingdom",1,0,0,0,0,0,0,0,0,1,0,0,51.5074456,-0.1277653
The Laboratory,"The Avenue, London, United Kingdom",0,0,0,0,0,0,1,0,0,0,0,0,51.6035674,0.0733811
West Hampstead,Everywhere!,0,0,1,0,0,0,0,0,0,0,1,0,39.6262264,19.9036023
Stave Hill Ecological Park,"London, United Kingdom",1,0,0,0,0,0,0,0,0,1,0,0,51.5074456,-0.1277653
The Railway Bell (Wetherspoon),13 East Barnet Rd.,0,0,1,0,0,0,0,0,0,0,1,0,51.6132767,-0.1562313
Gallery,"411 Hendon Way, London, United Kingdom",0,1,1,1,0,0,0,0,0,0,1,0,51.5750152,-0.2146432
Pavilion Leisure Centre,"Kentish Way, Bromley, United Kingdom",0,0,0,0,0,0,1,0,0,0,0,0,51.4004871,0.0195187
Coach and Horses,High Rd,0,1,1,0,0,0,0,0,0,0,1,0,48.6345262,-123.8320297
Butterfield Green,"Allen Road, London, United Kingdom",1,0,0,0,0,0,0,0,0,1,0,0,51.5239804,0.2086403
The Lion King,Lyceum Theatre,0,0,0,0,0,0,0,0,0,0,0,0,51.5114808,-0.1200585
The Renaissance Rooms,"Miles Street, London, United Kingdom",0,1,1,1,1,0,0,0,0,0,0,0,51.4830013,-0.1253574
Minet Country Park,"Springfield Road, Hayes, United Kingdom",1,0,0,0,0,0,0,0,0,1,0,0,51.5120283,-0.3975911
The William Stanley (Wetherspoon),7-8 High St.,0,0,1,0,0,0,0,0,0,0,1,0,52.0826737,-4.6615716
Stationers Park,"London, United Kingdom",1,0,0,0,0,0,0,0,0,1,0,0,51.5074456,-0.1277653
The Gander,2 St Dunstans Hill,0,0,1,0,0,0,0,0,0,0,1,0,52.182991,-2.2136041
Harrow Recreation Ground,"Harrow, United Kingdom",1,0,0,0,0,0,0,0,0,1,0,0,51.5968271,-0.3373046
The Coronation Hall (Wetherspoon),7 St. Marks Hill,0,1,1,0,0,0,0,0,0,0,1,0,51.3936967,-0.3037018
King William IV,816 High Road Leyton,0,1,1,0,0,0,0,0,0,0,1,0,51.5747889,-0.0113892
Belgrave Square Garden,"London, United Kingdom",1,0,0,0,0,0,0,0,0,1,0,0,51.5074456,-0.1277653
Punch & Judy,40 The Market,0,0,1,0,0,0,0,0,0,0,1,0,52.95083,-1.1432083
Ruislip Lido,Reservoir Rd.,0,0,1,0,0,0,0,0,0,0,1,0,40.4857753,-79.543738
Leighton House Museum,"12 Holland Park Road, London, United Kingdom",0,0,0,0,0,1,0,0,1,0,0,0,51.4986135,-0.2031609
Ruskin House,"23 Coombe Road, Croydon, United Kingdom",0,0,1,0,0,0,0,0,0,0,0,0,51.3674869,-0.0966307
Basing Hill Park,"London, United Kingdom",1,0,0,0,0,0,0,0,0,1,0,0,51.5074456,-0.1277653
Finsbury Square Garden,"London, United Kingdom",1,0,0,0,0,0,0,0,0,1,0,0,51.5074456,-0.1277653
Eel Pie Pictures,"Eel Pie Island, Twickenham, United Kingdom",1,0,0,0,0,1,0,0,0,1,0,0,51.4451265,-0.3254076
Haven Arms,33 Haven Ln.,0,1,1,0,0,0,0,0,0,0,1,0,51.5168303,-0.3000951
The Skylark (Wetherspoon),34-36 South End,0,0,1,0,0,0,0,0,0,0,1,0,51.3661685,-0.0993701
The Moon on the Hill (Wetherspoon),5-9 Hill Rd.,0,1,1,0,0,0,0,0,0,0,1,0,51.3618835,-0.1932923
The Crown & Pepper,242 High Street,0,0,1,0,0,0,0,0,0,0,1,0,51.376042,0.0992225
The Shirley Inn,158 Wickham Rd.,0,0,1,0,0,0,0,0,0,0,1,0,51.3743818,-0.0502512
Odeon Cinema South Woodford,"60-64 High Rd, London, United Kingdom",0,0,0,0,0,0,0,0,0,0,0,1,51.6077575,-0.067922
Hillside Gardens,"London, United Kingdom",1,0,0,0,0,0,0,0,0,1,0,0,51.5074456,-0.1277653
The Spring Grove,13 Bloomfield Rd,0,1,1,1,0,0,0,0,0,0,1,0,-38.6549728,177.9238957
Brunel Museum,"Railway Avenue, London, United Kingdom",0,0,0,0,0,1,0,0,1,0,0,0,51.5013519,-0.0522973
Barking Park,Longbridge Rd.,1,0,0,0,0,0,0,0,0,1,0,0,51.5486453,0.1003826
Barcode,69 Goding St.,0,1,1,1,1,0,0,0,0,0,0,0,46.7741152,14.9258546
The Eel Pie,9-11 Church Street,0,1,1,0,0,0,0,0,0,0,1,0,51.3603216,1.0314944
East Greenwich Pleasaunce,"Chevening Road, London, United Kingdom",1,0,0,0,0,0,0,0,0,1,0,0,51.5366765,-0.2138025
Ye Olde Black Horse,43 Halfway St.,0,1,1,1,1,0,0,0,0,0,1,0,51.4372426,0.0984691
King Edward VII Memorial Park,"London, United Kingdom",1,0,0,0,0,0,0,0,0,1,0,0,51.5074456,-0.1277653
Zabludowicz Collection,"176 Prince of Wales Road, London, United Kingdom",0,0,0,0,0,0,0,1,0,0,0,0,51.5460221,-0.1532441
Edgwarebury Park,United Kingdom,1,0,0,0,0,0,0,0,0,1,0,0,54.7023545,-3.2765753
The John Baird,122 Fortis Green Rd.,0,1,1,0,0,0,0,0,0,0,1,0,51.5905124,-0.1469494
Buckingham Palace Gardens,"London, United Kingdom",1,0,0,0,0,0,0,0,0,1,0,0,51.5074456,-0.1277653
High Road House,162-166 Chiswick High Rd,0,0,1,0,0,0,0,0,0,0,1,0,51.4929091,-0.2547498
Whittington Park,"Holloway Road, London, United Kingdom",1,0,0,0,0,0,0,0,0,1,0,0,51.5528674,-0.1130095
Foxham Gardens,"London, United Kingdom",1,0,0,0,0,0,0,0,0,1,0,0,51.5074456,-0.1277653
Hampton Pool,"High Street, Hampton, United Kingdom",0,0,0,0,0,0,1,0,0,0,0,0,51.4144858,-0.3612541
Harrow Lodge Park,Harrow Lodge Park,1,0,0,0,0,0,0,0,0,1,0,0,51.5575785,0.2044744
Hackney Museum,"1 Reading Lane, London, United Kingdom",0,0,0,0,0,0,0,0,1,0,0,0,51.5446111,-0.057337
Stoke Newington Common,"London, United Kingdom",1,0,0,0,0,0,0,0,0,1,0,0,51.5074456,-0.1277653
Lammas Park,"London, United Kingdom",1,0,0,0,0,0,0,0,0,1,0,0,51.5074456,-0.1277653
Spitalfields Arts Market,Market St.,0,0,0,0,0,0,0,1,0,0,0,0,35.0589025,-85.3092216
Bedford Square Garden,"London, United Kingdom",1,0,0,0,0,0,0,0,0,1,0,0,51.5074456,-0.1277653
Penderel's Oak (Wetherspoon),283-288 High Holborn,0,1,1,0,0,0,0,0,0,0,1,0,51.5178286,-0.1153303
Saint Luke's Garden,"London, United Kingdom",1,0,0,0,0,0,0,0,0,1,0,0,51.5074456,-0.1277653
The Park Tavern,45 Passy Pl.,0,1,1,0,0,0,0,0,0,0,1,0,48.4654698,9.226522
Acorn 20/20,20 Richmond Rd,0,1,1,1,1,0,0,0,0,0,0,0,50.8358561,-0.1301552
George & Dragon,2 Blackheath Hill,0,1,1,1,1,0,0,0,0,0,0,0,51.472899,-0.0151598
The Surrey Docks (Wetherspoon),185 Lower Rd,0,1,1,1,1,0,0,0,0,0,1,0,51.4930787,-0.0463964
Bethnal Green Gardens,"London, United Kingdom",1,0,0,0,0,0,0,0,0,1,0,0,51.5074456,-0.1277653
Downhills Park,"Downhills Park Road, London, United Kingdom",1,0,0,0,0,0,1,0,0,1,0,0,51.5905078,-0.0964718
Allen Gardens,"London, United Kingdom",1,0,0,0,0,0,0,0,0,1,0,0,51.5074456,-0.1277653
Springfield Park,"Springfield, London, United Kingdom",1,0,0,0,0,0,0,0,0,1,0,0,51.5684227,-0.0564965
Roehampton Club,"Roehampton Lane, London, United Kingdom",0,0,0,0,0,0,1,0,0,0,0,0,51.4473821,-0.2360627
Jolly Gardeners,214 Garratt Ln.,0,0,1,0,0,0,0,0,0,0,1,0,51.446886,-0.1895679
The Grove,Ealing Green,0,1,1,0,0,0,0,0,0,0,1,0,51.5113621,-0.3060673
Fortune Green,"London, United Kingdom",1,0,0,0,0,0,0,0,0,1,0,0,51.5074456,-0.1277653
Avondale Park,"Walmer Road, London, United Kingdom",1,0,0,0,0,0,0,0,0,1,0,0,51.5121705,-0.2122273
Victoria Recreation Ground,United Kingdom,0,0,0,0,0,0,1,0,0,0,0,0,54.7023545,-3.2765753
Hogs Back Open Space,United Kingdom,1,0,0,0,0,0,0,0,0,1,0,0,54.7023545,-3.2765753
The Black Horse,Black Horse Parade,0,1,1,1,1,0,0,0,0,0,0,0,51.5847999,-0.4063974
Perfect Image Consultants,"2 Manor Rd, Ruislip, United Kingdom",0,0,0,0,0,0,0,0,0,0,0,0,51.5756128,-0.4309922
Kingsend Dental,"34 Kingsend, Ruislip, United Kingdom",0,0,0,0,0,0,0,0,0,0,0,0,51.5722578,-0.4269153
The Green Man,Hatton Cross,0,1,1,0,0,0,0,0,0,0,1,0,51.4665357,-0.4239942
Canbury Gardens,"Kingston upon Thames, United Kingdom",1,0,0,0,0,0,0,0,0,1,0,0,51.4096275,-0.3062621
Canada Square Park,"London, United Kingdom",0,1,1,1,1,0,0,0,0,0,1,0,51.5074456,-0.1277653
Colliers Wood Recreation Ground,"London, United Kingdom",1,0,0,0,0,0,1,0,0,1,0,0,51.5074456,-0.1277653
Curzon Richmond,"Water Lane, Richmond, United Kingdom",0,0,0,0,0,0,0,0,0,0,0,1,51.4462659,-0.3277516
The Riverside,5 St. George Wharf,0,0,1,0,0,0,0,0,0,0,1,0,51.4856332,-0.1270319
The Matchroom Stadium,"Brisbane Road, London, United Kingdom",0,0,0,0,0,0,1,0,0,0,0,0,51.5600713,-0.0125999
Lucas Gardens,"London, United Kingdom",1,0,0,0,0,0,0,0,0,1,0,0,51.5074456,-0.1277653
Camden Gardens,"Camden Street, London, United Kingdom",1,0,0,0,0,0,0,0,0,1,0,0,51.5388533,-0.1384449
William Morris Gallery,"Lloyd Park, Forest Road, London, United Kingdom",0,0,0,0,0,0,0,1,1,0,0,0,51.5908503,-0.0221566
O2 Academy Islington,16 Parkfield St,0,1,1,1,1,0,0,0,0,0,0,0,51.5347874,-0.1057899
Railway Fields,"381 Green Lanes, London, United Kingdom",1,0,0,0,0,0,0,0,0,1,0,0,51.5888326,-0.101685
Trinity Square Gardens,"London, United Kingdom",1,0,0,0,0,1,0,0,0,1,0,0,51.5074456,-0.1277653
Cirque le Soir,"15-21 Ganton Street, London, United Kingdom",0,1,1,1,1,0,0,0,0,0,0,0,51.5128936,-0.1390113
Shaftesbury Park Recreation Ground,"Bromley, United Kingdom",1,0,0,0,0,0,0,0,0,1,0,0,51.4028046,0.0148142
Raffles,"287 King's Road, London, United Kingdom",0,1,1,1,1,0,0,0,0,0,0,0,51.4852687,-0.1736058
Canonbury Square Gardens,"London, United Kingdom",1,0,0,0,0,0,0,0,0,1,0,0,51.5074456,-0.1277653
South Norwood Grounds Cricket Ground,"London, United Kingdom",1,0,0,0,0,0,1,0,0,1,0,0,51.5074456,-0.1277653
Discover Greenwich Visitor Centre,"London, United Kingdom",0,0,0,0,0,1,0,0,1,0,0,0,51.5074456,-0.1277653
Greenwich Park,"London, United Kingdom",1,0,0,0,0,0,0,0,0,1,0,0,51.5074456,-0.1277653
Kew Green,Kew Green,1,0,0,0,0,0,0,0,0,1,0,0,51.484232,-0.2889368
Warwick Gardens,"London, United Kingdom",1,0,0,0,0,0,0,0,0,1,0,0,51.5074456,-0.1277653
Bishop's Park,"London, United Kingdom",1,0,0,0,0,0,0,0,0,1,0,0,51.5074456,-0.1277653
Naval College Gardens,"London, United Kingdom",1,0,0,0,0,1,0,0,0,1,0,0,51.5074456,-0.1277653
North End Tavern,"245, Cheam Common Rd",0,1,1,0,0,0,0,0,0,0,1,0,51.3728534,-0.2315594
Deptford Park,"London, United Kingdom",1,0,0,0,0,0,0,0,0,1,0,0,51.5074456,-0.1277653
Linford Christie Stadium,Du Cane Road,0,0,0,0,0,0,1,0,0,0,0,0,51.5157327,-0.2404593
The Red Lion & Pineapple (Wetherspoon),281 High St.,0,1,1,0,0,0,0,0,0,0,1,0,51.3743726,0.0987564
The Hand In Hand,61 New Park Rd.,0,1,1,1,1,0,0,0,0,0,0,0,51.4475367,-0.1267936
The Pied Bull,8-9 Bull's Cross,0,1,1,0,0,0,0,0,0,0,1,0,51.6790812,-0.058959
West End Green,"Mill Lane, London, United Kingdom",1,0,0,0,0,0,0,0,0,1,0,0,51.5514836,-0.1996118
Waterlow Park,"London, United Kingdom",1,0,0,0,0,0,0,0,0,1,0,0,51.5074456,-0.1277653
New Cross Inn,323 New Cross Rd.,0,1,1,1,1,0,0,0,0,0,1,0,51.4757953,-0.0370911
Kensington Gardens Square,"London, United Kingdom",1,0,0,0,0,0,0,0,0,1,0,0,51.5074456,-0.1277653
Kilburn Grange Park,"London, United Kingdom",1,0,0,0,0,0,1,0,0,1,0,0,51.5074456,-0.1277653
Norfolk Square Gardens,"London, United Kingdom",1,0,0,0,0,0,0,0,0,1,0,0,51.5074456,-0.1277653
Marble Arch,Oxford St,1,0,0,0,0,1,0,0,0,1,0,0,51.5150747,-0.1436903
The Pelton Arms,23-25 Pelton Rd.,0,1,1,1,0,0,0,0,0,0,1,0,51.4868776,0.0025609
Chelsea Common,"London, United Kingdom",1,0,0,0,0,0,0,0,0,1,0,0,51.5074456,-0.1277653
Bostall Gardens,"London, United Kingdom",1,0,0,0,0,0,1,0,0,1,0,0,51.5074456,-0.1277653
Town Of Ramsgate,62 Wapping High St,0,1,1,0,0,0,0,0,0,0,1,0,51.5034059,-0.0620471
Friends House Garden,"173-177 Euston Road, London, United Kingdom",1,0,0,0,0,1,0,0,0,1,0,0,51.5263885,-0.1326344
South Park Gardens,"London, United Kingdom",1,0,0,0,0,0,0,0,0,1,0,0,51.5074456,-0.1277653
Kyoto Garden,"100 Holland Park Avenue, London, United Kingdom",1,0,0,0,0,0,0,0,0,1,0,0,51.50694,-0.2070243
The Belvedere,106 High Rd.,0,1,1,0,0,0,0,0,0,0,1,0,52.3862556,1.2710146
The Plough,239 Sipson Rd,0,1,1,0,0,0,0,0,0,0,1,0,51.4934564,-0.4577874
Figge's Marsh,United Kingdom,1,0,0,0,0,0,1,0,0,1,0,0,54.7023545,-3.2765753
David Lloyd Sudbury Hill,"Greenford Road, Greenford, United Kingdom",0,0,0,0,0,0,1,0,0,0,0,0,51.522522,-0.3539983
Revolution Karting,"422-424 Burdett Road, London, United Kingdom",0,0,0,0,0,0,1,0,0,0,0,0,51.5179361,-0.0307896
Church House Gardens,"Church Rd, Bromley, United Kingdom",1,0,0,0,0,0,0,0,0,1,0,0,51.4014841,-0.0002765
Flanders Road Playing Fields,"London, United Kingdom",0,0,0,0,0,0,1,0,0,0,0,0,51.5074456,-0.1277653
Talacre Sports Centre,"Dalby Street, London, United Kingdom",0,0,0,0,0,0,1,0,0,0,0,0,51.5469429,-0.1469636
The Rockingham Arms (Wetherspoon),Metro Central Heights,0,1,1,0,0,0,0,0,0,0,1,0,51.4962123,-0.0992364
Marble Hill House,"Richmond Road, London, United Kingdom",1,0,0,0,0,1,0,0,0,1,0,0,51.6301979,0.0029283
Maggie's,329 Fulham Rd.,0,1,1,1,1,0,0,0,0,0,0,0,51.4862346,-0.1801576
Poulter Park,United Kingdom,1,0,0,0,0,0,0,0,0,1,0,0,54.7023545,-3.2765753
Coral Romford Greyhound Stadium,"London Road, Romford, United Kingdom",0,0,0,0,0,0,1,0,0,0,0,0,51.573355,0.150772
Holland Garden,"Cambridge Road, London, United Kingdom",1,0,0,0,0,0,0,0,0,1,0,0,51.4546816,-0.3071711
Jubilee Gardens,"Belvedere Road, London, United Kingdom",1,0,0,0,0,0,0,0,0,1,0,0,51.505174,0.13266
Muswell Hill Broadway,Muswell Hill Broadway,0,0,0,0,0,0,0,0,0,0,0,0,51.5904249,-0.1434598
Paddington Street Gardens,"London, United Kingdom",1,0,0,0,0,0,0,0,0,1,0,0,51.5074456,-0.1277653
Parliament Square,"London, United Kingdom",1,0,0,0,0,1,0,0,0,1,0,0,51.5074456,-0.1277653
Pleasance Theatre,2 Carpenter Gardens,0,0,0,0,0,0,0,0,0,0,0,0,10.617178,-61.31514
Thames Barrier,1 Unity Way,0,0,0,0,0,1,0,0,0,1,0,0,51.4951627,0.0410146
Beverley Park,"London, United Kingdom",1,0,0,0,0,0,0,0,0,1,0,0,51.5074456,-0.1277653
Vervena Laser & Beauty Clinic,"126 West End Lane, London, United Kingdom",0,0,0,0,0,0,0,0,0,0,0,0,51.5968903,-0.3898917
Islington Tennis Centre,"Market Road, London, United Kingdom",0,0,0,0,0,0,1,0,0,0,0,0,51.5460059,-0.1229292
Elthorne Park,"London, United Kingdom",1,0,0,0,0,0,0,0,0,1,0,0,51.5074456,-0.1277653
The Holland Tringham (Wetherspoon),107-109 Streatham High Rd.,0,1,1,0,0,0,0,0,0,0,1,0,51.4301098,-0.1298559
Well Street Common,"London, United Kingdom",1,0,0,0,0,0,0,0,0,1,0,0,51.5074456,-0.1277653
Shortlands Tavern,5 Station Rd.,0,1,1,1,0,0,0,0,0,0,1,0,51.4325781,0.1023547
Jubilee Park,"London, United Kingdom",1,0,0,0,0,0,0,0,0,1,0,0,51.5074456,-0.1277653
Portman Square,"London, United Kingdom",1,0,0,0,0,0,0,0,0,1,0,0,51.5074456,-0.1277653
Ladbroke Square Garden,"London, United Kingdom",1,0,0,0,0,0,0,0,0,1,0,0,51.5074456,-0.1277653
Nunhead Cemetery,Linden Grove,0,0,0,0,0,0,0,0,0,1,0,0,47.862977,-92.870454
Guy Earl Of Warwick,Park View Road,0,1,1,1,1,0,0,0,0,0,0,0,51.4603615,0.1165324
McClusky's,4 Bishops Hall,0,1,1,1,1,0,0,0,0,0,0,0,53.9507761,-1.039514
Ducketts Common,"London, United Kingdom",1,0,0,0,0,0,0,0,0,1,0,0,51.5074456,-0.1277653
Foots Cray Meadow,United Kingdom,1,0,0,0,0,0,0,0,0,1,0,0,54.7023545,-3.2765753
Tooting Tram & Social,46-48 Mitcham Rd.,0,1,1,1,1,0,0,0,0,0,0,0,51.3906161,-0.1335893
Forty Hall & Estate,"Forty Hill, London, United Kingdom",1,0,0,0,0,1,0,0,0,1,0,0,51.6706812,-0.0642212
Trinity Bar,"378-380 Station Road, Harrow, United Kingdom",0,1,1,1,0,0,0,0,0,0,0,0,51.5848821,-0.3619407
Buccleuch Gardens,"Richmond, United Kingdom",1,0,0,0,0,0,0,0,0,1,0,0,51.4405529,-0.3076394
Tooting Gardens,"London, United Kingdom",1,0,0,0,0,0,0,0,0,1,0,0,51.5074456,-0.1277653
The Roof Gardens Club,99 Kensington High Street,1,0,0,0,0,0,0,0,0,1,0,0,51.5011463,-0.1914769
Myatt's Fields,"London, United Kingdom",1,0,0,0,0,0,0,0,0,1,0,0,51.5074456,-0.1277653
The Asparagus (Wetherspoon),1-13 Falcon Rd.,0,1,1,0,0,0,0,0,0,0,1,0,51.4698963,-0.1713191
York House Gardens,United Kingdom,1,0,0,0,0,0,0,0,0,1,0,0,54.7023545,-3.2765753
Hammersmith Park,"London, United Kingdom",1,0,0,0,0,0,0,0,0,1,0,0,51.5074456,-0.1277653
Newington Green,Green Lanes,1,0,0,0,0,0,0,0,0,1,0,0,51.5706583,-0.0958514
Tufnell Park Tavern,162 Tufnell Park Road,0,0,1,0,0,0,0,0,0,0,1,0,51.5576826,-0.1322284
London Fields,"London, United Kingdom",1,0,0,0,0,0,0,0,0,1,0,0,51.5074456,-0.1277653
Elmhurst Gardens,"London, United Kingdom",1,0,0,0,0,0,0,0,0,1,0,0,51.5074456,-0.1277653
Raynes Park Recreation Ground,"London, United Kingdom",1,0,0,0,0,0,1,0,0,1,0,0,51.5074456,-0.1277653
Eel Brook Common,United Kingdom,1,0,0,0,0,0,0,0,0,1,0,0,54.7023545,-3.2765753
Ruskin Park,"London, United Kingdom",1,0,0,0,0,0,0,0,0,1,0,0,51.5074456,-0.1277653
Richmond Park Golf Course,"Norstead Pl, London, United Kingdom",1,0,0,0,0,0,1,0,0,1,0,0,51.4411248,-0.2438074
Greenwich Theatre,Croom's Hill,0,0,0,0,0,0,0,0,0,0,0,0,51.1267247,-1.0698115
The Star,Northolt Road,0,1,1,1,1,0,0,0,0,0,0,0,51.5646917,-0.3531549
Clubul Romanesc Masons Arms,"75 High Street, Edgware, United Kingdom",0,1,1,1,1,0,0,0,0,0,0,0,51.6104438,-0.279408
The Tudor Rose,68 The Green,0,1,1,1,1,0,0,0,0,0,0,0,51.3993534,-0.2173283
Beckenham Green,"High St, Beckenham, United Kingdom",1,0,0,0,0,0,0,0,0,1,0,0,51.410553,-0.0249536
Museum Gardens,"London, United Kingdom",1,0,0,0,0,0,0,0,0,1,0,0,51.5074456,-0.1277653
Parsons Green,Parsons Green Ln.,1,0,0,0,0,0,0,0,0,1,0,0,51.4746174,-0.2006646
Sir John McDougall Gardens,"London, United Kingdom",1,0,0,0,0,0,0,0,0,1,0,0,51.5074456,-0.1277653
Berkeley Square,"Westminster, London, United Kingdom",1,0,0,0,0,0,0,0,0,1,0,0,51.5004439,-0.1265398
Anerley Park,Anerley Park,0,0,0,0,0,0,0,0,0,1,0,0,-26.1695522,28.0487083
Broomfield Park,"London, United Kingdom",1,0,0,0,0,0,0,0,0,1,0,0,51.5074456,-0.1277653
Lee Valley Athletics Centre,"61 Meridian Way, London, Edmonton, United Kingdom",0,0,0,0,0,0,1,0,0,0,0,0,51.6298833,-0.0375897
Pura Beauty,"138 Crouch Hill, London, Crouch End, United Kingdom",0,0,0,0,0,0,0,0,0,0,0,0,51.5779584,-0.1234532
South Park,"London, United Kingdom",1,0,0,0,0,0,0,0,0,1,0,0,51.5074456,-0.1277653
Firepower: The Royal Artillery Museum,"Royal Arsenal, London, United Kingdom",0,0,0,0,0,1,0,0,1,0,0,0,51.495037,0.0708794
The Lyttelton Arms,1A Camden High St,0,1,1,0,0,0,0,0,0,0,1,0,51.5347484,-0.1381645
Sussex Gardens Open Space,"London, United Kingdom",1,0,0,0,0,0,0,0,0,1,0,0,51.5074456,-0.1277653
Wormholt Park,"London, United Kingdom",1,0,0,0,0,0,0,0,0,1,0,0,51.5074456,-0.1277653
Park Hill Park,"Fairfield Path, Croydon, United Kingdom",1,0,0,0,0,0,0,0,0,1,0,0,51.3663652,-0.0832826
Albert Bridge Gardens,"London, United Kingdom",0,0,0,0,0,0,0,0,0,1,0,0,51.5074456,-0.1277653
The Greystoke,7 Queens Parade,0,1,1,0,0,0,0,0,0,0,1,0,-37.8677249,145.0980818
Upper and Lower Grosvenor Gardens,"Grosvenor Gardens, London, United Kingdom",1,0,0,0,0,0,0,0,0,1,0,0,51.497117,-0.146082
The Silver Bullet,5 Station Place,0,1,1,1,1,0,0,0,0,0,0,0,56.7953424,-2.3371498
The Angel,693 Uxbridge Rd.,0,1,1,0,0,0,0,0,0,0,1,0,43.9782562,-79.1875827
The King & Tinker,Whitewebbs Lane,0,1,1,0,0,0,0,0,0,0,1,0,51.6812066,-0.0663885
The HG Wells,101 Cheam Common Rd.,0,0,1,0,0,0,0,0,0,0,1,0,51.3728534,-0.2315594
Mayow Park,"Mayow Road, London, United Kingdom",1,0,0,0,0,0,1,0,0,1,0,0,51.4299082,-0.0465485
Peter Harrison Planetarium,"Royal Observatory, Blackheath Avenue, London, United Kingdom",0,0,0,0,0,0,0,0,1,0,0,0,51.4773622,-0.0008456
Little Wormwood Scrubs Recreation Ground,"London, United Kingdom",1,0,0,0,0,0,0,0,0,1,0,0,51.5074456,-0.1277653
Rio's Naturist Club,"239-241 Kentish Town Road, London, United Kingdom",0,0,0,0,0,0,0,0,0,0,0,0,51.5480758,-0.1416616
Saint Mary's Church Gardens,"London, United Kingdom",1,0,0,0,0,0,0,0,0,1,0,0,51.5074456,-0.1277653
Memorial Park,"London, United Kingdom",1,0,0,0,0,0,0,0,0,1,0,0,51.5074456,-0.1277653
The Lord Denman (Wetherspoon),270-272 Heathway,0,1,1,0,0,0,0,0,0,0,1,0,51.5318681,0.1480659
Mawson Arms,Mawson Ln.,0,1,1,0,0,0,0,0,0,0,1,0,51.4878561,-0.2504242
The Alliance,40 Mill Lane,0,1,1,0,0,0,0,0,0,0,1,0,54.2387291,-0.3662192
Robin Hood Pub,The Ridgeway,0,1,1,0,0,0,0,0,0,0,1,0,-35.3390736,149.2612379
Viva,"1-3 Hill Rise, Richmond, United Kingdom",0,1,1,1,1,0,0,0,0,0,0,0,51.4580642,-0.3056069
Claddagh Ring,10 Church Road,0,1,1,0,0,0,0,0,0,0,1,0,-27.3597115,153.0439102
The Chequers,177 Southborough Lane,0,1,1,0,0,0,0,0,0,0,1,0,51.3897599,0.047569
Wimbledon Windmill Museum,"Windmill Road, London, United Kingdom",0,0,0,0,0,1,0,0,1,0,0,0,51.4964806,-0.3140789
The Richmal Crompton (Wetherspoon),23 Westmoreland Place,0,1,1,1,1,0,0,0,0,0,1,0,38.6462696,-90.2686481
Dean Gardens,"London, United Kingdom",1,0,0,0,0,0,0,0,0,1,0,0,51.5074456,-0.1277653
Millennium Arena,"Albert Bridge Rd, London, United Kingdom",0,0,0,0,0,0,1,0,0,0,0,0,51.4774792,-0.164593
The Railway Hotel,Red Lodge Rd,0,1,1,0,0,0,0,0,0,0,1,0,51.3809275,-0.013112
Osterley House,Jersey Rd.,1,0,0,0,0,0,0,0,0,1,0,0,51.5363746,0.1946633
The Nunnery Gallery,"181 Bow Road, London, United Kingdom",0,0,0,0,0,0,0,1,0,0,0,0,51.5290177,-0.0179536
Belair Park,"Gallery Road, London, United Kingdom",1,0,0,0,0,0,0,0,0,1,0,0,51.4443829,-0.0877931
Soho Gyms Earls Court,"254 Earl's Court Road, London, United Kingdom",0,0,0,0,0,0,1,0,0,0,0,0,51.4918162,-0.1926741
West Heath,"London, United Kingdom",1,0,0,0,0,0,0,0,0,1,0,0,51.5074456,-0.1277653
Millfields Park (North),"London, United Kingdom",1,0,0,0,0,0,0,0,0,1,0,0,51.5074456,-0.1277653
Norwood Park,"Salter's Hill, London, United Kingdom",1,0,0,0,0,0,0,0,0,1,0,0,51.4227602,-0.0946035
Allianz Park,"Greenlands Lane, London, United Kingdom",0,0,0,0,0,0,1,0,0,1,0,0,51.602582,-0.2256979
Lloyd Park,"Coombe Road, Croydon, United Kingdom",1,0,0,0,0,0,0,0,0,1,0,0,51.3634559,-0.0751767
Argyle Square Gardens,"London, United Kingdom",1,0,0,0,0,0,0,0,0,1,0,0,51.5074456,-0.1277653
Camden Chiropractic,"199 Camden High Street, London, Camden Town, United Kingdom",0,0,0,0,0,0,0,0,0,0,0,0,51.5390531,-0.1429347
The Old Hall Tavern,Hall Lane,0,1,1,0,0,0,0,0,0,0,1,0,51.5763062,0.2571492
Pinner Memorial Park,United Kingdom,1,0,0,0,0,0,0,0,0,1,0,0,54.7023545,-3.2765753
Pinner Village Gardens,United Kingdom,1,0,0,0,0,0,0,0,0,1,0,0,54.7023545,-3.2765753
Chariots,"292 Streatham High Road, London, United Kingdom",0,0,0,0,0,0,1,0,0,0,0,0,51.4175758,-0.1267534
Dulwich Park,"College Road, London, United Kingdom",1,0,0,0,0,0,0,0,0,1,0,0,51.5697663,-0.2997679
The Sporting Green,129 Hertford Road,0,1,1,0,0,0,0,0,0,0,0,0,51.6567095,-0.0471554
Saint Stephens Gardens and Shrewsbury Gardens,"London, United Kingdom",1,0,0,0,0,0,0,0,0,1,0,0,51.5074456,-0.1277653
Barn Elms Playing Fields,"London, United Kingdom",1,0,0,0,0,0,0,0,0,1,0,0,51.5074456,-0.1277653
Hampton Court Maze,"A308, East Molesey, United Kingdom",1,0,0,0,0,0,0,0,0,1,0,0,51.399102,-0.3571356
Saint Paul's Churchyard Gardens,"London, United Kingdom",0,0,0,0,0,1,0,0,0,1,0,0,51.5074456,-0.1277653
Saint Mary Magdalene Garden,"London, United Kingdom",1,0,0,0,0,1,0,0,0,1,0,0,51.5074456,-0.1277653
No.2 Court,"London, United Kingdom",0,0,0,0,0,0,1,0,0,0,0,0,51.5074456,-0.1277653
Hampton Village Green,United Kingdom,1,0,0,0,0,0,0,0,0,1,0,0,54.7023545,-3.2765753
Centre Court,"London, United Kingdom",0,0,0,0,0,0,1,0,0,0,0,0,51.5074456,-0.1277653
Caledonian Park,"London, United Kingdom",1,0,0,0,0,0,0,0,0,1,0,0,51.5074456,-0.1277653
The Fig Tree,49 Windsor St,0,0,1,0,0,0,0,0,0,0,1,0,52.9243168,-1.2056222
Shepherds Bush Common,"London, United Kingdom",1,0,0,0,0,0,0,0,0,1,0,0,51.5074456,-0.1277653
No.3 Court,"London, United Kingdom",0,0,0,0,0,0,1,0,0,0,0,0,51.5074456,-0.1277653
The Normanby,231 Putney Bridge Road,0,1,1,0,0,0,0,0,0,0,1,0,51.4646906,-0.2144906
Radnor Gardens,United Kingdom,1,0,0,0,0,0,0,0,0,1,0,0,54.7023545,-3.2765753
Millwall Park,"Manchester Road, London, United Kingdom",1,0,0,0,0,0,0,0,0,1,0,0,51.5003327,-0.0090719
Central Park,"Romford, United Kingdom",1,0,0,0,0,0,0,0,0,1,0,0,51.5760462,0.1822646
The Fox & Duck,194 Petersham Rd,0,1,1,0,0,0,0,0,0,0,1,0,51.4448541,-0.3027259
Pedlars Park,"London, United Kingdom",1,0,0,0,0,0,0,0,0,1,0,0,51.5074456,-0.1277653
Pepper St Ontiod,21 Pepper St,0,1,1,0,0,0,0,0,0,0,1,0,52.8911647,-2.7064782
The Cavalier,67 Russell Lane,0,1,1,0,0,0,0,0,0,0,1,0,51.6297185,-0.1579567
Nelson Square,"London, United Kingdom",0,0,0,0,0,1,0,0,0,1,0,0,51.5074456,-0.1277653
The Markfield Beam Engine,"Markfield Road, London, United Kingdom",0,0,0,0,0,1,0,0,1,0,0,0,51.5836424,-0.0643619
Four Corners,"121 Roman Road, London, United Kingdom",0,0,0,0,0,0,0,1,0,0,0,0,51.5288157,-0.0489065
Clapton Square,"London, United Kingdom",0,0,0,0,0,0,0,0,0,1,0,0,51.5074456,-0.1277653
South Norwood Leisure Centre,"164 Portland Road, London, United Kingdom",0,0,0,0,0,0,1,0,0,0,0,0,51.5088773,-0.2093883
Abercorn Arms,76 Church Road,0,1,1,0,0,0,0,0,0,0,0,0,51.4741425,-2.5022082
Trent Park,"Cockfosters Road, Enfield, Barnet, United Kingdom",1,0,0,0,0,0,0,0,0,1,0,0,51.6481662,-0.1470761
The Orchard,Ickenham Rd.,0,0,1,0,0,0,0,0,0,0,1,0,51.5703341,-0.436976
The Hemingway,64 Victoria Park Road,0,1,1,0,0,0,0,0,0,0,1,0,51.536821,-0.0511766
Dalston Eastern Curve Garden,"13 Dalston Lane, London, United Kingdom",1,0,0,0,0,0,0,0,0,1,0,0,51.5467991,-0.0736192
Slade Gardens,"London, United Kingdom",1,0,0,0,0,0,0,0,0,1,0,0,51.5074456,-0.1277653
Centralheat Acton,"14-16 Churchfield Road, London, United Kingdom",0,0,0,0,0,0,0,0,0,0,0,0,51.4615904,0.1054151
Boston Manor Park,United Kingdom,1,0,0,0,0,0,1,0,0,1,0,0,54.7023545,-3.2765753
Camden Town Brewery,55-59 Wilkin Street Mews,0,1,1,0,0,0,0,0,0,0,0,0,51.5468006,-0.1468365
Tabard Gardens,"London, United Kingdom",1,0,0,0,0,0,0,0,0,1,0,0,51.5074456,-0.1277653
The White Bear,40 Ickenham Rd.,0,1,1,0,0,0,0,0,0,0,1,0,51.5722106,-0.431714
St. John's Wood,Everywhere!,0,0,0,0,0,1,0,0,0,1,0,0,39.6262264,19.9036023
Ridgeway Park,"London, United Kingdom",1,0,0,0,0,0,0,0,0,1,0,0,51.5074456,-0.1277653
Lewisham Park,"London, United Kingdom",1,0,0,0,0,0,0,0,0,1,0,0,51.5074456,-0.1277653
South Norwood Recreation Ground,"London, United Kingdom",1,0,0,0,0,0,0,0,0,1,0,0,51.5074456,-0.1277653
TeamSport Indoor Karting North London,"30 Nobel Road, London, United Kingdom",0,0,0,0,0,0,1,0,0,0,0,0,51.6183389,-0.0441499
Uxbridge Cricket Club,"Park Road, Uxbridge, United Kingdom",0,0,0,0,0,0,1,0,0,0,0,0,51.5582595,-0.4694035
Italian Gardens,"London, United Kingdom",1,0,0,0,0,0,0,0,0,1,0,0,51.5074456,-0.1277653
Lampton Park,"Hounslow, United Kingdom",1,0,0,0,0,0,0,0,0,1,0,0,51.4686132,-0.3613471
Woodcroft Park,"London, United Kingdom",1,0,0,0,0,0,0,0,0,1,0,0,51.5074456,-0.1277653
Norbury Park,"London, United Kingdom",1,0,0,0,0,0,0,0,0,1,0,0,51.5074456,-0.1277653
Obelisk,30 Old Church Rd.,0,0,0,0,0,1,0,0,0,1,0,0,32.9527202,-105.836836
Furzedown Recreation Ground,"London, United Kingdom",0,0,0,0,0,0,1,0,0,0,0,0,51.5074456,-0.1277653
Forster Memorial Park,"Bromley, United Kingdom",1,0,0,0,0,0,0,0,0,1,0,0,51.4028046,0.0148142
Ravensbourne Park Gardens,"London, United Kingdom",1,0,0,0,0,0,0,0,0,1,0,0,51.5074456,-0.1277653
Espace Prive,"1 Courtnell Street, London, United Kingdom",0,0,0,0,0,0,0,0,0,0,0,0,51.5156437,-0.1989058
hydrohealing,"216a Kensington Park Road, Notting Hill, London, United Kingdom",0,0,0,0,0,0,0,0,0,0,0,0,51.515304,-0.2056402
Seven Kings Park,"Ilford, United Kingdom",1,0,0,0,0,0,0,0,0,1,0,0,51.5582734,0.0711669
Fitness First Tower Hill,"1 America Square, London, United Kingdom",0,0,0,0,0,0,1,0,0,0,0,0,51.5113136,-0.0765836
Bermondsey Spa Gardens,"London, United Kingdom",1,0,0,0,0,0,0,0,0,1,0,0,51.5074456,-0.1277653
Wenlock and Essex,18-26 Essex Rd,0,1,1,0,0,0,0,0,0,0,1,0,51.5415558,-0.0940223
The Soho Lounge,"Dean Street, London, soho, United Kingdom",0,1,1,1,1,0,0,0,0,0,1,0,51.5158186,-0.1338849
Crease Park,"Village Way, Beckenham, United Kingdom",1,0,0,0,0,0,0,0,0,1,0,0,51.4014174,-0.0308963
http Gallery,"61 Ashfield Road, London, United Kingdom",0,0,0,0,0,0,0,1,1,0,0,0,51.624664,-0.1348349
The Paddock Community Nature Park,"London, United Kingdom",1,0,0,0,0,0,0,0,0,1,0,0,51.5074456,-0.1277653
The Church,"Clapham Grand, 21-25 Saint John's Hill, Clapham Junction, London, United Kingdom",0,1,1,1,1,0,0,0,0,0,0,0,51.4631057,-0.1694453
Nevern Square,"London, United Kingdom",0,0,0,0,0,0,0,0,0,1,0,0,51.5074456,-0.1277653
Conway Gina,"62 Westbourne Grove, London, United Kingdom",0,0,0,0,0,0,0,0,0,0,0,0,51.5154586,-0.192107
The Old Sweet Shop,"11 Brookwood Road, London, United Kingdom",0,0,0,0,0,0,0,1,0,0,0,0,51.4433541,-0.2047544
Saint Paul's Churchyard,"London, United Kingdom",0,0,0,0,0,1,0,0,0,1,0,0,51.5074456,-0.1277653
Mill Hill Gardens,"London, United Kingdom",1,0,0,0,0,0,0,0,0,1,0,0,51.5074456,-0.1277653
Fairland Park,"London, United Kingdom",1,0,0,0,0,0,0,0,0,1,0,0,51.5074456,-0.1277653
Club Karma,"10 High Street, London, United Kingdom",0,1,1,1,1,0,0,0,0,0,0,0,51.4135936,-0.0517197
Canary Wharf,Canary Wharf,0,0,0,0,0,0,0,0,0,1,0,0,51.5048954,-0.0190006
David Lloyd,"Bushey Road, Raynes Park, London, London, United Kingdom",0,0,0,0,0,0,1,0,0,0,0,0,51.4071944,-0.2238126
Sanctuary Spa Covent Garden,"12 Floral Street, London, United Kingdom",0,0,0,0,0,0,1,0,0,0,0,0,51.5123907,-0.1244158
The Middlesex Arms,Long Drive,0,1,1,0,0,0,0,0,0,0,1,0,51.9429892,-1.636831
Spa & Massage,"123 Queensway, London, United Kingdom",0,0,0,0,0,0,0,0,0,0,0,0,51.5133455,-0.1878429
V&A Museum of Childhood,"Cambridge Heath Road, London, United Kingdom",0,0,0,0,0,0,0,0,1,0,0,0,51.5344508,-0.0572884
The Queens Arms,1 Kilburn High Rd.,0,1,1,1,0,0,0,0,0,0,1,0,51.5350532,-0.1900287
Fox On The Hill (Wetherspoon),149 Denmark Hill,0,1,1,1,0,0,0,0,0,0,1,0,51.465093,-0.0895693
The Coach And Horses Bexley,7-56 N Cray Rd,0,1,1,1,0,0,0,0,0,0,1,0,51.4328045,0.1432088
The Kenley Hotel,62 Godstone Rd,0,1,1,1,0,0,0,0,0,0,1,0,51.3257979,-0.1008116
Mabley Green,"London, United Kingdom",1,0,0,0,0,0,1,0,0,1,0,0,51.5074456,-0.1277653
Kingsfield Arms,111 Bessborough Road,0,0,1,0,0,0,0,0,0,0,1,0,51.5752552,-0.3431793
Boleyn Cinema,"7-11 Barking Road, London, United Kingdom",0,0,0,0,0,0,0,0,0,0,0,1,51.530674,0.0384214
The Sun,North street,0,1,1,1,1,0,0,0,0,0,1,0,51.0954885,-1.0800206
Lordship Recreation Ground,"Lordship Lane, London, United Kingdom",1,0,0,0,0,0,0,0,0,1,0,0,51.4403018,-0.065324
Barking,Everywhere!,0,0,0,0,0,0,0,0,0,1,0,0,39.6262264,19.9036023
Warwick Square,"London, United Kingdom",0,1,1,1,0,0,0,0,0,0,1,0,51.5074456,-0.1277653
Croham Hurst,Upper Selsdon Road,1,0,0,0,0,0,0,0,0,1,0,0,51.3438667,-0.06722
Prince of Wales Adult Sauna,"98 Morden Road, London, Merton, United Kingdom",0,1,1,0,0,0,0,0,0,0,1,0,51.4107626,-0.1927304
Highlands Gardens,"Leicester Road, Barnet, United Kingdom",1,0,0,0,0,0,0,0,0,1,0,0,51.6496045,-0.1815585
Aqua Sculpture Day Spa,"324 King Street, London, United Kingdom",0,0,0,0,0,0,0,0,0,0,0,0,51.6016966,-0.0707863
Deane Park,United Kingdom,1,0,0,0,0,1,0,0,0,1,0,0,54.7023545,-3.2765753
Garratt Green,"Aboyne Road, London, United Kingdom",1,0,0,0,0,0,0,0,0,1,0,0,51.5637181,-0.254118
Barham Park,"Harrow Road, Sudbury, United Kingdom",1,0,0,0,0,0,0,0,0,1,0,0,51.5535889,-0.3144749
Railway Tavern,23 Crouch End Hill,0,1,1,0,0,0,0,0,0,0,1,0,51.5776319,-0.1243959
Wolf Fields,United Kingdom,1,0,0,0,0,0,0,0,0,1,0,0,54.7023545,-3.2765753
Kew Palace,"Royal Botanic Gardens, Richmond, United Kingdom",0,0,0,0,0,0,0,0,0,1,0,0,51.4832965,-0.2930675
The Bloated Mallard,3 Victoria rd,0,1,1,1,1,0,0,0,0,0,1,0,-37.6937277,144.7675643
The Crown & Sceptre (Wetherspoon),2a Streatham Hill,0,1,1,0,0,0,0,0,0,0,1,0,51.4451138,-0.1247972
Langton Gardens,United Kingdom,1,0,0,0,0,0,0,0,0,1,0,0,54.7023545,-3.2765753
Cambridge Gardens,United Kingdom,1,0,0,0,0,1,0,0,0,1,0,0,54.7023545,-3.2765753
The Goldengrove (Wetherspoon),146-148 The Grove,0,1,1,1,0,0,0,0,0,0,1,0,51.5437903,0.0037374
Drayton Park,66 Drayton Park,0,1,1,0,0,0,0,0,0,0,1,0,51.5534205,-0.1046566
Hampton Common,"Hampton, United Kingdom",1,0,0,0,0,0,0,0,0,1,0,0,51.4150272,-0.3691409
Larkshall,205 Larkshall Road,0,1,1,1,0,0,0,0,0,0,1,0,51.6169244,-0.000796
Margaret McMillan Park,"London, United Kingdom",1,0,0,0,0,0,0,0,0,1,0,0,51.5074456,-0.1277653
Russell Park,"Long Lane, Bexleyheath, United Kingdom",1,0,0,0,0,0,0,0,0,1,0,0,51.4644121,0.1490881
Normand Park,"London, United Kingdom",1,0,0,0,0,0,0,0,0,1,0,0,51.5074456,-0.1277653
Saint Peter's Square Garden,"London, United Kingdom",0,0,0,0,0,0,0,0,0,1,0,0,51.5074456,-0.1277653
Kennington Park,"Kennington Park Road, London, United Kingdom",1,0,0,0,0,0,0,0,0,1,0,0,51.4860059,-0.1083173
Frank Banfield Park,"London, United Kingdom",1,0,0,0,0,0,0,0,0,1,0,0,51.5074456,-0.1277653
Geraldine Mary Harmsworth Park,"London, United Kingdom",1,0,0,0,0,0,0,0,0,1,0,0,51.5074456,-0.1277653
Frank's Park,United Kingdom,1,0,0,0,0,0,0,0,0,1,0,0,54.7023545,-3.2765753
Woodcock Park,"Harrow, United Kingdom",1,0,0,0,0,0,0,0,0,1,0,0,51.5968271,-0.3373046
Hylands Park,United Kingdom,0,0,0,0,0,0,0,0,0,1,0,0,54.7023545,-3.2765753
Empire Cinemas Bromley,"242 High Street, Bromley, United Kingdom",0,0,0,0,0,0,0,0,0,0,0,1,51.376042,0.0992225
Cinema Museum,"2 Dugard Way, London, United Kingdom",0,0,0,0,0,0,0,0,1,0,0,1,51.4924085,-0.1051561
Capel Manor College Gardens,United Kingdom,1,0,0,0,0,0,0,0,0,1,0,0,54.7023545,-3.2765753
Paddington Green,"London, United Kingdom",0,0,0,0,0,0,0,0,0,1,0,0,51.5074456,-0.1277653
The Wrong 'Un (Wetherspoon),234-236 The Broadway,0,1,1,0,0,0,0,0,0,0,1,0,22.2779838,114.1708493
The King's Ford (Wetherspoon),250-252 Chingford Mount Rd.,0,1,1,0,0,0,0,0,0,0,1,0,51.6163622,-0.0170348
The Miller's Well (Wetherspoon),419-421 Barking Rd.,0,1,1,0,0,0,0,0,0,0,1,0,51.5184106,0.0139935
The New Fairlop Oak (Wetherspoon),Fencepiece Rd.,0,1,1,0,0,0,0,0,0,0,1,0,51.6016997,0.0843044
The Sir John Oldcastle (Wetherspoon),29-35 Farringdon Rd,0,1,1,0,0,0,0,0,0,0,1,0,51.5198578,-0.1060207
The Moon on the Square (Wetherspoon),Unit 30 The Centre,0,1,1,0,0,0,0,0,0,0,1,0,51.4461912,-0.4115018
The Kings Tun (Wetherspoon),153-157 Clarence St,0,1,1,0,0,0,0,0,0,0,1,0,51.4113298,-0.3006922
The Walnut Tree (Wetherspoon),857-861 High Rd.,0,1,1,0,0,0,0,0,0,0,1,0,48.6345262,-123.8320297
The Sovereign of the Seas (Wetherspoon),109-111 Queensway,0,1,1,0,0,0,0,0,0,0,1,0,51.3893065,0.0720908
The Sir Julian Huxley (Wetherspoon),152-154 Addington Rd.,0,1,1,0,0,0,0,0,0,0,1,0,51.3434073,-0.0625348
Goodman's Field (Wetherspoon),87-91 Mansell St.,0,1,1,0,0,0,0,0,0,0,1,0,51.511524,-0.0727234
The Whispering Moon (Wetherspoon),25 Ross Parade,0,1,1,0,0,0,0,0,0,0,1,0,51.3600646,-0.1496904
Compass Theatre,Glebe Av,0,0,0,0,0,0,0,0,0,0,0,0,51.5598209,-0.435708
Hillingdon Court Park,"Uxbridge, United Kingdom",1,0,0,0,0,0,0,0,0,1,0,0,51.5449509,-0.4816672
Mannions,Harrow Rd,0,1,1,0,0,0,0,0,0,0,0,0,51.5517498,-0.3066189
The Beehive,333 Staines Rd,0,0,1,1,0,0,0,0,0,0,1,0,51.4552881,-0.4204156
Chiswick Health & Wellness,"300-302 Chiswick High Road, London, United Kingdom",0,0,0,0,0,0,0,0,0,0,0,0,51.4926258,-0.2606996
Dugdale Centre Theatre,39 London Rd.,0,0,0,0,0,0,0,0,0,0,0,0,52.3434509,-0.5467429
Cuckoo Park,"London, United Kingdom",1,0,0,0,0,0,0,0,0,1,0,0,51.5074456,-0.1277653
Wood Green Common,"London, United Kingdom",1,0,0,0,0,0,0,0,0,1,0,0,51.5074456,-0.1277653
Roxbourne Park,United Kingdom,1,0,0,0,0,0,0,0,0,1,0,0,54.7023545,-3.2765753
South London Theatre,2a Norwood High St.,0,0,0,0,0,0,0,0,0,0,0,0,51.431985,-0.1029527
The Dutch House,Sidcup Road,0,1,1,0,0,0,0,0,0,0,1,0,51.447258,0.0304994
Visage Bar,442 Cranbrook Rd.,0,1,1,1,1,0,0,0,0,0,0,0,42.9514012,-81.3026133
Kenneth More Theatre,Clements Rd,0,0,0,0,0,0,0,0,0,0,0,0,51.5582105,0.0718417
Centaurs Rugby Club,"London, United Kingdom",0,0,0,0,0,0,1,0,0,0,0,0,51.5074456,-0.1277653
Sir Joseph Hood Memorial Recreation Ground,"Marina Avenue, London, United Kingdom",1,0,0,0,0,0,0,0,0,1,0,0,51.3934831,-0.238597
Kneller Gardens,United Kingdom,1,0,0,0,0,0,0,0,0,1,0,0,54.7023545,-3.2765753
New Eltham,Sidcup Road,0,0,1,0,0,0,0,0,0,0,1,0,51.447258,0.0304994
Mitcham Common,"Croydon Road, Mitcham, United Kingdom",1,0,0,0,0,0,0,0,0,1,0,0,51.3982349,-0.1585377
The Mill House Ecology Centre,"Windmill Road, Mitcham, United Kingdom",1,0,0,0,0,0,0,0,0,1,0,0,51.3965376,-0.1457767
Sparrows Den Playing Fields,United Kingdom,1,0,0,0,0,0,1,0,0,1,0,0,54.7023545,-3.2765753
Premier Laser Clinic,"2 Wellington Terrace, London, United Kingdom",0,0,0,0,0,0,0,0,0,0,0,0,51.5099948,-0.1924181
Rockingham Recreation Ground,"Uxbridge, United Kingdom",1,0,0,0,0,0,0,0,0,1,0,0,51.5449509,-0.4816672
Wendell Park,"London, United Kingdom",1,0,0,0,0,0,0,0,0,1,0,0,51.5074456,-0.1277653
The Cellars,125 Newington Green Rd.,0,1,1,0,0,0,0,0,0,0,1,0,51.5506005,-0.086519
Carshalton Park,United Kingdom,1,0,0,0,0,0,0,0,0,1,0,0,54.7023545,-3.2765753
Vue Cinema Piccadilly Circus,"19 Regent Street, London, United Kingdom",0,0,0,0,0,0,0,0,0,0,0,1,51.5107168,-0.1385965
Ropemakers Field,"London, United Kingdom",1,0,0,0,0,0,0,0,0,1,0,0,51.5074456,-0.1277653
The Grovesnor,79 Grovesnor Rd,0,1,1,0,0,0,0,0,0,0,1,0,36.0759766,-86.6494039
Euston Square Gardens,"London, United Kingdom",1,0,0,0,0,0,0,0,0,1,0,0,51.5074456,-0.1277653
Kilkenny Tavern,131 Merton High Street,0,1,1,1,1,0,0,0,0,0,0,0,51.4155329,-0.1917749
The Crayford Arms - Shepherd Neame,37 Crayford High Street,0,1,1,1,0,0,0,0,0,0,0,0,51.4526941,0.1769785
The Kings Arms,Leaves Green Rd,0,1,1,1,0,0,0,0,0,0,1,0,51.3440466,0.0329298
Wandsworth Museum,"38 West Hill, London, United Kingdom",0,0,0,0,0,0,0,0,1,0,0,0,51.4570889,-0.2004169
Stubbers Adventure Centre,Ockendon Rd.,1,0,0,0,0,0,1,0,0,0,0,0,51.5426395,0.2823662
The Commercial,212 Railton Rd.,0,1,1,1,0,0,0,0,0,0,1,0,38.5960462,-92.2264655
Blake Recreation Ground,"Beckenham Road, West Wickham, United Kingdom",1,0,0,0,0,0,0,0,0,1,0,0,51.3815883,-0.0171151
The Musical Museum,United Kingdom,0,0,0,1,0,0,0,0,1,0,0,0,54.7023545,-3.2765753
The Nest,36 Stoke Newington Rd.,0,1,1,1,1,0,0,0,0,0,0,0,51.5531624,-0.0748559
The Station House,Station Buildings,0,1,1,0,0,0,0,0,0,0,1,0,51.4120906,-0.3012091
Beckenham Rugby Football Club,United Kingdom,0,0,0,0,0,0,1,0,0,0,0,0,54.7023545,-3.2765753
Betts Park,"Anerley Road, London, Penge, United Kingdom",1,0,0,0,0,0,0,0,0,1,0,0,51.4141324,-0.0698422
Hare and Hounds,216 Upper Richmond Road West,0,1,1,0,0,0,0,0,0,0,1,0,51.4652284,-0.2647238
Heavers Meadow,"London, United Kingdom",1,0,0,0,0,0,0,0,0,1,0,0,51.5074456,-0.1277653
Eastbury Manor House,Eastbury Square,0,0,0,0,0,1,0,0,0,1,0,0,51.5340335,0.0994987
Rush Green Allotments,Wolseley Rd,1,0,0,0,0,0,0,0,0,1,0,0,51.5807474,-0.1288733
Wanstead Green,The Green,1,0,0,0,0,0,0,0,0,1,0,0,35.2239154,-80.8469124
Abbots Park,"London, United Kingdom",1,0,0,0,0,0,1,0,0,1,0,0,51.5074456,-0.1277653
Strawberry Hill House,"268 Waldegrave Road, Twickenham, United Kingdom",0,0,1,0,0,1,0,0,1,1,1,0,51.4362048,-0.3341822
Chinbrook Meadows Cricket Ground,"London, United Kingdom",1,0,0,0,0,0,1,0,0,1,0,0,51.5074456,-0.1277653
Barra Hall Park,"Freemans Lane, London, United Kingdom",1,0,0,0,0,0,0,0,0,1,0,0,51.516563,-0.4228041
The Ship Inn,290 Westferry Rd,0,0,1,0,0,0,0,0,0,0,1,0,51.4877659,-0.017841
The Devonshire House (Wetherspoon),2-4 The Broadway,0,1,1,1,0,0,0,0,0,0,1,0,51.6661873,-0.6156769
Morden Park Pool,"London Road, Morden, United Kingdom",0,0,0,0,0,0,1,0,0,0,0,0,51.3940608,-0.2033796
Croydon Road Recreation Ground,"Croydon Road, Beckenham, United Kingdom",1,0,0,0,0,0,1,0,0,1,0,0,51.3968314,-0.0482654
Ranger's House (Wernher Collection),"Chesterfield Walk, London, United Kingdom",0,0,0,0,0,1,0,0,1,0,0,0,51.4735352,-0.0020797
Home Of Charles Darwin,"Luxted Road, Downe, United Kingdom",0,0,0,0,0,1,0,0,1,0,0,0,51.3241441,0.0551332
Mostyn Gardens,"London, United Kingdom",1,0,0,0,0,0,0,0,0,1,0,0,51.5074456,-0.1277653
Abbey Recreation Ground,"London, United Kingdom",1,0,0,0,0,0,0,0,0,1,0,0,51.5074456,-0.1277653
Pawleyne Arms,177-195 High St,0,0,1,0,0,0,0,0,0,0,0,0,51.3298023,0.4451249
Montagu Square,"London, United Kingdom",0,0,0,0,0,0,0,0,0,1,0,0,51.5074456,-0.1277653
Magpie & Crown,128 High St.,0,1,1,0,0,0,0,0,0,0,1,0,55.8591196,-4.2409392
Crown & Anchor,246 Brixton Rd,0,1,1,0,0,0,0,0,0,0,1,0,51.4713408,-0.1129334
Cranford Park,"London, United Kingdom",1,0,0,0,0,0,0,0,0,1,0,0,51.5074456,-0.1277653
Barnet Museum,"Barnet, United Kingdom",0,0,0,0,0,1,0,0,1,0,0,0,51.65309,-0.2002261
The Three Blackbirds,Blendon Rd,0,1,1,0,0,0,0,0,0,0,1,0,51.4481843,0.1203235
The Gate,"Rickmansworth Rd, Northwood",0,0,1,0,0,0,0,0,0,0,1,0,51.611463,-0.4335152
Silkstream Park,United Kingdom,1,0,0,0,0,0,0,0,0,1,0,0,54.7023545,-3.2765753
St Luke's Gardens,"Sydney Street, London, United Kingdom",1,0,0,0,0,0,0,0,0,1,0,0,51.4894353,-0.1701206
Romford,Everywhere!,0,0,0,0,0,0,0,0,0,1,0,0,39.6262264,19.9036023
The Old Salt Quay,1-10 Katherine Close,0,0,1,0,0,0,0,0,0,0,1,0,51.5732524,-0.0937683
Seears Park,"Sutton, United Kingdom",1,0,0,0,0,0,0,0,0,1,0,0,51.3574644,-0.1736269
Fulham Football Club Training Ground,"London, Motspur Park, New Malden, United Kingdom",0,0,0,0,0,0,1,0,0,0,0,0,51.3985885,-0.2520456
Royal Standard Blackheath,44 Vanburgh Park,0,1,1,1,0,0,0,0,0,0,1,0,-27.5330404,153.0673205
Arcola Theatre,24 Ashwin St.,0,0,0,0,0,0,0,0,0,0,0,0,51.5469457,-0.074908
King's Stairs Gardens,"London, United Kingdom",1,0,0,0,0,0,0,0,0,1,0,0,51.5074456,-0.1277653
Zen Spa London,"32-34 Notting Hill Gate, London, United Kingdom",0,0,0,0,0,0,0,0,0,0,0,0,51.5095437,-0.1945358
Carville Hall Park,United Kingdom,1,0,0,0,0,0,0,0,0,1,0,0,54.7023545,-3.2765753
Saint Matthew's Church Gardens,"London, United Kingdom",0,0,0,0,0,0,0,0,0,1,0,0,51.5074456,-0.1277653
Harrow Museum and Heritage Centre,"Harrow, United Kingdom",0,0,0,0,0,1,0,0,1,0,0,0,51.5968271,-0.3373046
Church Field Gardens,United Kingdom,1,0,0,0,0,0,1,0,0,1,0,0,54.7023545,-3.2765753
Pools On The Park,"Old Deer Park, Twickenham Road, Richmond, United Kingdom",1,0,0,0,0,0,1,0,0,0,0,0,51.4636696,-0.3070818
The Pavilion,North Pole Rd.,0,1,1,0,0,0,0,0,0,0,1,0,51.5198515,-0.2259072
Captain Morgans,Field End Road,0,1,1,0,0,0,0,0,0,0,0,0,51.5647168,-0.3845907
The Old Fox,16 High Rd,0,1,1,0,0,0,0,0,0,0,0,0,52.3917089,1.2811138
The Birkbeck Tavern,45 Langthorne Rd.,0,0,0,0,0,0,0,0,0,0,0,0,51.5565881,-0.000157
Whirled Cinema,"259-260 Hardess Street, London, United Kingdom",0,0,0,0,0,0,0,0,0,0,0,1,51.4650535,-0.1006656
The Artesian Well,693 Wandsworth Rd.,0,1,1,1,1,0,0,0,0,0,0,0,51.4679926,-0.1442736
Grand Kobkun,"42 Queensway, London, United Kingdom",0,0,0,0,0,0,0,0,0,0,0,0,51.5116541,-0.1872417
Trowlock Island,United Kingdom,1,0,0,0,0,0,0,0,0,1,0,0,54.7023545,-3.2765753
Gunnersbury Park,"Pope's Lane, London, United Kingdom",1,0,0,0,0,1,0,0,0,1,0,0,51.5010041,-0.295947
Odeon Cinema Uxbridge,"The Chimes Shopping Centre, Uxbridge, United Kingdom",0,0,0,0,0,0,0,0,0,0,0,1,51.54532,-0.4774895
Rocks Lane Multi Sport Centres,"60 Chiswick Common Road, London, United Kingdom",0,0,0,0,0,0,1,0,0,0,0,0,51.4947972,-0.2578367
Valence House Museum,"Beacontree Avenue, London, United Kingdom",0,0,0,0,0,0,0,0,1,0,0,0,51.5958207,0.0044955
Proud2,"Peninsula Square, London, Greenwich, United Kingdom",0,1,1,1,1,0,0,0,0,0,0,0,51.5029366,0.0032029
Minestrone Of Sound,460 Old Ford Road,0,1,1,1,1,0,0,0,0,0,0,0,51.535019,-0.0330543
Hornchurch Stadium,"Bridge Avenue, London, United Kingdom",0,0,0,0,0,0,1,0,0,0,0,0,51.5570141,0.2400894
EF MediSpa,"29 Kensington Church Street, London, United Kingdom",0,0,0,0,0,0,0,0,0,0,0,0,51.5035092,-0.1919957
Funky Brownz,63-65 The Hyde,0,1,1,1,1,0,0,0,0,0,1,0,51.5840727,-0.2419456
Northway Gardens,"London, United Kingdom",1,0,0,0,0,0,0,0,0,1,0,0,51.5074456,-0.1277653
Lyttelton Playing Fields,"London, United Kingdom",1,0,0,0,0,0,0,0,0,1,0,0,51.5074456,-0.1277653
Blagdon Road Open Space,United Kingdom,1,0,0,0,0,0,0,0,0,1,0,0,54.7023545,-3.2765753
Old Dagenham Park,"Ballards Road, Dagenham, United Kingdom",1,0,0,0,0,0,0,0,0,1,0,0,51.5381768,0.1648503
Preston Park,"Wembley, United Kingdom",1,0,0,0,0,0,0,0,0,1,0,0,51.5560695,-0.2796034
Chelsea FC,"Stamford Bridge, Fulham Road, London, United Kingdom",0,0,0,0,0,0,1,0,0,1,0,0,51.4809107,-0.1883279
Harringay,Harringay,0,0,1,0,0,0,0,0,0,1,1,0,51.582382,-0.0996181
Tooting Bec Common,"London, United Kingdom",1,0,0,0,0,0,0,0,0,1,0,0,51.5074456,-0.1277653
Dartmouth Park,"Islington, London, United Kingdom",1,0,0,0,0,0,0,0,0,1,0,0,51.5384287,-0.0999051
Bury Lodge Gardens,"London, United Kingdom",1,0,0,0,0,0,0,0,0,1,0,0,51.5074456,-0.1277653
Bruce Castle Museum,"Lordship Lane, London, United Kingdom",0,0,0,0,0,0,0,0,1,0,0,0,51.4403018,-0.065324
Saint John's Gardens,"London, United Kingdom",1,0,0,0,0,0,0,0,0,1,0,0,51.5074456,-0.1277653
Havering Museum Ltd,"19-21 High Street, Romford, United Kingdom",0,0,0,0,0,0,0,0,1,0,0,0,51.5778422,0.1793468
Rom Skatepark,"Upper Rainham Road, Hornchurch, United Kingdom",0,0,0,0,0,0,1,0,0,0,0,0,51.5459144,0.1890446
Wembley Stadium,"London, United Kingdom",0,0,0,1,0,0,1,0,0,0,0,0,51.5074456,-0.1277653
The Sussex Arms,5-27 Staines Rd,0,1,1,1,0,0,0,0,0,0,1,0,51.4394165,-0.3609983
White Horse,118 High Rd.,0,1,1,1,0,0,0,0,0,0,1,0,54.0808003,-2.7540406
Whitehall Recreation Ground,"Southlands Road, Bromley, United Kingdom",0,0,0,0,0,0,0,0,0,1,0,0,51.3951184,0.036001
Brent Lodge Park,"London, United Kingdom",1,0,0,0,0,0,0,0,0,1,0,0,51.5074456,-0.1277653
Ranelagh Gardens,"London, United Kingdom",1,0,0,0,0,0,0,0,0,1,0,0,51.5074456,-0.1277653
Saint Andrew's Park,United Kingdom,1,0,0,0,0,0,0,0,0,1,0,0,54.7023545,-3.2765753
Old Actonians Association Sports Club,"London, United Kingdom",0,0,0,0,0,0,1,0,0,0,0,0,51.5074456,-0.1277653
Wettern Tree Gardens,United Kingdom,1,0,0,0,0,0,0,0,0,1,0,0,54.7023545,-3.2765753
The Fairfield Recreation Ground,"Fairfield Road, Kingston upon Thames, United Kingdom",1,0,0,0,0,0,0,0,0,1,0,0,51.4091096,-0.2963009
Carlisle Park,"Wensleydale Road, London, United Kingdom",1,0,0,0,0,0,1,0,0,1,0,0,51.4203084,-0.369067
Windsor Open Space,"London, United Kingdom",1,0,0,0,0,0,0,0,0,1,0,0,51.5074456,-0.1277653
Tanner Street Park,"Tanner Street, London, United Kingdom",1,0,0,0,0,0,0,0,0,1,0,0,51.5427084,0.0766607
Electric Lounge,120 High St.,0,1,1,1,1,0,0,0,0,0,0,0,51.5968569,-0.3354208
Trinity Church Square,"London, United Kingdom",0,0,0,0,0,0,0,0,0,1,0,0,51.5074456,-0.1277653
The Point,"Point Hill, London, United Kingdom",0,0,0,0,0,0,0,0,0,1,0,0,51.4743438,-0.0097123
Windmill Gardens,"London, United Kingdom",1,0,0,0,0,0,0,0,0,1,0,0,51.5074456,-0.1277653
Bulstrode Pub,55 Lampton Road,0,1,1,1,0,0,0,0,0,0,1,0,51.4707517,-0.3669356
Rowberry Mead,"London, United Kingdom",0,0,0,0,0,0,0,0,0,1,0,0,51.5074456,-0.1277653
Golders Hill Park Deer Enclosure,"London, United Kingdom",1,0,0,0,0,0,0,0,0,1,0,0,51.5074456,-0.1277653
Crystal Palace Museum,"Anerley Hill, London, United Kingdom",0,0,0,0,0,0,0,0,1,0,0,0,51.4199094,-0.0783102
The London West Bank Gallery,"133-137 Westbourne Grove, London, United Kingdom",0,0,0,0,0,0,0,1,0,0,0,0,51.514871,-0.1955894
Poplar Recreation Ground,"London, United Kingdom",1,0,0,0,0,0,0,0,0,1,0,0,51.5074456,-0.1277653
Wimbledon Fine Art,"41 Church Road, London, United Kingdom",0,0,0,0,0,0,0,1,0,0,0,0,51.4621651,-0.2989691
Kenton Cricket & Lawn Tennis Club Ground,"Harrow, United Kingdom",0,0,0,0,0,0,1,0,0,0,0,0,51.5968271,-0.3373046
Wimbledon Lawn Tennis Museum,"Church Road, London, United Kingdom",0,0,0,0,0,0,1,0,1,0,0,0,51.5899994,-0.2252654
Brookmill Park,"London, United Kingdom",1,0,0,0,0,0,0,0,0,1,0,0,51.5074456,-0.1277653
Wimbledon Art Studios,10 riverside road,0,0,0,0,0,0,0,1,0,0,0,0,10.678293,-61.504073
Stepney Green Park,"London, United Kingdom",1,0,0,0,0,0,0,0,0,1,0,0,51.5074456,-0.1277653
Ravensbourne Arms,323 Lewisham High St.,0,1,1,1,0,0,0,0,0,0,1,0,51.4587627,-0.0125074
Maze Inn,"7 chase side, southgate",0,1,1,1,1,0,0,0,0,0,0,0,51.643243,-0.1453129
Queen Mary's Gardens,"London, United Kingdom",1,0,0,0,0,0,0,0,0,1,0,0,51.5074456,-0.1277653
Athelstan Recreation Ground,"Kingston upon Thames, United Kingdom",1,0,0,0,0,0,0,0,0,1,0,0,51.4096275,-0.3062621
The Windsor Castle,23 Francis St.,0,0,0,0,0,1,0,0,0,1,0,0,-37.9249224,145.1239257
Dove Spa at Virgin Active,"17A Old Court Place, London, United Kingdom",0,0,0,0,0,0,0,0,0,0,0,0,51.5025858,-0.1896846
Tokarska Gallery,"163 Forest Road, London, United Kingdom",0,0,0,0,0,0,0,1,0,0,0,0,51.5877617,-0.0361104
Vue Cinema,"West 12 Shopping Centre, Shepherd's Bush Green, London, United Kingdom",0,0,0,0,0,0,0,0,0,0,0,1,51.5038323,-0.2191034
Haydons Road Recreation Ground,"Haydon's Road, London, United Kingdom",1,0,0,0,0,0,0,0,0,1,0,0,51.4190503,-0.1873187
Hounslow Heath,"Hounslow, United Kingdom",1,0,0,0,0,0,0,0,0,1,0,0,51.4686132,-0.3613471
The Ivy House,40 Stuart Rd,0,1,1,1,1,0,0,0,0,0,0,0,51.4581957,-0.0520962
South Woodford Cricket and Sports Club,United Kingdom,0,0,0,0,0,0,1,0,0,0,0,0,54.7023545,-3.2765753
Brunswick Park,"London, United Kingdom",1,0,0,0,0,0,0,0,0,1,0,0,51.5074456,-0.1277653
Queen's Club Gardens,"London, United Kingdom",0,0,0,0,0,0,0,0,0,1,0,0,51.5074456,-0.1277653
Royston Park,"Sutton, United Kingdom",1,0,0,0,0,0,0,0,0,1,0,0,51.3574644,-0.1736269
Missoula,105-111 South St.,0,1,1,1,1,0,0,0,0,0,1,0,39.9448318,-75.1749665
Raynes Park Vale FC,"London, United Kingdom",0,0,0,0,0,0,1,0,0,0,0,0,51.5074456,-0.1277653
Fassnidge Park,"Uxbridge, United Kingdom",1,0,0,0,0,0,1,0,0,0,0,0,51.5449509,-0.4816672
Aqua Sheko,"14 Holland Street, London, United Kingdom",0,0,0,0,0,0,0,0,0,0,0,0,51.5032352,-0.1924942
Agnes Riley Gardens,"Atkins Road, London, United Kingdom",1,0,0,0,0,0,1,0,0,1,0,0,51.5753237,-0.0106309
Waring Park,United Kingdom,1,0,0,0,0,0,0,0,0,1,0,0,54.7023545,-3.2765753
Cricklefield Stadium,"Ilford, United Kingdom",0,0,0,0,0,0,1,0,0,0,0,0,51.5582734,0.0711669
Langthorne Park,"London, United Kingdom",1,0,0,0,0,0,0,0,0,1,0,0,51.5074456,-0.1277653
King George's Park Toilets,"London, United Kingdom",1,0,0,0,0,0,0,0,0,1,0,0,51.5074456,-0.1277653
Quarry Park,"Sutton, United Kingdom",1,0,0,0,0,0,0,0,0,1,0,0,51.3574644,-0.1736269
The Yard Theatre,Queen's Yard,0,0,0,0,0,0,0,0,0,0,0,0,51.522405,-0.1349515
Amy Winehouse's Home,Camden Square,0,0,0,0,0,1,0,0,0,1,0,0,51.5446803,-0.1321335
Craig Park,"London, United Kingdom",1,0,0,0,0,0,0,0,0,1,0,0,51.5074456,-0.1277653
Dermadoc Clinic,"96 Fulham Palace Road, London, United Kingdom",0,0,0,0,0,0,0,0,0,0,0,0,51.488178,-0.2228505
Albert Road Recreation Ground,"London, United Kingdom",1,0,0,0,0,0,1,0,0,1,0,0,51.5074456,-0.1277653
Lawns Park,"Romford, United Kingdom",1,0,0,0,0,0,1,0,0,1,0,0,51.5760462,0.1822646
Lodge Farm Park,"Romford, United Kingdom",1,0,0,0,0,0,0,0,0,1,0,0,51.5760462,0.1822646
Saint John's Wood Church Gardens,"London, United Kingdom",1,0,0,0,0,0,0,0,0,1,0,0,51.5074456,-0.1277653
Hampstead Heath,"South Hill Park, London, United Kingdom",0,0,0,0,0,0,0,0,0,1,0,0,51.5566047,-0.1648917
David Lloyd Beckenham,"Stanhope Grove, Beckenham, United Kingdom",0,0,0,0,0,0,1,0,0,0,0,0,51.3951311,-0.0352596
Saint James Park,"London, United Kingdom",1,0,0,0,0,0,0,0,0,1,0,0,51.5074456,-0.1277653
Tottenham,"Tottenham, London",0,0,0,0,0,0,0,0,0,1,0,0,51.5881223,-0.0599366
Myjumbie.com,"83 Church Rd, Croydon, London, United Kingdom",0,0,1,0,0,0,0,0,0,0,0,0,51.4175533,-0.0806006
Lyndhurst Park,United Kingdom,1,0,0,0,0,0,0,0,0,1,0,0,54.7023545,-3.2765753
Knights Hill Recreation Ground,"London, United Kingdom",1,0,0,0,0,0,0,0,0,1,0,0,51.5074456,-0.1277653
Adamina Day Spa,"276-280 Kensington High Street, London, United Kingdom",0,0,0,0,0,0,0,0,0,0,0,0,51.4985397,-0.2010625
The Plough Bar & Kitchen,89 St John's Hill,0,1,1,1,0,0,0,0,0,0,1,0,51.4615658,-0.1733056
Bird in Bush Park,"London, United Kingdom",1,0,0,0,0,0,0,0,0,1,0,0,51.5074456,-0.1277653
Wembley Way,Wembley Way,0,0,0,0,0,0,0,0,0,1,0,0,51.5500993,-0.2716513
Stanley Park,United Kingdom,1,0,0,0,0,0,0,0,0,1,0,0,54.7023545,-3.2765753
Avenue House Grounds,"London, United Kingdom",1,0,0,0,0,0,0,0,0,1,0,0,51.5074456,-0.1277653
Battersea Mess and Music Hall,49 Lavender Gardens,0,1,1,1,0,0,0,0,0,0,0,0,51.4639511,-0.1626327
Elmers End Green,"Croydon Road, Beckenham, United Kingdom",0,0,0,0,0,0,0,0,0,1,0,0,51.3968314,-0.0482654
Forestdale Forum,Bardolph Avenue,0,1,1,1,1,0,0,0,0,0,1,0,51.3467987,-0.0392007
Lavender Park,"London, United Kingdom",1,0,0,0,0,0,1,0,0,1,0,0,51.5074456,-0.1277653
Violet Hill Gardens,"London, United Kingdom",1,0,0,0,0,0,0,0,0,1,0,0,51.5074456,-0.1277653
Valence Park,United Kingdom,1,0,0,0,0,0,0,0,0,1,0,0,54.7023545,-3.2765753
Son Gallery,"133 Copeland Road, London, United Kingdom",0,0,0,0,0,0,0,1,0,0,0,0,51.4700251,-0.0657034
Shooshh Nightclub,"12-20 Crown Hill, Croydon, London, CR0 1RZ, United Kingdom",0,1,1,1,1,0,0,0,0,0,0,0,51.3735845,-0.1014048
The Opera House Nightclub,"2 Chesnut Road, London, United Kingdom",0,1,1,1,1,0,0,0,0,0,0,0,51.590224,-0.0649662
Severndroog Castle,"London, United Kingdom",0,0,0,0,0,1,0,0,0,1,0,0,51.5074456,-0.1277653
The Oak,Widmore Road,0,1,1,1,0,0,0,0,0,0,1,0,51.4064402,0.0188932
Angel,Everywhere!,0,0,0,0,0,0,0,0,0,1,0,0,39.6262264,19.9036023
Sprout Community Arts,"74 Moyser Road, London, United Kingdom",0,0,0,0,0,0,0,1,0,0,0,0,51.424231,-0.1471313
Philbeach Gardens,"London, United Kingdom",1,0,0,0,0,0,0,0,0,1,0,0,51.5074456,-0.1277653
Twyford Gardens,"London, United Kingdom",1,0,0,0,0,0,0,0,0,1,0,0,51.5074456,-0.1277653
Twinkle Park,"London, United Kingdom",1,0,0,0,0,0,0,0,0,1,0,0,51.5074456,-0.1277653
Everyman Maida Vale,"215 Sutherland Avenue, London, United Kingdom",0,0,0,0,0,0,0,0,0,0,0,1,51.5280256,-0.1817063
White Cube,"144-152 Bermondsey Street, London, United Kingdom",0,0,0,0,0,0,0,1,1,0,0,0,51.4994649,-0.0823052
Charlton Athletic F.C. Training Ground,"London, United Kingdom",0,0,0,0,0,0,1,0,0,0,0,0,51.5074456,-0.1277653
Sebright Arms,31-35 Coate St,0,1,1,1,0,0,0,0,0,0,1,0,51.5320136,-0.0631153
King's Court Galleries,"949-953, Fulham Road, London, United Kingdom",0,0,0,0,0,0,0,1,0,0,0,0,51.4918068,-0.1718281
Perrets Field,"Sutton, United Kingdom",1,0,0,0,0,0,0,0,0,1,0,0,51.3574644,-0.1736269
Nightingale Gardens,"London, United Kingdom",1,0,0,0,0,0,0,0,0,1,0,0,51.5074456,-0.1277653
Hale End Sportsground,"London, United Kingdom",0,0,0,0,0,0,1,0,0,0,0,0,51.5074456,-0.1277653
OSpa and Salon Kensington,"45 Phillimore Walk, London, United Kingdom",0,0,0,0,0,0,0,0,0,0,0,0,51.4995257,-0.198568
Barracuda Bar,"8 The Mall, London, United Kingdom",0,1,1,1,1,0,0,0,0,0,0,0,51.625478,-0.1162715
Streatham Green,"London, United Kingdom",1,0,0,0,0,0,0,0,0,1,0,0,51.5074456,-0.1277653
Royal Victoria Gardens,"London, United Kingdom",1,0,0,0,0,0,0,0,0,1,0,0,51.5074456,-0.1277653
Fielders Sports Ground,United Kingdom,1,0,0,0,0,0,1,0,0,1,0,0,54.7023545,-3.2765753
The Corrib Rest,82 Salisbury Rd,0,1,1,1,0,0,0,0,0,0,1,0,50.9220412,-1.4937246
The World's End,174 Camden High St,0,1,1,1,0,0,0,0,0,0,1,0,51.5391316,-0.1422001
Pepys Park,"London, United Kingdom",1,0,0,0,0,0,0,0,0,1,0,0,51.5074456,-0.1277653
Chelsea Gardener,"125 Sydney Street, London, United Kingdom",0,0,0,0,0,0,0,0,0,1,0,0,51.488293,-0.1696685
Tommy Flynns,253 Ealing Rd.,0,1,1,1,1,0,0,0,0,0,1,0,51.5001628,-0.317761
Islip Manor Park,United Kingdom,1,0,0,0,0,0,0,0,0,1,0,0,54.7023545,-3.2765753
Star Lane Park,"London, United Kingdom",1,0,0,0,0,0,0,0,0,1,0,0,51.5074456,-0.1277653
Greenwich Heritage Centre,"Artillery Square, Royal Arsenal, London, United Kingdom",0,0,0,0,0,1,0,0,0,1,0,0,51.4939162,0.0694845
Cleveland Park,"London, United Kingdom",1,0,0,0,0,0,0,0,0,1,0,0,51.5074456,-0.1277653
Casa Spa,"439 Edgware Road, London, United Kingdom",0,0,0,0,0,0,0,0,0,0,0,0,51.5241522,-0.1764946
Whitehorse Road Recreation Ground,"Croydon, United Kingdom",1,0,0,0,0,0,0,0,0,1,0,0,51.3713049,-0.101957
Addiscombe Recreation Ground,"Bingham Road, Croydon, United Kingdom",1,0,0,0,0,0,1,0,0,1,0,0,51.3796685,-0.0685523
Ashburton Playing Fields,"Croydon, United Kingdom",1,0,0,0,0,0,0,0,0,1,0,0,51.3713049,-0.101957
Catto Gallery Ltd,"100 Heath Street, London, United Kingdom",0,0,0,0,0,0,0,1,0,0,0,0,51.5623584,-0.1796951
Wandle Meadow Nature Park,"London, United Kingdom",1,0,0,0,0,0,0,0,0,1,0,0,51.5074456,-0.1277653
New Southgate Recreation Ground,"London, United Kingdom",1,0,0,0,0,0,1,0,0,1,0,0,51.5074456,-0.1277653
Sutton Green,"Sutton, United Kingdom",1,0,0,0,0,0,0,0,0,1,0,0,51.3574644,-0.1736269
Cutty Sark,King William Walk,0,0,0,0,0,0,0,0,0,1,0,0,51.4796948,-0.0068785
The Althorp,20 Bellevue Road,0,1,1,1,0,0,0,0,0,0,1,0,51.4724675,-0.2408208
Hua Ren Tang,"64 Edgware Road, London, United Kingdom",0,0,0,0,0,0,0,0,0,0,0,0,51.5149595,-0.1625065
The Hope and Anchor,207 Upper St,0,1,1,1,1,0,0,0,0,0,0,0,51.543247,-0.1034391
The Course,"London, United Kingdom",1,0,0,0,0,0,0,0,0,1,0,0,51.5074456,-0.1277653
Queen's Gardens,"London, United Kingdom",1,0,0,0,0,0,0,0,0,1,0,0,51.5074456,-0.1277653
Saint James's Gardens,"London, United Kingdom",1,0,0,0,0,0,0,0,0,1,0,0,51.5074456,-0.1277653
Nunhead Green,"London, United Kingdom",1,0,0,0,0,0,0,0,0,1,0,0,51.5074456,-0.1277653
Inwood Park,"Inwood Road, Hounslow, United Kingdom",1,0,0,0,0,0,0,0,0,1,0,0,51.46623,-0.3588707
Coombe Park,"Croydon, United Kingdom",1,0,0,0,0,0,1,0,0,1,0,0,51.3713049,-0.101957
Catford Bridge Tavern,Station App.,0,1,1,1,1,0,0,0,0,0,1,0,52.6739774,-0.7335628
Streatham Vale Park,"Abercairn Road, London, United Kingdom",1,0,0,0,0,0,0,0,0,1,0,0,51.4147054,-0.1447471
Higher Drive Recreation Ground,United Kingdom,1,0,0,0,0,0,0,0,0,1,0,0,54.7023545,-3.2765753
Hogsmill Open Space,United Kingdom,1,0,0,0,0,0,0,0,0,1,0,0,54.7023545,-3.2765753
Proud Camden,The Stables Market,0,1,1,1,1,0,0,0,0,0,0,0,51.5426365,-0.1487002
Keir Hardie Recreation Ground,"London, United Kingdom",1,0,0,0,0,0,0,0,0,1,0,0,51.5074456,-0.1277653
Powerleague Millhill,"London, United Kingdom",0,0,0,0,0,0,1,0,0,0,0,0,51.5074456,-0.1277653
Camden Lock,Camden High St.,0,0,1,0,0,0,0,1,0,1,1,0,51.5362111,-0.1400971
The Whitewebbs Museum of Transport,"Enfield, United Kingdom",0,0,0,0,0,0,0,0,1,0,0,0,51.6520851,-0.0810175
Redlees studios,"Isleworth, United Kingdom",0,0,0,0,0,0,0,1,0,0,0,0,51.4685202,-0.325966
Beaufort Pub & Dining,2 Heritage Avenue,0,1,1,1,0,0,0,0,0,0,1,0,51.5965783,-0.2428256
The Watchman (Wetherspoon),184 High St.,0,1,1,1,0,0,0,0,0,0,1,0,51.5840951,-0.0231091
Norwood Grove Recreation Ground,"London, United Kingdom",1,0,0,0,0,0,0,0,0,1,0,0,51.5074456,-0.1277653
Serpentine Sackler Gallery,"West Carriage Drive, London, United Kingdom",0,0,0,0,0,0,0,1,0,0,0,0,51.5056784,-0.1730698
Arsenal Museum,"75 Drayton Park, London, United Kingdom",0,0,0,0,0,0,0,0,1,0,0,0,51.5550403,-0.1083997
Grove Gardens,United Kingdom,1,0,0,0,0,0,0,0,0,1,0,0,54.7023545,-3.2765753
Horsenden Hill,United Kingdom,1,0,0,0,0,0,0,0,0,1,0,0,54.7023545,-3.2765753
The Clapton Hart,231 Lower Clapton St.,0,1,1,1,1,0,0,0,0,0,1,0,51.5573448,-0.0563999
Friendly Gardens,"London, United Kingdom",1,0,0,0,0,0,0,0,0,1,0,0,51.5074456,-0.1277653
Lemongrass Boutique Spa,"8 Seymour Place, London, United Kingdom",0,0,0,0,0,0,0,0,0,0,0,0,51.5146683,-0.1608977
Brockwell Park BMX Track,"London, United Kingdom",1,0,0,0,0,0,1,0,0,1,0,0,51.5074456,-0.1277653
Chiswick Common,"London, United Kingdom",0,0,0,0,0,0,0,0,0,1,0,0,51.5074456,-0.1277653
Lyle Park,"London, United Kingdom",1,0,0,0,0,0,0,0,0,1,0,0,51.5074456,-0.1277653
Hayes End Recreation Ground,"Kingsway, Hayes, United Kingdom",1,0,0,0,0,0,1,0,0,1,0,0,51.3669458,0.0077253
Bramley Sports Ground,"London, United Kingdom",0,0,0,0,0,0,1,0,0,1,0,0,51.5074456,-0.1277653
Kings College Playing Fields,United Kingdom,0,0,0,0,0,0,1,0,0,1,0,0,54.7023545,-3.2765753
The Old Frizzle,74 The Broadway,0,1,1,1,0,0,0,0,0,0,1,0,51.7062521,-0.612819
Rotary Field,United Kingdom,1,0,0,0,0,0,0,0,0,1,0,0,54.7023545,-3.2765753
Forest Hill Pools,"Dartmouth Road, London, United Kingdom",0,0,0,0,0,0,1,0,0,0,0,0,51.5778419,-0.2348151
Wrythe Green,United Kingdom,1,0,0,0,0,0,0,0,0,1,0,0,54.7023545,-3.2765753
Plough Green,United Kingdom,1,0,0,0,0,0,0,0,0,1,0,0,54.7023545,-3.2765753
The Great Harry (Wetherspoon),7-9 Wellington St.,0,1,1,1,0,0,0,0,0,0,1,0,-37.8252291,144.9900276
Premiere Cinemas,"Mercury Mall, Mercury Gardens, Romford, United Kingdom",0,0,1,0,0,0,0,0,0,0,1,1,51.579053,0.1859512
Newton Farm Ecology Park,"Harrow, United Kingdom",1,0,0,0,0,0,0,0,0,1,0,0,51.5968271,-0.3373046
Greenwich Park Office,"Charlton Way, London, United Kingdom",1,0,0,0,0,0,0,0,0,1,0,0,51.4739628,0.0065754
Haling Grove,United Kingdom,1,0,0,0,0,0,0,0,0,1,0,0,54.7023545,-3.2765753
The Famous Cock,259 Upper Street,0,1,1,1,0,0,0,0,0,0,1,0,51.5460046,-0.1033857
Queensbury Park,"Harrow, United Kingdom",1,0,0,0,0,0,0,0,0,1,0,0,51.5968271,-0.3373046
The Twickenham Museum,"25 The Embankment, Twickenham, United Kingdom",0,0,0,0,0,0,0,0,1,0,0,0,51.4468203,-0.3256181
Virgin Active Chiswick Park,"566 Chiswick High Road, London, United Kingdom",0,0,0,0,0,0,1,0,0,0,0,0,51.495141,-0.2735773
Dissenting Academy,Mildmay Park,0,1,1,1,0,0,0,0,0,0,1,0,51.5487769,-0.0840886
Drayton Green,"London, United Kingdom",1,0,0,0,0,0,0,0,0,1,0,0,51.5074456,-0.1277653
LA fitness Muswell Hill,"Hillfield Park, London, United Kingdom",0,0,0,0,0,0,1,0,0,0,0,0,51.5893414,-0.1422039
Crouch End,Everywhere!,0,0,1,0,0,0,0,0,0,1,1,0,39.6262264,19.9036023
Love & Liquor,"34 Kilburn High Road, London, United Kingdom",0,1,1,1,1,0,0,0,0,0,0,0,51.5367546,-0.1915887
Ravenor Park,United Kingdom,1,0,0,0,0,0,0,0,0,1,0,0,54.7023545,-3.2765753
Arrandene Open Space,"London, United Kingdom",1,0,0,0,0,0,0,0,0,1,0,0,51.5074456,-0.1277653
Three Bridges Park,"Southall, United Kingdom",1,0,0,0,0,0,0,0,0,1,0,0,51.5111461,-0.3755169
Natural History Museum The Vault,Natural History Museum,0,0,0,0,0,1,0,0,1,0,0,0,51.4965109,-0.1760019
The Gym Vauxhall,"6A St George Wharf, London, United Kingdom",0,0,0,0,0,0,1,0,0,0,0,0,51.4856585,-0.1260132
Archway Leisure Centre,"1 MacDonald Road, London, United Kingdom",0,0,0,0,0,0,1,0,0,0,0,0,51.551587,0.0199741
Odeon Cinema Streatham,"47-49 Streatham High Road, London, United Kingdom",0,0,0,0,0,0,0,0,0,0,0,1,51.4321963,-0.1283648
Tonteria Express,7-12 Sloane Square,0,1,1,1,1,0,0,0,0,0,0,0,51.49296,-0.1571528
Charlton Conservative Club,"51 Charlton Church Lane, London, United Kingdom",0,1,1,1,1,0,0,0,0,0,0,0,51.4876012,0.0314001
Hyde Park Square,"London, United Kingdom",0,0,0,0,0,0,0,0,0,1,0,0,51.5074456,-0.1277653
Highbury Island,"London, United Kingdom",0,0,0,0,0,0,0,0,0,1,0,0,51.5074456,-0.1277653
Dome Tufnell Park,"2A Dartmouth Park Hill, London, United Kingdom",0,1,1,1,1,0,0,0,0,0,0,0,51.5571576,-0.1385151
Gymbox Bank,"71 Lombard Street, London, United Kingdom",0,0,0,1,1,0,1,0,0,0,0,0,51.5123427,-0.0864831
The Sun of Camberwell,61-63 Coldharbour Ln.,0,1,1,1,0,0,0,0,0,0,1,0,51.4700203,-0.0948098
Herne Hill,Everywhere!,0,0,0,0,0,0,0,0,0,1,0,0,39.6262264,19.9036023
Clissold Leisure Centre,"63 Clissold Road, London, United Kingdom",0,0,0,0,0,0,1,0,0,0,0,0,51.5591298,-0.0856431
Royal Air Force Museum,"Grahame Park Way, London, United Kingdom",0,0,0,0,0,0,0,1,1,0,0,0,51.5999938,-0.239427
Leyton,Everywhere!,0,0,0,0,0,0,0,0,0,1,0,0,39.6262264,19.9036023
Tolworth Skatepark Bowl,"Jubilee Way, Kingston upon Thames, United Kingdom",0,0,0,0,0,0,1,0,0,0,0,0,51.3756088,-0.277291
Tredegar Square Gardens,"London, United Kingdom",1,0,0,0,0,0,0,0,0,1,0,0,51.5074456,-0.1277653
Ackroyd Drive Green Link,"Ackroyd Drive, London, United Kingdom",1,0,0,0,0,0,0,0,0,1,0,0,51.5193052,-0.0285312
Mile End Park,"190 Burdett Road, London, United Kingdom",1,0,0,0,0,0,0,0,0,1,0,0,51.5190214,-0.0334207
JW3,341-351 Finchley Road,0,0,0,0,0,0,0,0,0,0,0,1,51.5509291,-0.18474
Little Nan's Bar,46 Deptford Broadway,0,1,1,1,1,0,0,0,0,0,0,0,51.4746858,-0.0252623
Young Vic Theatre,66 The Cut,0,0,0,0,0,0,0,0,0,0,0,0,51.5032838,-0.1073226
Bittacy Hill Park,"London, United Kingdom",1,0,0,0,0,0,0,0,0,1,0,0,51.5074456,-0.1277653
The Agency Gallery,"66 Evelyn Street, Lewisham, Greater London SE8 5DD, United Kingdom",0,0,0,0,0,0,0,1,0,0,0,0,51.4877484,-0.0379655
Ladywell Arena,"London, United Kingdom",0,0,0,0,0,0,1,0,0,0,0,0,51.5074456,-0.1277653
Southgate Leisure Centre,"Winchmore Hill Road, London, United Kingdom",0,0,0,0,0,0,1,0,0,0,0,0,51.6353086,-0.1207466
Danson Park,United Kingdom,1,0,0,0,0,0,0,0,0,1,0,0,54.7023545,-3.2765753
Thai Spa,"140 Marylebone Road, London, United Kingdom",0,0,0,0,0,0,0,0,0,0,0,0,51.522189,-0.1582471
Westminster Abbey Precincts - Dean's Yard,"London, United Kingdom",0,0,0,0,0,1,0,0,0,1,0,0,51.5074456,-0.1277653
Star By Hackney Downs,33 Queensdown Rd.,0,1,1,1,0,0,0,0,0,0,1,0,51.178651,1.3969245
The Crown and Crooked Billet,13 Cross Rd.,0,1,1,1,0,0,0,0,0,0,1,0,41.2741522,-73.8743069
Waterhouse Young Clinic,"21 Devonshire Street, London, United Kingdom",0,0,0,0,0,0,0,0,0,0,0,0,51.521658,-0.1488467
easyGym Croydon,"London Rd, Croydon, United Kingdom",0,0,0,0,0,0,1,0,0,0,0,0,51.3871272,-0.1110133
Telegraph Hill Park,"Kitto Road, London, United Kingdom",1,0,0,0,0,0,0,0,0,1,0,0,51.4676174,-0.0475185
Mr Fogg's,15 Bruton Ln.,0,1,1,1,1,0,0,0,0,0,0,0,36.4619443,-94.2827061
Pedal Studio (Wimbledon),"7 Elm Grove, Wimbledon, United Kingdom",0,0,0,0,0,0,1,0,0,0,0,0,51.416793,-0.2152081
VIVA Clinic,"102 Harley Street, London, United Kingdom",0,0,0,0,0,0,0,0,0,0,0,0,51.5212356,-0.1476576
Chemsford Square Open Space Tennis Courts,"London, United Kingdom",0,0,0,0,0,0,1,0,0,0,0,0,51.5074456,-0.1277653
Queensmead Recreation Ground,"Glassmill Lane, Bromley, United Kingdom",1,0,0,0,0,0,0,0,0,1,0,0,51.4041175,0.0107778
Emirates Aviation Experience,"Edmund Halley Way, London, United Kingdom",0,0,0,0,0,0,0,0,1,0,0,0,51.5000463,0.0082498
Eastcote House Grounds,United Kingdom,1,0,0,0,0,0,0,0,0,1,0,0,54.7023545,-3.2765753
Arnos Park,"London, United Kingdom",1,0,0,0,0,0,0,0,0,1,0,0,51.5074456,-0.1277653
Hagen & Hyde,157 Balham High Rd,0,1,1,0,0,0,0,0,0,0,1,0,51.4438593,-0.1521443
Immaqulate Beauty,"28 Buckingham Palace Road, Victoria. SW1W 0RE, United Kingdom",0,0,0,0,0,0,0,0,0,0,0,0,51.4970946,-0.1445523
Gallions Hill,"London, United Kingdom",1,0,0,0,0,0,0,0,0,1,0,0,51.5074456,-0.1277653
Beckton District Park North,"London, United Kingdom",1,0,0,0,0,0,0,0,0,1,0,0,51.5074456,-0.1277653
West London Art Factory,"140 Wales Farm Road, London, United Kingdom",0,0,0,0,0,0,0,1,0,0,0,0,51.5216099,-0.2582359
Highams Park,"London, United Kingdom",1,0,0,0,0,0,0,0,0,1,0,0,51.5074456,-0.1277653
Loxford Park,"Ilford, United Kingdom",1,0,0,0,0,0,0,0,0,1,0,0,51.5582734,0.0711669
West Ham Park,"Upton Lane, City, United Kingdom",1,0,0,0,0,0,0,0,0,1,0,0,53.3890795,-2.7378642
The Wrythe Recreation Ground,"Sutton, United Kingdom",1,0,0,0,0,0,0,0,0,1,0,0,51.3574644,-0.1736269
Watercress Park,"London, United Kingdom",1,0,0,0,0,0,0,0,0,1,0,0,51.5074456,-0.1277653
Wallington Green,United Kingdom,1,0,0,0,0,0,0,0,0,1,0,0,54.7023545,-3.2765753
Roundshaw Park,United Kingdom,1,0,0,0,0,0,0,0,0,1,0,0,54.7023545,-3.2765753
Mill Green,United Kingdom,1,0,0,0,0,0,0,0,0,1,0,0,54.7023545,-3.2765753
Hamilton Avenue Recreation Ground,"Sutton, United Kingdom",1,0,0,0,0,0,0,0,0,1,0,0,51.3574644,-0.1736269
Benhill Recreation Ground,"Sutton, United Kingdom",1,0,0,0,0,0,0,0,0,1,0,0,51.3574644,-0.1736269
Buckland Way Recreation Ground,United Kingdom,1,0,0,0,0,0,0,0,0,1,0,0,54.7023545,-3.2765753
Cuddington Recreation Ground,United Kingdom,1,0,0,0,0,0,0,0,0,1,0,0,54.7023545,-3.2765753
Dale Park Recreation Ground,United Kingdom,1,0,0,0,0,0,0,0,0,1,0,0,54.7023545,-3.2765753
Cineworld - Wembley,107 London Designer Outlet,0,0,0,0,0,0,0,0,0,0,0,1,51.556513,-0.2838866
Elements Massage London,"41 Paddington Street, Marylebone, United Kingdom",0,0,0,0,0,0,0,0,0,0,0,0,51.5203379,-0.1558021
Holland Park,"Ilchester Place, London, United Kingdom",1,0,0,0,0,0,1,0,0,1,0,0,51.5003923,-0.2037908
Kensington Palace Green,"London, United Kingdom",0,0,0,0,0,1,0,0,0,1,0,0,51.5074456,-0.1277653
The Penthouse London,"1 Leicester Street, London, United Kingdom",0,1,1,1,1,0,0,0,0,0,1,0,51.510841,-0.1310864
Mall Galleries,"The Mall, London, United Kingdom",0,0,0,0,0,0,0,1,0,0,0,0,51.5071686,-0.1280343
Kings Place,"90 York Way, London, United Kingdom",0,0,0,1,1,0,0,0,0,0,0,0,51.5349626,-0.1217677
Agua At Sanderson,"50 Berners Street, London, United Kingdom",0,0,0,0,0,0,0,0,0,0,0,0,51.5174193,-0.1372148
Gray's Inn Gardens,"London, United Kingdom",1,0,0,0,0,0,0,0,0,1,0,0,51.5074456,-0.1277653
Town Park,"Enfield, United Kingdom",1,0,0,0,0,0,0,0,0,1,0,0,51.6520851,-0.0810175
Burgess Park,"81 Picton Street, London, United Kingdom",1,0,0,0,0,0,0,0,0,1,0,0,51.4780721,-0.0891591
The Prince Albert,"Pield Heath Road, Uxbridge, UB8 3NQ, United Kingdom",0,1,1,1,0,0,0,0,0,0,0,0,51.525748,-0.4573257
The White House - Stockley Park,"Stockley Park, London, UB11 1AA, United Kingdom",0,1,1,1,1,0,0,0,0,0,1,0,51.5097976,-0.4412219
Cucumba,"12 Poland Street, London, United Kingdom",0,0,0,0,0,0,0,0,0,0,0,0,51.5146249,-0.1368184
London Swing Dance Society,"Ruislip, , United Kingdom",0,1,1,1,1,0,0,0,0,0,0,0,51.5775626,-0.4278453
Honeycombe Hungryhorse,"417 STAINES ROAD, Hounslow, TW4 5AR, United Kingdom",0,1,1,1,0,0,0,0,0,0,1,0,51.4640168,-0.3850774
Pink Turban,"439, Alexandra Avenue, Rayners Lane, Harrow, HA2 9SE, United Kingdom",0,0,1,0,0,0,0,0,0,0,1,0,51.574504,-0.3708935
The Crown Northolt,"Ealing Road, Northolt, London, UB5 6AA, United Kingdom",0,1,1,1,0,0,0,0,0,0,1,0,51.5438336,-0.3708072
Hounslow Conservative Club,"Gresham Road, Hounslow, TW3 4BX, United Kingdom",0,1,1,1,1,0,0,0,0,0,1,0,51.4780948,-0.3558043
Oxford Circus Physiotherapy,"33 Great Titchfield Street, London, United Kingdom",0,0,0,0,0,0,0,0,0,0,0,0,51.5176781,-0.1404518
The Rifleman Pub Twickenham,"7 Fourth cross road, Twickenham, TW2 5EL, United Kingdom",0,1,1,1,0,0,0,0,0,0,0,0,51.4401098,-0.348882
Brouge at the Old Goat,"241 Hampton Road, Twickenham, TW2 5NG, United Kingdom",0,1,1,1,0,0,0,0,0,0,1,0,51.4361531,-0.3503597
Ragged School Museum,"46-50 Copperfield Road, London, United Kingdom",0,0,0,0,0,1,0,0,1,0,0,0,51.5188264,-0.0357211
The Venue,"2-4 Clifton Rise, London, United Kingdom",0,1,1,1,1,0,0,0,0,0,0,0,51.4759589,-0.0369175
Face Clinic London,"10 Harley Street, London, United Kingdom",0,0,0,0,0,0,0,0,0,0,0,0,51.5174148,-0.1459189
Lesnes Abbey Park,"London, United Kingdom",1,0,0,0,0,0,0,0,0,1,0,0,51.5074456,-0.1277653
Liquid Nightclub,"108 South St, Romford, United Kingdom",0,1,1,1,1,0,0,0,0,0,0,0,51.5746188,0.1837299
LA Fitness - Northwood,"22 Chestnut Avenue, Northwood, United Kingdom",0,0,0,0,0,0,1,0,0,0,0,0,51.6034851,-0.4178941
Frithwood Park,United Kingdom,1,0,0,0,0,0,0,0,0,1,0,0,54.7023545,-3.2765753
Transformation Fitness,"69 Bridge Street, Pinner, United Kingdom",0,0,0,0,0,0,1,0,0,0,0,0,51.5953653,-0.3849345
Odeon Cinemas Ltd,"Great North Road, London, United Kingdom",0,0,0,0,0,0,0,0,0,0,0,1,51.6458257,-0.1862236
Barnet Football Club,"Barnet Lane, Barnet - London, United Kingdom",0,0,0,0,0,0,1,0,0,0,0,0,51.639623,-0.1978846
Oak Hill Park,"Barnet, United Kingdom",1,0,0,0,0,0,0,0,0,1,0,0,51.65309,-0.2002261
LA Fitness - New Barnet,"18 East Barnet Road, London, United Kingdom",0,0,0,0,0,0,1,0,0,0,0,0,51.6491258,-0.1697949
Grange Park,"London, United Kingdom",1,0,0,0,0,0,0,0,0,1,0,0,51.5074456,-0.1277653
BodySmooth Clinic,"9 Argyll Street, London, United Kingdom",0,0,0,0,0,0,0,0,0,0,0,0,51.5147343,-0.1405635
Cockfosters Football Club,"Barnet, United Kingdom",0,0,0,0,0,0,1,0,0,0,0,0,51.65309,-0.2002261
Aesthetic Virtue,"2 Harley Street, London, United Kingdom",0,0,0,0,0,0,0,0,0,0,0,0,51.517045,-0.1459128
Cockfosters Bowling Club,"Barnet, United Kingdom",0,0,0,0,0,0,1,0,0,0,0,0,51.65309,-0.2002261
LA fitness Edgware,"67-79 Station Road, London, United Kingdom",0,0,0,0,0,0,1,0,0,0,0,0,51.6493956,-0.1769718
www.artzetc.com,"1A Selvage Lane, London, United Kingdom",0,0,0,0,0,0,0,1,0,0,0,0,51.618766,-0.2584597
Natures du Monde Spa Clinic,"64 Marchmont Street, London, United Kingdom",0,0,0,0,0,0,0,0,0,0,0,0,51.5253634,-0.1252026
Mill Hill Park,"London, United Kingdom",1,0,0,0,0,0,0,0,0,1,0,0,51.5074456,-0.1277653
Barnet Burnt Oak Leisure Centre,"Watling Avenue, Edgware, United Kingdom",0,0,0,0,0,0,1,0,0,0,0,0,51.6010188,-0.2666834
Sunny Hill Park,"London, United Kingdom",1,0,0,0,0,0,0,0,0,1,0,0,51.5074456,-0.1277653
LA Fitness - Finchley,"East End Rd, London, United Kingdom",0,0,0,0,0,0,1,0,0,0,0,0,51.5964709,-0.1933902
Virgin Active - Mill Hill,"34 Langstone Way, London, United Kingdom",0,0,0,0,0,0,1,0,0,0,0,0,51.6076587,-0.2105365
Mill Hill Rugby Club,"London, United Kingdom",0,0,0,0,0,0,1,0,0,0,0,0,51.5074456,-0.1277653
angel therapy rooms,"16b Essex Road, Islington, London, United Kingdom",0,0,0,0,0,0,0,0,0,0,0,0,51.5379126,-0.0998209
Kimantra Urban Spa,"5 Camden Passage, London, United Kingdom",0,0,0,0,0,0,0,0,0,0,0,0,51.5346268,-0.1043017
Copthall Playing Fields,"London, United Kingdom",0,0,0,0,0,0,1,0,0,0,0,0,51.5074456,-0.1277653
My Gravity Fitness & Dance,"81 Church Road, London, United Kingdom",0,0,0,0,1,0,1,0,0,0,0,0,51.460805,0.1381995
Park View Health Club,"189-191 Ballards Lane, London, United Kingdom",0,0,0,0,0,0,1,0,0,0,0,0,51.6133779,-0.1771164
GIGI London Medical Aesthetics,"10-12 Gaskin Street, London, United Kingdom",0,0,0,0,0,0,0,0,0,0,0,0,51.5374909,-0.1017264
Air Powerplate and fitness studio,"75A Russell Lane, London, Whetstone, United Kingdom",0,0,0,0,0,0,1,0,0,0,0,0,51.6300836,-0.1561214
Spa Nail,"345 Upper Street, London, United Kingdom",0,0,0,0,0,0,0,0,0,0,0,0,51.5385816,-0.1023003
Pumping Iron Gym,"31 Oakleigh Road South, London, United Kingdom",0,0,0,0,0,0,1,0,0,0,0,0,51.619785,-0.146546
Grovelands Park,"London, United Kingdom",1,0,0,0,0,0,0,0,0,1,0,0,51.5074456,-0.1277653
Paramount Health & Fitness,"316-322 Green Lanes, London, United Kingdom",0,0,0,0,0,0,1,0,0,0,0,0,51.6193797,-0.1068029
North London Fitness,"Broomfield Park, Broomfield Lane, London, United Kingdom",0,0,0,0,0,0,1,0,0,0,0,0,51.6176296,-0.117144
Finchley Lido Leisure Centre,"London, United Kingdom",0,0,0,0,0,0,1,0,0,0,0,0,51.5074456,-0.1277653
Odeon Cinema Muswell Hill,"Fortis Green Road, London, United Kingdom",0,0,0,0,0,0,0,0,0,0,0,1,51.5903106,-0.146801
The Manor Health and Leisure: Muswell Hill,"140 Fortis Green, United Kingdom",0,0,0,0,0,0,1,0,0,0,0,0,51.5911873,-0.1525307
Cha Cha Cha,"20-22 Avenue Mews, London, United Kingdom",0,1,1,1,1,0,0,0,0,0,0,0,51.5907877,-0.14362
theLOCALgallery,"14 Avenue Mews, London, United Kingdom",0,0,0,0,0,0,0,1,0,0,0,0,51.5907709,-0.143817
Alexandra Park,"London, United Kingdom",1,0,0,0,0,0,0,0,0,1,0,0,51.5074456,-0.1277653
Cineworld Wood Green,"Wood Green Shopping City, Noel Park Road, London, United Kingdom",0,0,0,0,0,0,0,0,0,0,0,1,51.59424,-0.1092775
easyGym Wood Green,"The Mall, 98-100 High Road, London, United Kingdom",0,0,0,0,0,0,1,0,0,0,0,0,51.3960623,0.176047
Health Aroma,"Thistle City Barbican Hotel, Central Street, London, United Kingdom",0,0,0,0,0,0,0,0,0,0,0,0,51.5275406,-0.0959433
Active4Less Uxbridge,"233 High St, Uxbridge, United Kingdom",0,0,0,0,0,0,1,0,0,0,0,0,51.5280292,-0.4814897
Battle of Britain Bunker,"Uxbridge, United Kingdom",0,0,0,0,0,1,0,0,1,1,0,0,51.5449509,-0.4816672
Sauna Bar,"29 Endell Street, London, United Kingdom",0,0,0,0,0,0,0,0,0,0,0,0,51.5144624,-0.1247006
Bessingby Playing Fields,United Kingdom,1,0,0,0,0,0,0,0,0,1,0,0,54.7023545,-3.2765753
The Tardis Gymnasium,"Sidmouth Drive, Ruislip, United Kingdom",0,0,0,0,0,0,1,0,0,0,0,0,51.5641705,-0.410133
Cowley Hall Recreation Ground,"Uxbridge, United Kingdom",1,0,0,0,0,0,0,0,0,1,0,0,51.5449509,-0.4816672
Usurp Art Gallery & Studios,"140 Vaughan Road, London, United Kingdom",0,0,0,0,0,0,0,1,0,0,0,0,51.5793139,-0.3477159
Old Lyonian Sports and Social Club,"Harrow, United Kingdom",0,0,0,0,0,0,1,0,0,0,0,0,51.5968271,-0.3373046
Golds Gym Harrow,"Manor Parade, Sheepcote Road, Harrow, United Kingdom",0,0,0,0,0,0,1,0,0,0,0,0,51.5831489,-0.3309899
Energie Fitness Club,"Watford Road, Harrow, United Kingdom",0,0,0,0,0,0,1,0,0,0,0,0,51.5764861,-0.325672
The Aveda Institute Salon And Spa,"174-177 High Holborn, London, United Kingdom",0,0,0,0,0,0,0,0,0,0,0,0,51.5165591,-0.1239046
Vale Farm Sports Ground,"Wembley, United Kingdom",1,0,0,0,0,0,0,0,0,1,0,0,51.5560695,-0.2796034
Northolt & Greenford Country Park,United Kingdom,1,0,0,0,0,0,0,0,0,1,0,0,54.7023545,-3.2765753
Beauty Box Nail Bar,"9 Great Russell Street, London, United Kingdom",0,0,0,0,0,0,0,0,0,0,0,0,51.5171728,-0.1299014
Parkland Natural Health Clinic,"239 High Holborn, London, United Kingdom",0,0,0,0,0,0,0,0,0,0,0,0,51.5175583,-0.1191529
Brookside,United Kingdom,0,0,0,0,0,0,0,0,0,1,0,0,54.7023545,-3.2765753
Harmondsworth Moor,United Kingdom,1,0,0,0,0,0,0,0,0,1,0,0,54.7023545,-3.2765753
Party Knightz,"Mulberry Parade, West Drayton, United Kingdom",0,1,1,1,1,0,0,0,0,0,0,0,51.5043155,-0.4575996
The Green,United Kingdom,1,0,0,0,0,0,0,0,0,1,0,0,54.7023545,-3.2765753
Gold's Gym,"54-62 Uxbridge Road, London, United Kingdom",0,0,0,0,0,0,1,0,0,0,0,0,51.5082897,-0.3349093
Southall Park,"Boyd Avenue, Southall, United Kingdom",1,0,0,0,0,0,0,0,0,1,0,0,51.509959,-0.373288
Perivale Park,United Kingdom,1,0,0,0,0,0,0,0,0,1,0,0,54.7023545,-3.2765753
Brent Valley Park,"London, United Kingdom",1,0,0,0,0,0,0,0,0,1,0,0,51.5074456,-0.1277653
Spikes Bridge Park,"West Avenue, Southall, United Kingdom",1,0,0,0,0,0,0,0,0,1,0,0,51.5151855,-0.3792521
The London Borough Of Ealing,"Perceval House, 14-16 Uxbridge Road, London, United Kingdom",0,0,0,0,0,0,0,0,0,1,0,0,51.5132497,-0.3088819
Eden Fitness,"Cavalier House, 46-50 Uxbridge Road, London, United Kingdom",0,0,0,0,0,0,1,0,0,0,0,0,51.5124658,-0.3126527
Gurnell Leisure Centre,"Ruislip Road East, London, United Kingdom",0,0,0,0,0,0,1,0,0,0,0,0,51.5270926,-0.3446616
The Gym Ealing,"96-122 Uxbridge Road, London, United Kingdom",0,0,0,0,0,0,1,0,0,0,0,0,51.5114652,-0.3165735
Barclays Bank Sports,"London, United Kingdom",0,0,0,0,0,0,1,0,0,0,0,0,51.5074456,-0.1277653
Ealing Conservative Bowling Green,"London, United Kingdom",0,0,0,0,0,0,1,0,0,0,0,0,51.5074456,-0.1277653
Osterley Park and House,"Jersey Road, Isleworth, United Kingdom",1,0,0,0,0,1,0,0,0,1,0,0,51.4888936,-0.3404245
Eighth Level Health Club,"8 Windmill Avenue, Southall, United Kingdom",0,0,0,0,0,0,1,0,0,0,0,0,51.5073729,-0.3540361
Legends Boxing Gym,"4 Kew Road, Kew, United Kingdom",0,0,0,0,0,0,1,0,0,0,0,0,51.463674,-0.3016383
Arch Health & Fitness,"Kew Bridge, Richmond, United Kingdom",0,0,0,0,0,0,1,0,0,0,0,0,51.4868123,-0.287451
London Massage Service,"London, United Kingdom",0,0,0,0,0,0,0,0,0,0,0,0,51.5074456,-0.1277653
Roe Green Park,"Kingsbury Road, London, United Kingdom",1,0,0,0,0,0,0,0,0,1,0,0,51.5834395,-0.2638685
Fryent Country Park,"Fryent Way, London, United Kingdom",1,0,0,0,0,0,0,0,0,1,0,0,51.5829493,-0.2803715
Malcolm Park,"London, United Kingdom",1,0,0,0,0,0,0,0,0,1,0,0,51.5074456,-0.1277653
Hendon Park,"Queen's Road, Hendon, United Kingdom",1,0,0,0,0,0,0,0,0,1,0,0,51.5834263,-0.2224645
LA fitness Golders Green,"152-154 Golders Green Road, London, United Kingdom",0,0,0,0,0,0,1,0,0,0,0,0,51.579998,-0.2096104
Hampstead Pergola,"Inverforth Close, United Kingdom",1,0,0,0,0,0,0,0,0,1,0,0,51.5654675,-0.1823864
Images,"19 Helenslea Avenue, Golders Green, United Kingdom",0,0,0,0,0,0,0,1,0,0,0,0,51.5693738,-0.1968487
Artisan,"80 Harlesden Road, London, United Kingdom",0,0,0,0,0,0,0,1,0,0,0,0,51.5454668,-0.2333987
The Spa at Mandarin Oriental,"66 Knightsbridge, London, United Kingdom",0,0,0,0,0,0,0,0,0,0,0,0,51.5023616,-0.1602976
Brentfield Open Space,"London, United Kingdom",1,0,0,0,0,0,0,0,0,1,0,0,51.5074456,-0.1277653
Sherrans Farm Open Space,"Wembley, United Kingdom",1,0,0,0,0,0,0,0,0,1,0,0,51.5560695,-0.2796034
Ben Uri,"108A Boundary Road, London, United Kingdom",0,0,0,0,0,0,0,1,1,0,0,0,51.6391877,-0.0465396
Virgin Active - Cricklewood,"108-110 Cricklewood Lane, London, United Kingdom",0,0,0,0,0,0,1,0,0,0,0,0,51.5594968,-0.2099459
Gloves Boxing Club,"198a Broadhurst Gardens, London, United Kingdom",0,0,0,0,0,0,1,0,0,0,0,0,51.5466376,-0.1847328
Bannatyne's Health Club Maida Vale,"4 Greville Road, London, Maida Vale, United Kingdom",0,0,0,0,0,0,1,0,0,0,0,0,51.5356827,-0.1862693
Fitness First - Queen's Park,"London, United Kingdom",0,0,0,0,0,0,1,0,0,0,0,0,51.5074456,-0.1277653
Latelys,"311 Kilburn High Road, London, United Kingdom",0,1,1,1,0,0,0,0,0,0,0,0,51.5441967,-0.2009454
Spa Illuminata,"63 South Audley Street, London, United Kingdom",0,0,0,0,0,0,0,0,0,0,0,0,51.5090442,-0.1518436
The Fitness Club Ltd,"529 Finchley Road, London, United Kingdom",0,0,0,0,0,0,1,0,0,0,0,0,51.546882,-0.1796358
Garden Awakenings,"25 Sherrick Green Road, London, United Kingdom",1,0,0,0,0,0,0,0,0,1,0,0,51.5520969,-0.2317759
Elemis Day-Spa Mayfair,"2 Lancashire Court, London, Mayfair, United Kingdom",0,0,0,0,0,0,0,0,0,0,0,0,51.5126245,-0.1452525
The Factory Gym and Dance Center,"407 Hornsey Road, London, United Kingdom",0,0,0,0,0,0,1,0,0,0,0,0,51.5595583,-0.1143541
Islington Boxing Club,"20 Hazellville Rd, London, United Kingdom",0,0,0,0,0,0,1,0,0,0,0,0,51.5719214,-0.1294596
Jealous Gallery,"27 Park Rd, London, United Kingdom",0,0,0,0,0,0,0,1,0,0,0,0,51.5359538,0.0179434
Total Boxer,"46 Tottenham Lane, London, United Kingdom",0,0,0,0,0,0,1,0,0,0,0,0,51.5862457,-0.1124796
Synergy Studio,"31 Tottenham Lane, London, United Kingdom",0,0,0,0,0,0,1,0,0,0,0,0,51.5850004,-0.1148369
Dilara Barbeque Restaurant,"27 Blackstock Road, London, United Kingdom",0,0,1,0,0,0,0,0,0,0,1,0,51.5640838,-0.1031843
Monica Vinader,"14 South Molton Street, London, United Kingdom",0,0,0,0,0,0,0,0,0,0,0,0,51.5135014,-0.1477888
I Borboni,"386 Green Lanes, London, United Kingdom",0,0,1,0,0,0,0,0,0,0,1,0,51.575026,-0.0981242
Florentia,"Florentia Clothing Village, Vale Rd, London, United Kingdom",0,0,0,0,0,0,1,0,0,0,0,0,51.5762923,-0.088699
Cowshed Carnaby,"31 Foubert's Place, London, United Kingdom",0,0,0,0,0,0,0,0,0,0,0,0,51.5139196,-0.1389693
Everyman Hampstead,"5 Holly Bush Vale, London, United Kingdom",0,0,0,0,0,0,0,0,0,0,0,1,51.5565271,-0.1789708
UCS Active,"Frognal, London, United Kingdom",0,0,0,0,0,0,1,0,0,0,0,0,51.4170111,0.1041519
Zebra Gallery,"1 Perrin's Court, London, United Kingdom",0,0,0,0,0,0,0,1,0,0,0,0,51.5555639,-0.1778809
LA fitness Highgate,"53-79 Highgate Road, London, United Kingdom",0,0,0,0,0,0,1,0,0,0,0,0,51.5539282,-0.1445139
Maximum Fitness,"144 Fortess Road, London, United Kingdom",0,0,0,0,0,0,1,0,0,0,0,0,51.5563658,-0.1385848
Curves Womens Gym,"83 Fortess Road, London, United Kingdom",0,0,0,0,0,0,1,0,0,0,0,0,51.5546277,-0.1403251
Everyman Cinemas,"203 Haverstock Hill, Belsize Park, London, United Kingdom",0,0,0,0,0,0,0,0,0,0,0,1,51.5508149,-0.1657783
Permanent Makeup by Dunja,"38 Knightsbridge, London, United Kingdom",0,0,0,0,0,0,0,0,0,0,0,0,51.5008444,-0.166965
The Lansdowne Club,"9 Fitzmaurice Place, London, United Kingdom",0,0,1,0,0,0,0,0,0,0,1,0,51.5082152,-0.1450906
Graceful Garden,"Harrold House, Finchley Road, London, United Kingdom",1,0,0,0,0,0,0,0,0,1,0,0,51.5447208,-0.1765323
Underworld Night Club,"174 Camden High Street, London, United Kingdom",0,1,1,1,1,0,0,0,0,0,0,0,51.5391316,-0.1422001
Aquilla,"The Rembrandt Hotel, Thurloe Place, London, United Kingdom",0,0,0,0,0,0,0,0,0,0,0,0,51.4958965,-0.1701141
Camden Rock,"18 Kentish Town Road, London, United Kingdom",0,1,1,1,1,0,0,0,0,0,0,0,51.547157,-0.1415996
clinicbe (Dr Barbara Kubicka),"32 Clabon Mews, London, United Kingdom",0,0,0,0,0,0,0,0,0,0,0,0,51.4954249,-0.1618849
Annroy Gallery,"110-114 Grafton Road, London, United Kingdom",0,0,0,0,0,0,0,1,0,0,0,0,51.5492756,-0.1476605
The Cob Gallery,"205 Royal College Street, London, United Kingdom",0,0,0,0,0,0,0,1,0,0,0,0,51.5403276,-0.1370836
Londinium Gardens,"97 College Place, London, United Kingdom",1,0,0,0,0,0,0,0,0,1,0,0,51.5858309,0.0081787
Cantelowes Gardens,"London, United Kingdom",1,0,0,0,0,0,1,0,0,1,0,0,51.5074456,-0.1277653
Santi Spa,"33 Thurloe Street, London, United Kingdom",0,0,0,0,0,0,0,0,0,0,0,0,51.4945575,-0.1739898
Stephanie Guimond Pilates,"30 Princess Road, London, United Kingdom",0,0,0,0,0,0,1,0,0,0,0,0,51.539115,-0.1518443
Azi School Of Taiji,"3 Holmes Road, London, United Kingdom",0,0,0,0,0,0,1,0,0,0,0,0,51.5490942,-0.1414219
Islington Arts Factory,"2 Parkhurst Road, London, United Kingdom",0,0,0,0,1,0,1,0,0,0,0,0,51.6066506,-0.1121101
FitSpace Gyms Islington,"5-7 Hornsey Street, London, United Kingdom",0,0,0,0,0,0,1,0,0,0,0,0,51.5520698,-0.1134454
Karoon Taekwondo Club,"262 Holloway Road, London, Islington, United Kingdom",0,0,0,0,0,0,1,0,0,0,0,0,51.5537485,-0.113197
The Chelsea Day Spa,"69A King's Road, London, United Kingdom",0,0,0,0,0,0,0,0,0,0,0,0,51.4892217,-0.1641191
Clissold Park Paddling Pool,"229 Stoke Newington Church Street, United Kingdom",1,0,0,0,0,0,0,0,0,1,0,0,51.5581905,-0.0892399
Olden Garden,"Whistler Street, London, United Kingdom",1,0,0,0,0,0,0,0,0,1,0,0,51.5521356,-0.1038559
EGG,"200 York Way, London, United Kingdom",0,1,1,1,1,0,0,0,0,0,0,0,51.5418275,-0.1247881
Cally Pool,"229 Caledonian Road, London, United Kingdom",0,0,0,0,0,0,1,0,0,0,0,0,51.536118,-0.1167119
Springhealth Gym,"400-404 York Way, Islington, United Kingdom",0,0,0,0,0,0,1,0,0,0,0,0,51.5486642,-0.1283444
Acculaser Skin Clinic,"63 King's Road, London, United Kingdom",0,0,0,0,0,0,0,0,0,0,0,0,51.489492,-0.163505
New River - Express Fitness for Women,"321 Essex Rd, London, United Kingdom",0,0,0,0,0,0,1,0,0,0,0,0,51.5451072,-0.088378
Gallery One and a Half,"1 Ardleigh Road, London, United Kingdom",0,0,0,0,0,0,0,1,0,0,0,0,51.5432254,-0.0820439
Gibson Square Gardens,"London, United Kingdom",1,0,0,0,0,0,0,0,0,1,0,0,51.5074456,-0.1277653
Canonbury Gardens,"London, United Kingdom",1,0,0,0,0,0,0,0,0,1,0,0,51.5074456,-0.1277653
Wormwood Scrubs,"Scrubs Lane, United Kingdom",1,0,0,0,0,0,0,0,0,1,0,0,51.5310648,-0.2370706
Virgin Active,"36 Bromyard Avenue, London, United Kingdom",0,0,0,0,0,0,1,0,0,0,0,0,51.5081424,-0.2512667
The Park Club,"East Acton Lane, London, Acton, United Kingdom",0,0,0,0,0,0,1,0,0,0,0,0,51.5102531,-0.2577377
Vagheggi,"205 King's Road, London, United Kingdom",0,0,0,0,0,0,0,0,0,0,0,0,51.4869555,-0.1697714
PureGym London Acton,"283 High Street, London, United Kingdom",0,0,0,0,0,0,1,0,0,0,0,0,51.3680945,-0.1952734
My Fitness Studio,"9 Conlan Street, London, United Kingdom",0,0,0,0,0,0,1,0,0,0,0,0,51.5256197,-0.2107519
Heart and Soul Fitness,"336 Ladbroke Grove, London, United Kingdom",0,0,0,0,0,0,1,0,0,0,0,0,51.5271047,-0.215702
LA Fitness - Bayswater,"6 Moscow Place, London, United Kingdom",0,0,0,0,0,0,1,0,0,0,0,0,51.5129341,-0.1900803
Portobello Green Fitness Club,"3-5 Thorpe Close, London, United Kingdom",0,0,0,0,0,0,1,0,0,0,0,0,51.5184371,-0.2079886
Art of Spa,"46A Tachbrook Street, London, United Kingdom",0,0,0,0,0,0,0,0,0,0,0,0,51.4902396,-0.1365197
Bay Sixty6 Skate Park,"65 Acklam Road, London, United Kingdom",0,0,0,0,0,0,1,0,0,0,0,0,51.5202496,-0.2053209
The Peak Health Club & Spa,"Jumeirah Carlton Tower, Cadogan Place, London, United Kingdom",0,0,0,0,0,0,0,0,0,0,0,0,51.4987223,-0.158596
Debut Contemporary,"82 Westbourne Grove, London, United Kingdom",0,0,0,0,0,0,0,1,0,0,0,0,51.5153636,-0.1932485
Meanwhile Gardens Community Association,"156-158 Kensal Road, London, United Kingdom",1,0,0,0,0,0,1,0,0,1,0,0,51.5257048,-0.2075391
SHANGRI-LA Chinese Health Care Clinic,"68 Wilton Rd, London, United Kingdom",0,0,0,0,0,0,0,0,0,0,0,0,51.4931029,-0.1406698
The Portobello Arts Club,"117 Portobello Rd, London, United Kingdom",0,0,0,0,0,0,0,1,0,0,0,0,51.5137742,-0.2034921
The Spa at Dolphin Square,"Dolphin Square, Chichester Street, London, United Kingdom",0,0,0,0,0,0,0,0,0,0,0,0,51.486816,-0.1365129
Edbrooke Road Gardens,"London, United Kingdom",1,0,0,0,0,0,0,0,0,1,0,0,51.5074456,-0.1277653
West4 Gym,"Sutton Lane, Chiswick, United Kingdom",0,0,0,0,0,0,1,0,0,0,0,0,51.4871706,-0.2721758
Frivoli,"7A Devonshire Road, London, United Kingdom",0,0,0,0,0,0,0,1,0,0,0,0,51.4922155,-0.2561849
Gym Clinic,"129 Power Road, London, United Kingdom",0,0,0,0,0,0,1,0,0,0,0,0,51.4928399,-0.2792117
Esmond Robinson Framing and Gallery,"250-252 King Street, London, United Kingdom",0,0,0,0,0,0,0,1,0,0,0,0,51.6016966,-0.0707863
G14,"111 Power Road, London, United Kingdom",0,0,0,0,0,0,1,0,0,0,0,0,51.4947486,-0.2791092
Relax,"7 Mercer Street, London, United Kingdom",0,0,0,0,0,0,0,0,0,0,0,0,51.5133338,-0.1263956
South Acton Park,"London, United Kingdom",1,0,0,0,0,0,0,0,0,1,0,0,51.5074456,-0.1277653
Profound Pilates,"48 Wendell Road, London, United Kingdom",0,0,0,0,0,0,1,0,0,0,0,0,51.5022958,-0.2457398
Queen's Park Rangers Football Club,"Loftus Road Stadium, South Africa Road, London, United Kingdom",0,0,0,0,0,0,1,0,0,0,0,0,51.5094016,-0.2321136
Virgin Games,"1 Nicholas Road, London, United Kingdom",0,1,1,0,0,0,0,0,0,0,0,0,51.5105353,-0.2187501
Gym Box,"Westfield Shopping Centre, Ariel Way, London, United Kingdom",0,0,0,0,0,0,1,0,0,0,0,0,51.5074732,-0.2198969
The Coronet Cinema Notting Hill Gate,"103 Notting Hill Gate, London, United Kingdom",0,0,0,0,0,0,1,0,0,0,0,0,51.5085433,-0.198132
The Locker Room,"8 Cleaver Street, London, United Kingdom",0,0,0,0,0,0,0,0,0,0,0,0,51.4883427,-0.1105585
Methods Studios,"5A Lucerne Mews, London, United Kingdom",0,0,0,0,0,0,1,0,0,0,0,0,51.5080958,-0.1942264
The Bannatyne Spa - Millbank,"4 Millbank, London, United Kingdom",0,0,0,0,0,0,0,0,0,0,0,0,51.4967341,-0.1261244
Thai Mint Spa & Massage,"48 Tower Bridge Rd, London, United Kingdom",0,0,0,0,0,0,0,0,0,0,0,0,51.5022685,-0.0776058
The Royal Garden Health Club,"2 Kensington High Street, London, United Kingdom",0,0,0,0,0,0,1,0,0,0,0,0,51.5027533,-0.1880747
Tranquilstate,"48 Bridge End, London, United Kingdom",0,0,0,0,0,0,0,0,0,0,0,0,51.5988127,-0.00569
Equinox Kensington,"99 Kensington High Street, London, United Kingdom",0,0,0,0,0,0,1,0,0,0,0,0,51.5011463,-0.1914769
Beauty Above,"585A Forest Road, London, United Kingdom",0,0,0,0,0,0,0,0,0,0,0,0,51.5892533,-0.0298151
Virgin Active - Hammersmith,"Shortlands, 181 Hammersmith Road, London, United Kingdom",0,0,0,0,0,0,1,0,0,0,0,0,51.4927905,-0.2205984
thirtysevendegrees Health Club,"10 Beaconsfield Terrace Road, London, United Kingdom",0,0,0,0,0,0,1,0,0,0,0,0,51.4967387,-0.2120583
Hepsibah Gallery,"112 Brackenbury Road, London, Hammersmith, United Kingdom",0,0,0,0,0,0,0,1,0,0,0,0,51.4972216,-0.2316175
Turkish Bath Hamam,"4A Crossway, London, United Kingdom",0,0,0,0,0,0,0,0,0,0,0,0,51.6142998,0.0408365
Earls Court Exhibition Centre,"Warwick Road, London, United Kingdom",0,0,0,1,0,0,0,0,0,1,0,0,51.4955506,-0.2037675
18 Stafford Terrace,"18 Stafford Terrace, London, United Kingdom",0,0,0,0,0,1,0,0,1,1,0,0,51.5004849,-0.1968745
Odeon Cinema Kensington,"Kensington High Street, London, United Kingdom",0,0,0,0,0,0,0,0,0,0,0,1,51.4976472,-0.2030932
The E15 Club,"6 Leytonstone Road, London, United Kingdom",0,0,0,0,0,0,0,0,0,0,0,0,51.546817,0.0068247
Club Kensington Gym,"201-207 High Street, London, United Kingdom",0,0,0,0,0,0,1,0,0,0,0,0,51.4149048,-0.0525563
229 THE VENUE,"229 Great Portland Street, London, United Kingdom",0,1,1,1,1,0,0,0,0,0,0,0,51.52365,-0.1448704
Vault 139 Ltd,"139-143 Whitfield Street, London, United Kingdom",0,1,1,1,1,0,0,0,0,0,0,0,51.5236164,-0.1387911
Rebecca Hossack Art Gallery,"2A Conway Street, London, United Kingdom",0,0,0,0,0,0,0,1,0,0,0,0,51.5219826,-0.1395488
Fitzroy Square Garden,"London, United Kingdom",1,0,0,0,0,0,0,0,0,1,0,0,51.5074456,-0.1277653
The Gallery At 94,"94 Cleveland Street, London, United Kingdom",0,0,0,0,0,0,0,1,0,0,0,0,51.5226404,-0.1410967
The Rose Club,"23 Orchard Street, London, United Kingdom",0,1,1,1,1,0,0,0,0,0,0,0,51.514246,-0.1539492
The Third Space,"Bulstrode Place, London, United Kingdom",0,0,0,0,0,0,1,0,0,0,0,0,51.5181379,-0.1504619
GV Art,"49 Chiltern Street, London, United Kingdom",0,0,0,0,0,0,0,1,0,0,0,0,51.5199445,-0.1555137
Quinn Clinics,"54 Woodlands Park Road, Greenwich, United Kingdom",0,0,0,0,0,0,0,0,0,0,0,0,51.4831534,0.0046757
Pirates Playhouse,"Green Lanes, London, United Kingdom",0,0,0,0,0,0,0,0,0,0,0,0,51.5813437,-0.0994982
Legende Celebrity Art,"54 Baker Street, London, United Kingdom",0,0,0,0,0,0,0,1,0,0,0,0,51.518978,-0.1557451
100 Club,"100 Oxford Street, London, United Kingdom",0,1,1,1,1,0,0,0,0,0,0,0,51.5161082,-0.1353568
Pollock's Toy Museum,"1 Scala Street, United Kingdom",0,0,0,0,0,0,0,0,1,0,0,0,51.5203425,-0.1352545
SweatBox Soho,"Ramillies House, 1-2 Ramillies Street, London, United Kingdom",0,0,0,0,0,0,1,0,0,0,0,0,51.5149552,-0.1387301
LA fitness Great Portland Street,"Cavendish Mews North, London, United Kingdom",0,0,0,0,0,0,1,0,0,0,0,0,51.5203172,-0.1441068
Project London,"78 Wells Street, London, United Kingdom",0,1,1,1,1,0,0,0,0,0,0,0,51.5163055,-0.1370859
Discovery Planet,"Surrey Quays Shopping Centre, Redriff Road, London, United Kingdom",0,0,0,0,0,0,0,0,0,0,0,0,51.4944945,-0.0458974
Art First,"21 Eastcastle Street, London, United Kingdom",0,0,0,0,0,0,0,1,0,0,0,0,51.5168139,-0.1379528
Josh Lilley,"44-46 Riding House Street, London, United Kingdom",0,0,0,0,0,0,0,1,0,0,0,0,51.5190661,-0.1392999
Old MacDonalds Farm,"London, United Kingdom",0,0,0,0,0,0,0,0,0,0,0,0,51.5074456,-0.1277653
Scream,"Eastcastle House, 27-28 Eastcastle Street, London, United Kingdom",0,0,0,0,0,0,0,1,0,0,0,0,51.5167167,-0.1384862
Rosenfeld Porcini,"36 Newman Street, London, United Kingdom",0,0,0,0,0,0,0,1,0,0,0,0,51.5185488,-0.1359871
Gallery Vela,"38 Langham Street, London, United Kingdom",0,0,0,0,0,0,0,1,0,0,0,0,51.5188475,-0.1417247
Dragon Falls,Chessington World of Adventures,0,0,0,0,0,0,0,0,0,0,0,0,51.3495146,-0.3172728
Elm Park Childrens Centre,"Diban Avenue, Hornchurch, United Kingdom",0,0,0,0,0,0,0,0,0,0,0,0,51.5511137,0.2034535
Tumble In The Jungle,"245 Wood Street, London, United Kingdom",0,0,0,0,0,0,0,0,0,0,0,0,51.5843182,-0.0006173
Foundling Museum,"40 Brunswick Square, London, United Kingdom",0,0,0,0,0,1,0,0,1,0,0,0,51.5252269,-0.1216833
Spa Fields Park,"London, United Kingdom",1,0,0,0,0,0,0,0,0,1,0,0,51.5074456,-0.1277653
Gagosian Gallery,"6-24 Britannia Street, London, United Kingdom",0,0,0,0,0,0,0,1,0,0,0,0,51.5297752,-0.1188232
The Dairy Art Centre,"7a Wakefield Street, London, United Kingdom",0,0,0,0,0,0,0,1,0,0,0,0,51.6121807,-0.062702
Joseph Grimaldi Park,"London, United Kingdom",1,0,0,0,0,0,0,0,0,1,0,0,51.5074456,-0.1277653
Saint Andrew's Gardens,"London, United Kingdom",1,0,0,0,0,0,0,0,0,1,0,0,51.5074456,-0.1277653
Argyle Square Public Basketball Court,"Argyle Square, United Kingdom",0,0,0,0,0,0,1,0,0,0,0,0,51.5290726,-0.1219194
Claremont Square,"London, United Kingdom",0,0,0,0,0,0,0,0,0,1,0,0,51.5074456,-0.1277653
Kidspace,"619 Purley Way, Croydon, United Kingdom",0,0,0,0,0,0,0,0,0,0,0,0,51.3569464,-0.1134533
Henry Reynolds Gardens,"London, United Kingdom",1,0,0,0,0,0,0,0,0,1,0,0,51.5074456,-0.1277653
Eddie Catz,"42 Station Road, Merton, London, United Kingdom",0,0,0,0,0,0,0,0,0,0,0,0,51.3946823,-0.2394418
Fitness First Angel,"361-373 City Road, London, United Kingdom",0,0,0,0,0,0,1,0,0,0,0,0,51.5276306,-0.0893553
Queen Elizabeth's Hunting Lodge,"8 Ranger's Road, London, United Kingdom",0,0,0,0,0,0,0,0,0,0,0,0,51.6341337,0.0131128
Go Kids N20,"1105-1111 High Road, London, United Kingdom",0,0,0,0,0,0,0,0,0,0,0,0,51.6143539,-0.1400752
Penguin Beach,"The Broadwalk, London, United Kingdom",1,0,0,0,0,0,0,0,0,1,0,0,51.6024112,-0.4366694
Parasol unit foundation for contemporary art,"14 Wharf Road, United Kingdom",0,0,0,0,0,0,0,1,0,0,0,0,52.4570749,-1.8279104
Victoria Miro,"16 Wharf Road, London, United Kingdom",0,0,0,0,0,0,0,1,0,0,0,0,51.5304173,-0.095107
London Fight Factory,"19 Ebenezer Street, London, United Kingdom",0,0,0,0,0,0,1,0,0,0,0,0,51.5284241,-0.0899278
Shoreditch Park Garden,"London, United Kingdom",1,0,0,0,0,0,1,0,0,1,0,0,51.5074456,-0.1277653
East Bloc,"City Road, 217 A501, London, United Kingdom",0,1,1,1,1,0,0,0,0,0,0,0,51.5284118,-0.0914173
The Petrie Museum of Egyptian Archaeology,"Malet Place, Camden, London, United Kingdom",0,0,0,0,0,0,0,0,1,0,0,0,51.523307,-0.1323459
The Horse Hospital,"Colonnade, Bloomsbury, London, United Kingdom",0,0,0,0,0,0,0,1,0,0,0,0,51.5230515,-0.1234813
Fitness First Tottenham Court Road,"179A Tottenham Court Road, London, United Kingdom",0,0,0,0,0,0,1,0,0,0,0,0,51.5242399,-0.1376047
Energybase,"University of London Union, Malet Street, London, United Kingdom",0,0,0,0,0,0,1,0,0,0,0,0,51.5226537,-0.1310721
Queen Square Park and Garden,"Queen Square, London, United Kingdom",1,0,0,0,0,0,0,0,0,1,0,0,51.5222469,-0.1230724
Charles Dickens Museum,"48 Doughty Street, London, United Kingdom",0,0,0,0,0,0,0,0,1,0,0,0,51.5235957,-0.1163264
Corams Field Nursery,"93 Guilford Street, London, United Kingdom",1,0,0,0,0,0,1,0,0,1,0,0,51.5233938,-0.1201173
Willford Road Recreation Ground,"Croydon, United Kingdom",1,0,0,0,0,0,0,0,0,1,0,0,51.3713049,-0.101957
Oasis Sports Centre,"32 Endell Street, London, United Kingdom",0,0,0,0,0,0,1,0,0,0,0,0,51.5157339,-0.126177
The Roxy,"3 Rathbone Place, London, United Kingdom",0,1,1,1,1,0,0,0,0,0,0,0,51.5166146,-0.1329097
G-A-Y Late,"5 Goslett Yard, London, United Kingdom",0,1,1,1,1,0,0,0,0,0,0,0,51.5150956,-0.1306377
12 Bar Club,"26 Denmark Street, London, United Kingdom",0,1,1,1,1,0,0,0,0,0,0,0,51.5155359,-0.1291827
The Cartoon Museum,"35 Little Russell Street, London, United Kingdom",0,0,0,0,0,0,0,0,1,0,0,0,51.5177483,-0.1260184
Maggie & Rose,"1 Essex Place Square, London, United Kingdom",0,0,0,0,0,0,0,0,0,0,0,0,51.4927637,-0.264614
The Den & Centro Bar,"18 West Central Street, London, United Kingdom",0,1,1,1,1,0,0,0,0,0,0,0,51.5166429,-0.1252929
Lazarides,"11 Rathbone Place, London, United Kingdom",0,0,0,0,0,0,0,1,0,0,0,0,51.5169846,-0.1332748
Soho Gyms,"12-14 Holborn, London, United Kingdom",0,0,0,0,0,0,1,0,0,0,0,0,51.5195982,-0.1137266
The Outsiders London,"8 Greek Street, London, United Kingdom",0,0,0,0,0,0,0,1,0,0,0,0,51.5145562,-0.1310205
St Moritz Club,"159 Wardour Street, London, United Kingdom",0,1,1,1,1,0,0,0,0,0,0,0,51.5144549,-0.1350207
Curwen & New Academy Gallery,"34 Windmill Street, London, United Kingdom",0,0,0,0,0,0,0,1,0,0,0,0,51.5189288,-0.1340102
Miabella,"12-13 Greek Street, London, United Kingdom",0,1,1,1,1,0,0,0,0,0,0,0,51.5142563,-0.1310099
Austin-Desmond Fine Art Ltd,"68-69 Great Russell Street, London, United Kingdom",0,0,0,0,0,0,0,1,0,0,0,0,51.5183072,-0.1259211
Contemporary Ceramics Centre,"63 Great Russell Street, Bloomsbury, London, United Kingdom",0,0,0,0,0,0,0,1,0,0,0,0,51.5184687,-0.1247881
Rook and Raven,"7 Rathbone Place, London, United Kingdom",0,0,0,0,0,0,0,1,0,0,0,0,51.5168211,-0.1330738
Lawrence Alkin Gallery,"42 New Compton Street, London, United Kingdom",0,0,0,0,0,0,0,1,0,0,0,0,51.5149737,-0.1276557
Abbott and Holder,"30 Museum Street, London, United Kingdom",0,0,0,0,0,0,0,1,0,0,0,0,51.5178699,-0.125925
The Movie Poster Art Gallery,"1 Colville Place, London, United Kingdom",0,0,0,0,0,0,0,1,0,0,0,0,51.519529,-0.1345223
British Museum Co Ltd,"38 Russell Square, London, United Kingdom",0,0,0,0,0,1,0,0,1,0,0,0,51.5207278,-0.1259557
Go Ape! Trent Park,"Trent Country Park, Cockfosters Road, Cockfosters, Enfield, United Kingdom",1,0,0,0,0,0,0,0,0,1,0,0,51.6551819,-0.1525056
Sir John Soane's Museum,"13 Lincoln's Inn Fields, London, United Kingdom",0,0,0,0,0,1,0,0,1,0,0,0,51.5170471,-0.117482
Sway Bar,"61-65 Great Queen Street, London, United Kingdom",0,1,1,1,1,0,0,0,0,0,0,0,51.5158252,-0.120125
Fitness First High Holborn,"246 High Holborn, London, United Kingdom",0,0,0,0,0,0,1,0,0,0,0,0,51.5172605,-0.1185787
Hunterian Museum,"35-43 Lincoln's Inn Fields, London, United Kingdom",0,0,0,0,0,1,0,0,1,0,0,0,51.5152831,-0.1158701
Gymboree Play & Music,"Whiteleys, 151 Queensway, London, United Kingdom",0,0,0,0,0,0,0,0,0,0,0,0,51.5148417,-0.1888356
Red Lion Square Gardens,"London, United Kingdom",1,0,0,0,0,0,0,0,0,1,0,0,51.5074456,-0.1277653
Vie Health Club,"122 Clerkenwell Road, London, United Kingdom",0,0,0,0,0,0,1,0,0,0,0,0,51.5222629,-0.1076707
Hoopers Gallery,"15 Clerkenwell Close, London, United Kingdom",0,0,0,0,0,0,0,1,0,0,0,0,51.5231115,-0.1065489
Rainbird Fine Art,"114 Clerkenwell Road, London, United Kingdom",0,0,0,0,0,0,0,1,0,0,0,0,51.5225072,-0.1050839
East Village Club,"89 Great Eastern St, London, United Kingdom",0,1,1,1,1,0,0,0,0,0,0,0,51.5257086,-0.0833698
Virgin Active - Moorgate,"33 Bunhill Row, London, United Kingdom",0,0,0,0,0,0,1,0,0,0,0,0,51.525251,-0.0907452
Fitness First Old Street,"60 Featherstone Street, London, United Kingdom",0,0,0,0,0,0,1,0,0,0,0,0,51.5246209,-0.088122
Red Gallery,"1-3 Rivington Street, London, United Kingdom",0,0,0,0,0,0,0,1,0,0,0,0,51.5262877,-0.0832929
23 Paul Street,"23-25 Paul Street, London, United Kingdom",0,1,1,1,0,0,0,0,0,0,0,0,51.5375671,0.0041138
Signal Gallery,"32 Paul Street, London, United Kingdom",0,0,0,0,0,0,0,1,0,0,0,0,51.5235038,-0.0841684
BOOM Cycle,"2-8 Scrutton Street, London, United Kingdom",0,0,0,0,0,0,1,0,0,0,0,0,51.5232935,-0.083915
Fortune Street Park,"London, United Kingdom",1,0,0,0,0,0,0,0,0,1,0,0,51.5074456,-0.1277653
The Interchange Gallery,"173 Whitecross Street, London, United Kingdom",0,0,0,0,0,0,0,1,0,0,0,0,51.5237042,-0.0934876
Curious Duke Gallery,"207 Whitecross Street, London, United Kingdom",0,0,0,0,0,0,0,1,0,0,0,0,51.5244863,-0.0940104
Dr. Johnson's House,"17 Gough Square, London, United Kingdom",0,0,0,0,0,0,0,0,0,0,0,0,51.5149098,-0.1081661
Postman's Park,"London, United Kingdom",1,0,0,0,0,0,0,0,0,1,0,0,51.5074456,-0.1277653
LA fitness St Pauls,"20 Little Britain, London, United Kingdom",0,0,0,0,0,0,1,0,0,0,0,0,51.5172179,-0.0983666
Virgin Active - Barbican,"97 Aldersgate Street, London, United Kingdom",0,0,0,0,0,0,1,0,0,0,0,0,51.5207349,-0.0963942
Fitness First Holborn Circus,"1 Thavies Inn, London, United Kingdom",0,0,0,0,0,0,1,0,0,0,0,0,51.5172633,-0.1073718
Guildhall,"Gresham Street, London, United Kingdom",0,0,1,0,0,1,0,0,1,0,1,0,51.5149746,-0.0910323
Guildhall Art Gallery,"Guildhall Yard, London, United Kingdom",0,0,0,0,0,1,0,1,0,0,0,0,51.5155205,-0.0922306
Clockmakers' Museum (Guildhall Library),"London, United Kingdom",0,0,0,0,0,0,0,0,1,0,0,0,51.5074456,-0.1277653
LA fitness London Wall,"48 London Wall, London, United Kingdom",0,0,0,0,0,0,1,0,0,0,0,0,51.5170622,-0.0871936
Slim Jims,"1 Finsbury Avenue, London, United Kingdom",0,0,0,0,0,0,1,0,0,0,0,0,51.5196784,-0.0847176
Virgin Active Classic- Bank Club,"5 Old Broad Street, London, United Kingdom",0,0,0,0,0,0,1,0,0,0,0,0,51.5144965,-0.0856403
Coleman Street Gym,"40 Coleman Street, London, United Kingdom",0,0,0,0,0,0,1,0,0,0,0,0,51.5149124,-0.0903386
City Athletic,"Trump Street, London, United Kingdom",0,0,0,0,0,0,1,0,0,0,0,0,51.5144102,-0.0930592
Cre8 Fitness,"8 Angel Court, London, United Kingdom",0,0,0,0,0,0,1,0,0,0,0,0,51.5154458,-0.0877927
Barbican lake terrace,"City of London, London, United Kingdom",1,1,1,1,1,0,0,0,0,0,1,0,51.5150512,-0.0931264
Saint Mary Aldermanbury's Garden,"London, United Kingdom",0,0,0,0,0,0,0,0,0,1,0,0,51.5074456,-0.1277653
Embody Fitness,"1 Bartholomew Lane, London, United Kingdom",0,0,0,0,0,0,1,0,0,0,0,0,51.5142869,-0.0875497
Hyde Park,"London, United Kingdom",1,0,0,0,0,0,0,0,0,1,0,0,51.5074456,-0.1277653
Wellington Club,"116A Knightsbridge, London, United Kingdom",0,1,1,1,1,0,0,0,0,0,0,0,51.5008444,-0.166965
Tobacco Dock,50 Porters Walk,0,0,0,0,0,0,0,1,0,0,0,0,52.9634181,-1.1211925
Savile Club,"69 Brook Street, London, United Kingdom",0,1,1,1,1,0,0,0,0,0,0,0,51.5123598,-0.1491275
Timothy Taylor Gallery,"15 Carlos Place, London, United Kingdom",0,0,0,0,0,0,0,1,0,0,0,0,51.5105351,-0.1498934
Molton House,"43 South Molton Street, London, United Kingdom",0,0,1,0,0,0,0,0,0,0,1,0,51.5140269,-0.1482622
Amika,"43 South Molton Street, London, United Kingdom",0,1,1,1,1,0,0,0,0,0,0,0,51.5140269,-0.1482622
Handel House Museum,"25 Brook Street, London, United Kingdom",0,0,0,0,0,0,0,0,1,0,0,0,51.5129421,-0.1458842
Hanover Square,"London, United Kingdom",0,0,0,0,0,0,0,0,0,1,0,0,51.5074456,-0.1277653
SUMARRIA LUNN GALLERY,"36 South Molton Lane, London, United Kingdom",0,0,0,0,0,0,0,1,0,0,0,0,51.5135552,-0.1481251
Jalouse,"17 Hanover Square, London, United Kingdom",0,1,1,1,1,0,0,0,0,0,0,0,51.5143359,-0.1447814
Trinity House Paintings,"50 Maddox Street, London, United Kingdom",0,0,0,0,0,0,0,1,0,0,0,0,51.5125464,-0.1438834
New Docklands Steam Club,"30A Stephenson Street, London, United Kingdom",0,0,0,0,0,0,0,0,0,0,0,0,51.5173513,0.0048039
Fitness First Carnaby Street,"59 Kingly Street, London, United Kingdom",0,0,0,0,0,0,1,0,0,0,0,0,51.5126623,-0.1393137
The Royal Institution of Great Britain,"21 Albemarle Street, London, United Kingdom",0,0,0,0,0,1,0,0,0,1,0,0,51.5097495,-0.1423309
Halcyon Gallery,"144-146 New Bond Street, London, United Kingdom",0,0,0,0,0,0,0,1,0,0,0,0,51.5114028,-0.1439363
Fitness First Berkeley Square,"Berkeley Square House, Berkeley Square, London, United Kingdom",0,0,0,0,0,0,1,0,0,0,0,0,51.5093701,-0.1443209
Richard Green,"147 New Bond Street, London, United Kingdom",0,0,0,0,0,0,0,1,0,0,0,0,51.5113207,-0.1438818
BISCHOFF/WEISS,"14A Hay Hill, London, United Kingdom",0,0,0,0,0,0,0,1,0,0,0,0,51.5090174,-0.1435907
David Aaron Ancient Arts,"22 Berkeley Square, London, United Kingdom",0,0,0,0,0,0,0,1,0,0,0,0,51.510164,-0.1467695
Hauser and Wirth,"196A Piccadilly, London, United Kingdom",0,0,0,0,0,0,0,1,0,0,0,0,51.509514,-0.1352735
The Cuckoo Club,"Swallow Street, London, United Kingdom",0,1,1,1,1,0,0,0,0,0,0,0,51.5092756,-0.1373353
Luxx,"3 New Burlington Street, London, United Kingdom",0,1,1,1,1,0,0,0,0,0,0,0,51.5118157,-0.1404088
Agnews Gallery,"35 Albemarle Street, London, United Kingdom",0,0,0,0,0,0,0,1,0,0,0,0,51.5088576,-0.1419948
James Hyman Gallery,"16 Savile Row, London, United Kingdom",0,0,0,0,0,0,0,1,0,0,0,0,51.5112028,-0.1404839
Morpheus Personal Training,"21 Piccadilly, London, United Kingdom",0,0,0,0,0,0,1,0,0,0,0,0,51.5094278,-0.1365993
Pace London,"6 Burlington Gardens, London, United Kingdom",0,0,0,0,0,1,0,1,0,0,0,0,51.5097509,-0.140158
Les Ambassadeurs Club,"5 Hamilton Place, London, United Kingdom",0,0,0,0,0,0,0,0,0,0,0,0,51.5045127,-0.150631
Simon Lee Gallery,"12 Berkeley Street, London, United Kingdom",0,0,0,0,0,0,0,1,0,0,0,0,51.508231,-0.1429222
The Mayfair Club,"49-50 Dover Street, London, United Kingdom",0,1,1,1,1,0,0,0,0,0,0,0,51.5084551,-0.1422263
New Churchill's Club,"Colette House, 52-55 Piccadilly, London, United Kingdom",0,1,1,1,1,0,0,0,0,0,0,0,51.5083226,-0.1397472
Tramp,"40 Jermyn Street, London, United Kingdom",0,1,1,1,1,0,0,0,0,0,1,0,51.5079027,-0.1382248
Low Members Club,"91 Jermyn Street, London, United Kingdom",0,1,1,1,1,0,0,0,0,0,0,0,51.5079027,-0.1382248
The Ritz Club,"150 Piccadilly, London, United Kingdom",0,1,1,1,1,0,0,0,0,0,0,0,51.5071911,-0.1414246
Malcolm Fairley Ltd,"40 Bury Street, London, United Kingdom",0,0,0,0,0,0,0,1,0,0,0,0,51.6342963,-0.0691099
Clarence House,"Little St James's Street, London, United Kingdom",0,0,0,0,0,1,0,0,0,1,0,0,51.5054649,-0.1390245
Marlborough House Gardens,"London, United Kingdom",0,0,0,0,0,1,0,0,0,1,0,0,51.5074456,-0.1277653
Science Museum IMAX,"Exhibition Road, South Kensington, London, United Kingdom",0,0,0,0,0,0,0,0,1,0,0,0,51.4979669,-0.1741756
Eqvvs Training,"43 Cheval Place, London, United Kingdom",0,0,0,0,0,0,1,0,0,0,0,0,51.4982523,-0.1672236
Walton Fine Arts,"152-154 Walton Street, London, United Kingdom",0,0,0,0,0,0,0,1,0,0,0,0,51.4946616,-0.1674419
Cine Lumiere,"17 Queensberry Place, London, United Kingdom",0,0,0,0,0,0,0,0,0,0,0,1,51.4945949,-0.1771003
Grosvenor Casino The Gloucester London,"4-18 Harrington Gardens, London, United Kingdom",0,1,0,0,0,0,0,0,0,0,0,0,51.493578,-0.1834979
Harrington Club,"17A Harrington Road, London, United Kingdom",0,1,1,1,1,0,0,0,0,0,0,0,51.4939877,-0.1757796
Dana Centre,"165 Queen's Gate, London, United Kingdom",0,0,0,0,0,0,0,0,1,0,0,0,51.497085,-0.1790377
LA Fitness - South Kensington,"63/81 Pelham Street, London, United Kingdom",0,0,0,0,0,0,1,0,0,0,0,0,51.4937821,-0.1701615
Michael Hoppen Gallery,"3 Jubilee Place, London, United Kingdom",0,0,0,0,0,0,0,1,0,0,0,0,51.4889954,-0.166032
Medici Gallery,"26 Thurloe Street, London, United Kingdom",0,0,0,0,0,0,0,1,0,0,0,0,51.4943891,-0.1736747
The Royal Mews,"Buckingham Palace, London, United Kingdom",0,0,0,0,0,1,0,0,1,1,0,0,51.5008349,-0.1430045
The Guards Museum,"Wellington Barracks, Birdcage Walk, London, United Kingdom",0,0,0,0,0,0,0,0,1,0,0,0,51.4999169,-0.1379975
Queen Mother Sports Centre,"223 Vauxhall Bridge Road, London, United Kingdom",0,0,0,0,0,0,1,0,0,0,0,0,51.4937008,-0.1405195
Burton Court,"Royal Hospital Chelsea, Royal Hospital Road, London, United Kingdom",1,0,0,0,0,0,0,0,0,1,0,0,51.4873839,-0.1573943
Light Centre Belgravia,"7-9 Eccleston Street, London, United Kingdom",0,0,0,0,0,0,1,0,0,0,0,0,51.4962599,-0.1506056
Dolphin Square Fitness Club,"Dolphin Square, Chichester Street, London, United Kingdom",0,0,0,0,0,0,1,0,0,0,0,0,51.486816,-0.1365129
Fitness First - Cardinal Place (Victoria),"20 Palace Street, London, United Kingdom",0,0,0,0,0,0,1,0,0,0,0,0,51.4980281,-0.1405601
Plus One Gallery,"89-91 Pimlico Road, London, United Kingdom",0,0,0,0,0,0,0,1,0,0,0,0,51.4900455,-0.1542506
Mauger Modern Art,"81 Rochester Row, London, United Kingdom",0,0,0,0,0,0,0,1,0,0,0,0,51.4932103,-0.1373883
The British Library,"96 Euston Road, London, United Kingdom",0,0,0,0,0,1,0,0,0,0,0,0,51.5299119,-0.1276918
Vincent Square,"London, United Kingdom",1,0,0,0,0,0,0,0,0,1,0,0,51.5074456,-0.1277653
White Room Fitness,"54B Ebury Street, London, United Kingdom",0,0,0,0,0,0,1,0,0,0,0,0,51.4954368,-0.1477955
Ebury Square Gardens,"London, United Kingdom",1,0,0,0,0,0,0,0,0,1,0,0,51.5074456,-0.1277653
Madame Jojo's,"8-10 Brewer Street, London, United Kingdom",0,1,1,1,1,0,0,0,0,0,0,0,51.512509,-0.133727
Moonlighting,"17 Greek Street, London, United Kingdom",0,1,1,1,1,0,0,0,0,0,0,0,51.514016,-0.1306764
Las Vagas,"89-91 Wardour Street, London, United Kingdom",0,1,1,1,1,0,0,0,0,0,0,0,51.5126831,-0.1335662
Nuffield Health Fitness & Wellbeing Centre,"9 Endell Street, London, United Kingdom",0,0,0,0,0,0,1,0,0,0,0,0,51.5139027,-0.1239129
Royal Military School of Music,"London, , United Kingdom",0,0,0,0,0,1,0,0,0,0,0,0,51.5074456,-0.1277653
Yotopia - Yoga Studio London,"13 Mercer Street, London, Covent Garden, London, United Kingdom",0,0,0,0,0,0,1,0,0,0,0,0,51.5129133,-0.1258721
Odeon Cinema Covent Garden,"135 Shaftesbury Avenue, London, United Kingdom",0,0,0,0,0,0,0,0,0,0,0,1,51.5142966,-0.1281837
Empire Cinemas Leicester Square,"5-6 Leicester Square, London, United Kingdom",0,0,0,0,0,0,0,0,0,0,0,1,51.5109335,-0.1304091
Odeon Cinema Leicester Square,"Leicester Square, 24-26 Leicester Square, London, United Kingdom",0,0,0,0,0,0,0,0,0,0,0,1,51.5105059,-0.1291015
Cineworld Shaftesbury Avenue,"13 Coventry Street, London, United Kingdom",0,0,0,0,0,0,0,0,0,0,0,1,51.5103311,-0.1329428
Odeon Cinema West End,"40 Leicester Square, London, United Kingdom",0,0,0,0,0,0,0,0,0,0,0,1,51.5104065,-0.1307342
The Casino At The Empire,"5-6 Leicester Square, London, United Kingdom",0,1,0,0,0,0,0,0,0,0,0,0,51.5109335,-0.1304091
ODEON Panton Street,"11 Panton Street, London, United Kingdom",0,0,0,0,0,0,0,0,0,0,0,1,51.5095663,-0.1312249
Ripley's Believe It or Not,"The London Pavillion, 1 Piccadilly Circus, London, United Kingdom",0,0,0,0,0,0,0,0,0,1,0,0,51.5102118,-0.1336568
Sound London,"1 Leicester Square Leicester Square , London, WC2H 7NA, London, United Kingdom",0,0,0,0,0,0,0,0,0,0,0,1,51.5108902,-0.1306549
Excellence Of London,"61 Regent Street, London, United Kingdom",0,0,0,0,0,0,0,0,0,1,0,0,51.5107168,-0.1385965
Equinox,"5-6 Leicester Square, London, United Kingdom",0,1,1,1,1,0,0,0,0,0,0,0,51.5109335,-0.1304091
Storm Nightclub,"28A Leicester Square, London, United Kingdom",0,1,1,1,1,0,0,0,0,0,0,0,51.5102834,-0.1291634
Fitness First The Strand,"6 Bedford Street, London, United Kingdom",0,0,0,0,0,0,1,0,0,0,0,0,51.5101196,-0.123983
3 Bedfordbury Gallery,"3 Bedfordbury, London, Covent Garden, United Kingdom",0,0,0,0,0,0,0,1,0,0,0,0,51.5099459,-0.1256832
Akasiro,"8 Little Newport Street, London Chinatown, London, United Kingdom",0,0,1,0,0,0,0,0,0,0,1,0,51.5117208,-0.1288288
Two Temple Place,"2 Temple Place, London, United Kingdom",0,0,0,0,0,1,0,0,0,1,0,0,51.5116444,-0.1121998
Inner Temple Gardens,"London, United Kingdom",1,0,0,0,0,0,0,0,0,1,0,0,51.5074456,-0.1277653
London Film Museum,"45 Wellington Street, London, United Kingdom",0,0,0,0,0,0,0,0,1,0,0,1,51.5124073,-0.1211269
British Optical Association Museum,"41-42 Craven Street, London, United Kingdom",0,0,0,0,0,0,0,0,1,0,0,0,51.5073336,-0.124581
LA fitness Waldorf,"The Waldorf Hilton Hotel London, London, United Kingdom",0,0,0,0,0,0,1,0,0,0,0,0,51.5127794,-0.1190501
Jubilee Hall Gym,"30 The Piazza, London, United Kingdom",0,0,0,0,0,0,1,0,0,0,0,0,51.419955,-0.2045878
Strand Gallery,"32 John Adam Street, City of London, United Kingdom",0,0,0,0,0,0,0,1,0,0,0,0,51.5093699,-0.122524
The Courtauld Institute of Art,"Somerset House, Strand, London, United Kingdom",0,0,0,0,0,0,0,1,0,0,0,0,51.5116948,-0.117442
Tutu's,"Macadam Building, Surrey Street, London, United Kingdom",0,0,1,0,0,0,0,0,0,0,1,0,51.5112525,-0.1153184
Fitness First Fetter Lane,"Fetter Lane, Fleet Street, United Kingdom",0,0,0,0,0,0,1,0,0,0,0,0,51.5141282,-0.1083896
National Liberal Club,"Whitehall Place, London, United Kingdom",0,0,0,0,0,1,0,0,0,1,0,0,51.5061916,-0.1245823
A Lounge,"66 Trafalgar Square, London, United Kingdom",0,1,1,1,1,0,0,0,0,0,0,0,51.5072749,-0.128886
The Household Cavalry Museum,"Horse Guards Avenue, London, United Kingdom",0,0,0,0,0,0,0,0,1,0,0,0,51.504814,-0.1241495
SEA LIFE London Aquarium,"County Hall, Westminster Bridge Road, London, United Kingdom",0,0,0,0,0,0,0,0,0,1,0,0,51.5019611,-0.1191968
Hayward Gallery,"Southbank Centre, Belvedere Road, London, United Kingdom",0,0,0,0,0,0,0,1,0,0,0,0,51.5057559,-0.1167902
Soho Gyms Waterloo,"11-15 Brad Street, Waterloo, United Kingdom",0,0,0,0,0,0,1,0,0,0,0,0,51.5038647,-0.1095356
Southbank Skatepark,"London, United Kingdom",0,0,0,0,0,0,1,0,0,0,0,0,51.5074456,-0.1277653
Waterloo Millennium Green,"Baylis Road, London, United Kingdom",1,0,0,0,0,0,0,0,0,1,0,0,51.5013724,-0.1105123
Bankside Gallery,"48 Hopton Street, London, United Kingdom",0,0,0,0,0,0,0,1,0,0,0,0,51.5081949,-0.1011464
Fitness First Queen Victoria Street,"95 Queen Victoria Street, London, United Kingdom",0,0,0,0,0,0,1,0,0,0,0,0,51.5117282,-0.0967078
Festival Gardens,"London, United Kingdom",1,0,0,0,0,0,0,0,0,1,0,0,51.5074456,-0.1277653
Bank of England Museum,"Threadneedle Street, London, United Kingdom",0,0,0,0,0,1,0,0,1,0,0,0,51.5141506,-0.0858606
Fitness First Gracechurch Street,"55 Gracechurch Street, London, United Kingdom",0,0,0,0,0,0,1,0,0,0,0,0,51.5112486,-0.0851236
Fitness First Monument,"Swan Lane, London, United Kingdom",0,0,0,0,0,0,1,0,0,0,0,0,51.5094074,-0.0884508
City Salsa,"24 Cornhill, London, Bank, United Kingdom",0,1,0,1,1,0,1,0,0,0,0,0,51.5132004,-0.0871776
London Fire Brigade Museum,"94a, Southwark Bridge Road, London, United Kingdom",0,0,0,0,0,0,0,0,1,0,0,0,51.5049716,-0.0956241
CrossFit Central London,"57 Ewer Street, London, United Kingdom",0,0,0,0,0,0,1,0,0,0,0,0,51.5040586,-0.0993404
Kirkaldy Testing Museum,"99 Southwark Street, London, United Kingdom",0,0,0,0,0,0,0,0,1,0,0,0,51.5060046,-0.1015795
Colombo Centre,"34-68 Colombo Street, London, United Kingdom",0,0,0,0,0,0,1,0,0,0,0,0,51.5056471,-0.1051462
Fitness4less Southwark,"23-29 Great Suffolk St, London, United Kingdom",0,0,0,0,0,0,1,0,0,0,0,0,51.5051846,-0.1012575
Ceri Hand Gallery,"6 Copperfield Street, London, United Kingdom",0,0,0,0,0,0,0,1,0,0,0,0,51.5031194,-0.0973274
The Clink Prison Museum,"1 Clink Street, London, United Kingdom",0,0,0,0,0,0,0,0,1,0,0,0,51.5070846,-0.0923618
Exilio Club,"37 Cavendish Square, London, United Kingdom",0,1,1,1,1,0,0,0,0,0,0,0,51.5160932,-0.1436156
Red Cross Garden,"London, United Kingdom",1,0,0,0,0,0,0,0,0,1,0,0,51.5074456,-0.1277653
Florence Nightingale Museum,"2 Lambeth Palace Road, London, United Kingdom",0,0,0,0,0,0,0,0,1,0,0,0,51.4965192,-0.1201082
Paris Gymnasium,"73 Goding Street, London, United Kingdom",0,0,0,0,0,0,1,0,0,0,0,0,51.487563,-0.122773
Hidden,"100 Tinworth Street, Vauxhall, London, United Kingdom",0,1,1,1,1,0,0,0,0,0,0,0,51.4896283,-0.1211268
Archbishop's Park,"London, United Kingdom",1,0,0,0,0,0,0,0,0,1,0,0,51.5074456,-0.1277653
Millbank Gardens,"London, United Kingdom",1,0,0,0,0,0,0,0,0,1,0,0,51.5074456,-0.1277653
Fashion and Textile Museum,"83 Bermondsey Street, London, United Kingdom",0,0,0,0,0,0,0,0,1,0,0,0,51.5011883,-0.0816655
Newington Gardens,"London, United Kingdom",1,0,0,0,0,0,0,0,0,1,0,0,51.5074456,-0.1277653
London Glassblowing,"62-66 Bermondsey Street, London, United Kingdom",0,0,0,0,0,0,0,1,0,0,0,0,51.5016076,-0.0824064
Pasley Park,"London, United Kingdom",1,0,0,0,0,0,0,0,0,1,0,0,51.5074456,-0.1277653
Soho Gyms Personal Training Academy,"London, United Kingdom",0,0,0,0,0,0,1,0,0,0,0,0,51.5074456,-0.1277653
Dickens Fields,"London, United Kingdom",1,0,0,0,0,0,0,0,0,1,0,0,51.5074456,-0.1277653
Forty Hall Country Park,"Enfield, United Kingdom",1,0,0,0,0,0,0,0,0,1,0,0,51.6520851,-0.0810175
Island Fitness,"Island Centre Way, Enfield Island Village, Enfield, United Kingdom",0,0,0,0,0,0,1,0,0,0,0,0,51.6683355,-0.0166889
Cineworld Enfield,"Enfield, United Kingdom",0,0,0,0,0,0,0,0,0,0,0,1,51.6520851,-0.0810175
Albany Park,"Bell Lane, Enfield, United Kingdom",1,0,0,0,0,0,1,0,0,1,0,0,51.6666664,-0.0387059
Muscle Base Gym,"280 Alma Road, Enfield, United Kingdom",0,0,0,0,0,0,1,0,0,0,0,0,51.645359,-0.0348166
Soham Lane Open Space,"Enfield, United Kingdom",1,0,0,0,0,0,0,0,0,1,0,0,51.6520851,-0.0810175
Pymmes Park,"Victoria Road, London, United Kingdom",1,0,0,0,0,0,0,0,0,1,0,0,51.5475442,0.1598273
Edmonton Leisure Centre,"2 The Broadway, London, United Kingdom",0,0,0,0,0,0,1,0,0,0,0,0,51.5989029,-0.333455
Pegasus Military Fitness,"89 New Road, London, Chingford, United Kingdom",0,0,0,0,0,0,1,0,0,0,0,0,51.6171584,-0.011727
Tottenham Marshes,"Watermead Way, London, United Kingdom",1,0,0,0,0,0,0,0,0,1,0,0,51.6022047,-0.049675
Tottenham Green,"London, United Kingdom",1,0,0,0,0,0,0,0,0,1,0,0,51.5074456,-0.1277653
Images in Frames,"59 Wood Street, United Kingdom",0,0,0,0,0,0,0,1,0,0,0,0,51.5893547,-0.0040236
E4 Fitness & Leisure,"14 Hickman Avenue, London, United Kingdom",0,0,0,0,0,0,1,0,0,0,0,0,51.6099725,-0.0039175
Artisan Fine Art - South Woodford Gallery,"155 High Rd, London, South Woodford, United Kingdom",0,0,0,0,0,0,0,1,0,0,0,0,51.596801,0.0213176
Repton Park,"London, United Kingdom",1,0,0,0,0,0,0,0,0,1,0,0,51.5074456,-0.1277653
Fairlop Waters Country Park,"Ilford, United Kingdom",1,0,0,0,0,0,0,0,0,1,0,0,51.5582734,0.0711669
Synergy Fitness Gym,"Lake Forest House, Forest Road, Barkingside, United Kingdom",0,0,0,0,0,0,1,0,0,0,0,0,51.5983396,0.100796
Clayhall Park,"Ilford, United Kingdom",1,0,0,0,0,0,1,0,0,1,0,0,51.5582734,0.0711669
The Woodford Wells Club Cricket Pitches,United Kingdom,0,0,0,0,0,0,1,0,0,0,0,0,54.7023545,-3.2765753
Repton Park Cricket Ground,United Kingdom,0,0,0,0,0,0,1,0,0,0,0,0,54.7023545,-3.2765753
Bedford's Park,United Kingdom,1,0,0,0,0,0,0,0,0,1,0,0,54.7023545,-3.2765753
Laser Strike - Laser Combat,"27 Old Gloucester Street, London, United Kingdom",0,0,0,0,0,0,0,0,0,0,0,0,51.5206435,-0.1222441
Bedford's Park Visitor Centre,United Kingdom,1,0,0,0,0,0,0,0,0,1,0,0,54.7023545,-3.2765753
Rise Park,"Beauly Way, Romford, United Kingdom",1,0,0,0,0,0,0,0,0,1,0,0,51.5946309,0.1858538
Dagnam Park,United Kingdom,1,0,0,0,0,0,0,0,0,1,0,0,54.7023545,-3.2765753
Leyton Marshes,"London, United Kingdom",1,0,0,0,0,0,0,0,0,1,0,0,51.5074456,-0.1277653
Sunstone Women Ltd,"Northwold Road, London, United Kingdom",0,0,0,0,0,0,1,0,0,0,0,0,51.5628035,-0.0623809
Fit in Fitness,"12C Heyworth Road, London, Hackney, United Kingdom",0,0,0,0,0,0,1,0,0,0,0,0,51.5564511,-0.0578443
The Depot,"38 Upper Clapton Road, London, United Kingdom",0,0,1,0,0,0,0,1,0,0,1,0,51.5596174,-0.0560356
KO Bloodline Gym,"152-156 Lower Clapton Road, United Kingdom",0,0,0,0,0,0,1,0,0,0,0,0,51.5534719,-0.0533777
Hackney Picturehouse,"270 Mare Street, London, United Kingdom",0,0,0,0,0,0,0,0,0,0,0,1,51.5448145,-0.0549532
Kinetica Museum Ltd,"274 Richmond Road, London, United Kingdom",0,0,0,0,0,0,0,0,1,0,0,0,51.5428015,-0.0579088
Stonebridge Gardens,"London, United Kingdom",1,0,0,0,0,0,0,0,0,1,0,0,51.5074456,-0.1277653
Other Cafe and Gallery,"48 Balls Pond Road, London, United Kingdom",0,0,1,0,0,0,0,1,0,0,1,0,51.5463491,-0.078015
Personal Training by Futureproof Fitness,"148-150 Mare Street, London, United Kingdom",0,0,0,0,0,0,1,0,0,0,0,0,51.5395799,-0.0558377
Momentum Training - CrossFit Hackney,"328 Stean Street, Hackney, United Kingdom",0,0,0,0,0,0,1,0,0,0,0,0,51.5375387,-0.0751422
Titan Fitness Centre,"164 Mare Street, London, United Kingdom",0,0,0,0,0,0,1,0,0,0,0,0,51.5404555,-0.0552383
Wanstead Flats,"Epping Forest, London, United Kingdom",1,0,0,0,0,0,0,0,0,1,0,0,51.6676884,0.0548011
The Wallis Gallery,"Wallis Road, London, United Kingdom",0,0,0,0,0,0,0,1,0,0,0,0,51.5188569,-0.3629542
Wick Woodland,"London, United Kingdom",1,0,0,0,0,0,0,0,0,1,0,0,51.5074456,-0.1277653
Odessa Road Open Space,"London, United Kingdom",1,0,0,0,0,0,1,0,0,1,0,0,51.5074456,-0.1277653
Valentines Park,"Ilford, United Kingdom",1,0,0,0,0,0,0,0,0,1,0,0,51.5582734,0.0711669
Wanstead Leisure Centre,"Redbridge La West, Wanstead, London, United Kingdom",0,0,0,0,0,0,1,0,0,0,0,0,51.5760029,0.0400281
Apples Health Clubs,"728-730 Eastern Avenue, Ilford, United Kingdom",0,0,0,0,0,0,1,0,0,0,0,0,51.5758823,0.0418149
Seven Kings Park Bandstand,"Ilford, United Kingdom",1,0,0,0,0,0,0,0,0,1,0,0,51.5582734,0.0711669
Plashet Park,"London, United Kingdom",1,0,0,0,0,0,0,0,0,1,0,0,51.5074456,-0.1277653
Redbridge Central Library and Museum,"Clements Road, London, United Kingdom",0,0,0,0,0,0,0,0,1,0,0,0,51.4951109,-0.0640082
EasyGym,"Winston Way, Ilford, United Kingdom",0,0,0,0,0,0,1,0,0,0,0,0,51.5575864,0.0752177
Hathaway Crescent Park,"London, United Kingdom",1,0,0,0,0,0,0,0,0,1,0,0,51.5074456,-0.1277653
Goodmayes Park,"Aberdour Road, London, United Kingdom",1,0,0,0,0,0,1,0,0,1,0,0,51.5600828,0.1131613
Mayesbrook Park,"London, United Kingdom",1,0,0,0,0,0,0,0,0,1,0,0,51.5074456,-0.1277653
ANDOR Bureau,"3 Mare Street, London, United Kingdom",0,0,1,0,0,0,0,0,0,0,0,0,51.5367132,-0.0570001
City Cruises,"Westminster Pier,London,SW1A 2JR, United Kingdom",0,0,0,0,0,0,0,0,0,1,0,0,51.5016208,-0.1239008
Toby Ruddock Museum,"53 Voss Street, London, United Kingdom",0,0,0,0,0,0,0,0,1,0,0,0,51.5262862,-0.06342
The Graffiti Life Gallery,"26 Cheshire Street, London, United Kingdom",0,0,0,0,0,0,0,0,1,0,0,0,51.5236464,-0.0686236
19 Princelet Street,"19 Princelet Street, London, United Kingdom",0,0,0,0,0,1,0,0,1,0,0,0,51.5198458,-0.0724859
Raven Row,"56 Artillery Lane, London, United Kingdom",0,0,0,0,0,0,0,1,0,0,0,0,51.5181295,-0.0768184
Whitechapel Gallery,"77-82 Whitechapel High Street, London, United Kingdom",0,0,0,0,0,0,0,1,0,0,0,0,51.5161717,-0.0703132
Townhouse,"5 Fournier Street, London, United Kingdom",0,0,1,0,0,1,0,1,0,0,0,0,51.5193499,-0.0739948
Gallery S O,"92 Brick Lane, London, United Kingdom",0,0,0,0,0,0,0,1,0,0,0,0,51.519467,-0.0716252
Elder Gardens,"Lamb Street, London, United Kingdom",1,0,0,0,0,0,0,0,0,1,0,0,51.5202144,-0.0752474
4th Floor Studios,"255-259 Commercial Road, London, United Kingdom",0,0,0,1,0,0,0,0,0,0,0,0,51.5147821,-0.0575734
Qmotion,"432 Bancroft Road, London, United Kingdom",0,0,0,0,0,0,1,0,0,0,0,0,51.5252596,-0.0443241
Trafalgar Gardens Court,"Trafalgar Gardens, London, United Kingdom",1,0,0,0,0,0,1,0,0,1,0,0,51.519413,-0.0428741
Memorial Recreation Ground,"London, United Kingdom",1,0,0,0,0,0,1,0,0,1,0,0,51.5074456,-0.1277653
Peacock Gymnasium,"Caxton Street North, London, United Kingdom",0,0,0,0,0,0,1,0,0,0,0,0,51.5098004,0.0130485
Hermit Road Recreation Ground,"London, United Kingdom",1,0,0,0,0,0,0,0,0,1,0,0,51.5074456,-0.1277653
Malmesbury Road Park,"London, United Kingdom",1,0,0,0,0,0,0,0,0,1,0,0,51.5074456,-0.1277653
St Georges Swimming Pool,"221 The Highway, London, United Kingdom",0,0,0,0,0,0,1,0,0,0,0,0,51.5097572,-0.0476985
37 Degrees,"2b More London Place, London, United Kingdom",0,0,0,0,0,0,1,0,0,0,0,0,51.5049541,-0.0820657
Fit4Less Low cost Health Club,"90 Mansell Street, London, United Kingdom",0,0,0,0,0,0,1,0,0,0,0,0,51.5119639,-0.0732609
Fitness First London Bridge (Cottons),"Tooley Street, London, United Kingdom",0,0,0,0,0,0,1,0,0,0,0,0,51.5036951,-0.0807272
Fitness First Fenchurch Street,"106 Fenchurch Street, London, United Kingdom",0,0,0,0,0,0,1,0,0,0,0,0,51.5127141,-0.078871
Saint Dunstan in the East Church Garden,"London, United Kingdom",1,0,0,0,0,0,0,0,0,1,0,0,51.5074456,-0.1277653
Miami Health Club Ltd,"208-210 Old Kent Road, London, United Kingdom",0,0,0,0,0,0,1,0,0,0,0,0,51.4914553,-0.0821603
Millwall Football Club,"Verney Road, Bermondsey ,London England., United Kingdom",0,0,0,0,0,0,1,0,0,0,0,0,51.4857858,-0.056357
U.C.I. Surrey Quay,"London, United Kingdom",0,0,0,0,0,0,0,0,0,0,0,1,51.5074456,-0.1277653
Odeon Cinema Greenwich,"Bugsby Way, London, United Kingdom",0,0,0,0,0,0,0,0,0,0,0,1,51.4899135,0.0256778
Reebok CrossFit Thames,"Cannon Drive, London, United Kingdom",0,0,0,0,0,0,1,0,0,0,0,0,51.507741,-0.026421
Canary Wharf Health Club,"1 Cabot Square, London, United Kingdom",0,0,0,0,0,0,1,0,0,0,0,0,51.5058639,-0.0235994
The O2 Bubble,"The O2, London, United Kingdom",0,0,0,1,0,0,1,0,0,1,0,0,51.5029366,0.0032029
Personal Training by D.Leigh,"80 Trafalgar Road, London, Greenwich, United Kingdom",0,0,0,0,0,0,1,0,0,0,0,0,51.4837374,0.000303
Newham Leisure Centre,"281 Prince Regent Lane, London, United Kingdom",0,0,0,0,0,0,1,0,0,0,0,0,51.5192375,0.0365077
Skating Haven (Roller Skating London),"Newham Leisure Centre, 281 Prince Regent Lane, London, Plaistow,Newham, United Kingdom",0,0,0,0,0,0,1,0,0,0,0,0,51.5192375,0.0365077
Club M M Bar,"151-153 Barking Road, London, United Kingdom",0,1,1,1,1,0,0,0,0,0,0,0,51.5179355,0.0125522
Beckton District Park,"London, United Kingdom",1,0,0,0,0,0,0,0,0,1,0,0,51.5074456,-0.1277653
Brampton Park,"London, United Kingdom",1,0,0,0,0,0,0,0,0,1,0,0,51.5074456,-0.1277653
Greatfields Park,"Barking, United Kingdom",1,0,0,0,0,0,0,0,0,1,0,0,51.5402677,0.0793235
FitSpace Gyms,"1 Macbean Street, London, United Kingdom",0,0,0,0,0,0,1,0,0,0,0,0,51.4927025,0.0667449
Maryon Park,"London, United Kingdom",1,0,0,0,0,0,0,0,0,1,0,0,51.5074456,-0.1277653
Maryon Wilson Animal Park,"Flamsteed Road, London, United Kingdom",1,0,0,0,0,0,0,0,0,1,0,0,51.4841483,0.0463875
SportsDock,"University Of East London, 4-6 University Way, London, United Kingdom",0,0,0,0,0,0,1,0,0,0,0,0,51.5079329,0.0642154
Vue Dagenham,"Dagenham Leisure Park, Cook Rd, Dagenham, United Kingdom",0,0,0,0,0,0,0,0,0,0,0,1,51.5317264,0.1339053
Golds Gym,"Sterling Industrial Estate, Rainham Road South, Dagenham, United Kingdom",0,0,0,0,0,0,1,0,0,0,0,0,51.5490138,0.1590657
Parsloes Park,"London, United Kingdom",1,0,0,0,0,0,0,0,0,1,0,0,51.5074456,-0.1277653
Hornchurch Sport Centre,"Harrow Lodge Park, Hornchurch Road, Hornchurch, United Kingdom",0,0,0,0,0,0,1,0,0,0,0,0,51.564094,0.206468
Pondfield Park,United Kingdom,1,0,0,0,0,0,0,0,0,1,0,0,54.7023545,-3.2765753
Hornchurch Country Park,United Kingdom,1,0,0,0,0,0,0,0,0,1,0,0,54.7023545,-3.2765753
West Ham United Training Ground,"London, United Kingdom",0,0,0,0,0,0,1,0,0,0,0,0,51.5074456,-0.1277653
Jutsums Park,"Romford, United Kingdom",1,0,0,0,0,0,0,0,0,1,0,0,51.5760462,0.1822646
Southmere Park,"London, United Kingdom",1,0,0,0,0,0,0,0,0,1,0,0,51.5074456,-0.1277653
Bedfont Lakes Country Park,United Kingdom,1,0,0,0,0,0,0,0,0,1,0,0,54.7023545,-3.2765753
Cineworld Feltham,United Kingdom,0,0,0,0,0,0,0,0,0,0,0,1,54.7023545,-3.2765753
Hanworth Park,United Kingdom,1,0,0,0,0,0,0,0,0,1,0,0,54.7023545,-3.2765753
Beaversfield Park,"Hounslow, United Kingdom",1,0,0,0,0,0,0,0,0,1,0,0,51.4686132,-0.3613471
Driscoll Fitness,"Northumberland Crescent, Bedfont, United Kingdom",0,0,0,0,0,0,1,0,0,0,0,0,51.4552657,-0.4293223
Sports Ground,"Hounslow, United Kingdom",0,0,0,0,0,0,1,0,0,0,0,0,51.4686132,-0.3613471
Rugby Football Union Twickenham,"200 Whitton Road, Twickenham, United Kingdom",0,0,0,0,0,0,1,0,0,0,0,0,51.4560051,-0.3415047
The Gym,"The Blenheim Centre, Prince Regent Rd, Hounslow, United Kingdom",0,0,0,0,0,0,1,0,0,0,0,0,51.4707041,-0.3629581
Thornbury Park,"Marbaix Gardens, Isleworth, United Kingdom",1,0,0,0,0,0,0,0,0,1,0,0,51.4798229,-0.3474173
Bikram Yoga Richmond,"7-9 Church Walk, Richmond, United Kingdom",0,0,0,0,0,0,1,0,0,0,0,0,51.4744678,-0.2437094
Aquarius Spa,"Pools On The Park, Twickenham Road, Richmond, United Kingdom",0,0,0,0,0,0,0,0,0,0,0,0,51.4652955,-0.3059429
Redlees Park,United Kingdom,1,0,0,0,0,0,0,0,0,1,0,0,54.7023545,-3.2765753
Bodyvie Ltd,"133-135 Kew Road, Richmond, United Kingdom",0,0,0,0,0,0,0,0,0,0,0,0,51.4666238,-0.2973646
Your GYM,"Water Lane, Richmond, United Kingdom",0,0,0,0,0,0,1,0,0,0,0,0,51.4462659,-0.3277516
Pleasure Gardens,United Kingdom,1,0,0,0,0,0,0,0,0,1,0,0,54.7023545,-3.2765753
Lovers Lights Gallery,"64 The Green, Twickenham, United Kingdom",0,0,0,0,0,0,0,1,0,0,0,0,51.4444299,-0.3424338
Herbal Lee,"384 Richmond Road, Twickenham, United Kingdom",0,0,0,0,0,0,0,0,0,0,0,0,51.4555345,-0.3099414
Moormead Ground,United Kingdom,1,0,0,0,0,0,0,0,0,1,0,0,54.7023545,-3.2765753
Design Fitness Personal Training,"16A London Road, Twickenham, United Kingdom",0,0,0,0,0,0,1,0,0,0,0,0,51.4474137,-0.3282644
Bushy Park,"London, United Kingdom",1,0,0,0,0,0,0,0,0,1,0,0,51.5074456,-0.1277653
Hampton Court Park (Home Park),United Kingdom,1,0,0,0,0,0,0,0,0,1,0,0,54.7023545,-3.2765753
Odeon IMAX Cinema Kingston,"The Rotunda, Clarence Street, Kingston upon Thames, United Kingdom",0,0,0,0,0,0,0,0,0,0,0,1,51.4115293,-0.2992923
GetBodyFit,"The Rotunda, Clarence Street, Kingston upon Thames, United Kingdom",0,0,0,0,0,0,1,0,0,0,0,0,51.4115293,-0.2992923
LemonBody,"40 Hook Road, London, Surbiton, United Kingdom",0,0,0,0,0,0,1,0,0,0,0,0,51.3813734,-0.3012295
Fishponds Open Space,United Kingdom,1,0,0,0,0,0,0,0,0,1,0,0,54.7023545,-3.2765753
Riverside Gallery,"36 Barnes High Street, London, United Kingdom",0,0,0,0,0,0,0,1,0,0,0,0,51.4734094,-0.2513179
Barnes Squash Club,"251-261 Lonsdale Road, London, Barnes, United Kingdom",0,0,0,0,0,0,1,0,0,0,0,0,51.4862039,-0.23835
iSpa,"319 Upper Richmond Road West, London, United Kingdom",0,0,0,0,0,0,0,0,0,0,0,0,51.4647755,-0.2642059
Watney's Sports Ground,"London, United Kingdom",0,0,0,0,0,0,1,0,0,0,0,0,51.5074456,-0.1277653
Fulham Football Club,"Craven Cottage, Stevenage Road, London, United Kingdom",0,0,0,0,0,0,1,0,0,0,0,0,51.4749218,-0.2217448
Lillie Road Fitness Centre,"Lillie Road, London, United Kingdom",0,0,0,0,0,0,1,0,0,0,0,0,51.4852784,-0.2028919
Fulham Fitness Studio | empowered by PTbyPT,"365 Fulham Palace Road, London, Fulham,, United Kingdom",0,0,0,0,0,0,1,0,0,0,0,0,51.4860987,-0.2205082
Gina Conway,"612 Fulham Road, London, United Kingdom",0,0,0,0,0,0,0,0,0,0,0,0,51.4918068,-0.1718281
Gagliardi Gallery,"509 King's Road, London, United Kingdom",0,0,0,0,0,0,0,1,0,0,0,0,51.4807417,-0.183945
Piers Feetham Gallery,"475 Fulham Road, London, United Kingdom",0,0,0,0,0,0,0,1,0,0,0,0,51.4802311,-0.1889529
Eden Beauty Spa,"641A Fulham Road, London, United Kingdom",0,0,0,0,0,0,0,0,0,0,0,0,51.4918068,-0.1718281
Spa Clinique,"580 Fulham Road, London, United Kingdom",0,0,0,0,0,0,0,0,0,0,0,0,51.477931,-0.2013945
EDEN SPA,"252-258 North End Road, London, United Kingdom",0,0,0,0,0,0,0,0,0,0,0,0,51.5612485,-0.2768507
ODEON Cinema Putney,"26 Putney High Street, London, United Kingdom",0,0,0,0,0,0,0,0,0,0,0,1,51.4654622,-0.2146383
Virgin Active - Putney,"154-160 Upper Richmond Road, London, United Kingdom",0,0,0,0,0,0,1,0,0,0,0,0,51.4567083,-0.2034504
Physical Culture Gymnasium,"Winthorpe Road, London, United Kingdom",0,0,0,0,0,0,1,0,0,0,0,0,51.4616873,-0.2106188
The Token Yard Club Ltd,"56 Putney High Street, London, United Kingdom",0,0,0,0,0,0,1,0,0,0,0,0,51.4636435,-0.2156345
Amara Spa,"18-20 Fulham High Street, London, United Kingdom",0,0,0,0,0,0,0,0,0,0,0,0,51.4702319,-0.2104569
massage parlor,"52 Fulham High Street, London, Fulham, United Kingdom",0,0,0,0,0,0,0,0,0,0,0,0,51.4702319,-0.2104569
Richmond Park,"Richmond, United Kingdom",1,0,0,0,0,0,0,0,0,1,0,0,51.4405529,-0.3076394
Roehampton Sport & Fitness Centre,"Laverstoke Gardens, London, United Kingdom",0,0,0,0,0,0,1,0,0,0,0,0,51.4495823,-0.2438933
Kitevibe,"Roehampton Gate, Richmond Park, Richmond, United Kingdom",1,0,0,0,0,0,0,0,0,1,0,0,51.4527114,-0.2553944
Christophers Squash & Fitness,"Plough Lane, London, United Kingdom",0,0,0,0,0,0,1,0,0,0,0,0,51.4276219,-0.1905025
The Grove Spa,"119 Revelstoke Road, London, United Kingdom",0,0,0,0,0,0,0,0,0,0,0,0,51.4391006,-0.2025822
BSA Snowboarding,"London, United Kingdom",0,0,0,0,0,0,1,0,0,0,0,0,51.5074456,-0.1277653
Putney Heath,"London, United Kingdom",1,0,0,0,0,0,0,0,0,1,0,0,51.5074456,-0.1277653
Carlyle's House,"24 Cheyne Row, Chelsea, United Kingdom",0,0,0,0,0,1,0,0,0,1,0,0,51.4841197,-0.1697883
Virgin Active - Chelsea,"188A Fulham Road, London, United Kingdom",0,0,0,0,0,0,1,0,0,0,0,0,51.4863633,-0.181019
English Gardening School,"66 Royal Hospital Road, London, United Kingdom",1,0,0,0,0,0,0,0,0,1,0,0,51.4845701,-0.1622617
Johnson Picture Framing & Galleries,"56 Battersea Bridge Road, London, United Kingdom",0,0,0,0,0,0,0,1,0,0,0,0,51.4785721,-0.1703076
Chelsea Fine Arts,"Chelsea Wharf, 15 Lots Rd, London, United Kingdom",0,0,0,0,0,0,0,1,0,0,0,0,51.4792113,-0.178686
Fitness First Clapham Junction Station,"34 Saint John's Hill, London, United Kingdom",0,0,0,0,0,0,1,0,0,0,0,0,51.4616436,-0.1735545
Fitness First Clapham,"Asda, 204 Lavender Hill, London, United Kingdom",0,0,0,0,0,0,1,0,0,0,0,0,51.4654975,-0.1649226
Indulgence Health and Beauty,"110 Plough Road, Clapham Junction, London, Battersea, United Kingdom",0,0,0,0,0,0,0,0,0,0,0,0,51.4631366,-0.1761172
Regent House Gallery,"223 Saint John's Hill, London, United Kingdom",0,0,0,0,0,0,0,1,0,0,0,0,51.4596361,-0.1791915
Fybre Fitness Hub,"25 Northcote Road, London, United Kingdom",0,0,0,0,0,0,1,0,0,0,0,0,51.427995,0.0882741
Results By Design Personal Training,"292 Battersea Park Road, London, United Kingdom",0,0,0,0,0,0,1,0,0,0,0,0,51.4716089,-0.1679061
Kalyana Spa,"54 Battersea Rise, London, United Kingdom",0,0,0,0,0,0,0,0,0,0,0,0,51.4609721,-0.1656296
Clapham Common,"Windmill Drive, London, United Kingdom",0,0,0,0,0,0,0,0,0,1,0,0,51.5623398,-0.2105805
Soho Gyms Clapham Common,"95-97 Clapham High Street, London, United Kingdom",0,0,0,0,0,0,1,0,0,0,0,0,51.462724,-0.1338614
Inigo,"642 Wandsworth Road, London, United Kingdom",0,0,1,0,0,0,0,0,0,0,0,0,51.4665103,-0.1499342
Pond Gallery,"26 The Pavement, London, United Kingdom",0,0,0,0,0,0,0,1,0,0,0,0,51.4624095,-0.1402328
Clapham Common Skatepark,"Rookery Road, United Kingdom",0,0,0,0,0,0,1,0,0,0,0,0,51.460341,-0.1424229
Grafton Square,"London, United Kingdom",1,0,0,0,0,0,0,0,0,1,0,0,51.5074456,-0.1277653
The Shaftesbury Club,"128 Lavender Hill, London, United Kingdom",0,1,1,1,1,0,0,0,0,0,0,0,51.6639277,-0.0946783
Heathbrook Park,"London, United Kingdom",1,0,0,0,0,0,0,0,0,1,0,0,51.5074456,-0.1277653
Gasworks Gallery,"London, United Kingdom",0,0,0,0,0,0,0,1,0,0,0,0,51.5074456,-0.1277653
PureGym London Oval,"Unit 4-5, Canterbury Court, London, United Kingdom",0,0,0,0,0,0,1,0,0,0,0,0,51.4328808,0.0208754
Horizons Leisure club,"100 Liberty Street, London, United Kingdom",0,0,0,0,0,0,1,0,0,0,0,0,51.4763059,-0.1165695
The Gym Stockwell,"15 Lett Road, Stockwell, London, United Kingdom",0,0,0,0,0,0,1,0,0,0,0,0,51.4764349,-0.1171642
Pasha Spa,"158 Camberwell Road, London, United Kingdom",0,0,0,0,0,0,0,0,0,0,0,0,51.4795106,-0.0943965
Sceaux Gardens,"London, United Kingdom",1,0,0,0,0,0,0,0,0,1,0,0,51.5074456,-0.1277653
Stockwell Skatepark,"Lambeth, United Kingdom",0,0,0,0,0,0,1,0,0,0,0,0,51.4952111,-0.1163354
Knight Webb Gallery,"54 Atlantic Road, London, United Kingdom",0,0,0,0,0,0,0,1,0,0,0,0,51.4624303,-0.1126385
Fitness First - Balham,"London, United Kingdom",0,0,0,0,0,0,1,0,0,0,0,0,51.5074456,-0.1277653
Virgin Active - Streatham,"20 Ockley Road, London, United Kingdom",0,0,0,0,0,0,1,0,0,0,0,0,51.4328685,-0.1297903
London Sewing Machine Museum,"308-312 Balham High Road, London, United Kingdom",0,0,0,0,0,0,0,0,1,0,0,0,51.4459034,-0.1501385
Palace Road Nature Garden,"London, United Kingdom",1,0,0,0,0,0,0,0,0,1,0,0,51.5074456,-0.1277653
World of Golf at Beverley Park,"Beverley Wy, New Malden, United Kingdom",1,0,0,0,0,0,1,0,0,1,0,0,51.4115248,-0.2482728
Civil Service Recreation Ground,"London, United Kingdom",1,0,0,0,0,0,1,0,0,1,0,0,51.5074456,-0.1277653
Revolution Lifestyles Personal Training,"London, United Kingdom",0,0,0,0,0,0,1,0,0,0,0,0,51.5074456,-0.1277653
Canvas Wimbledon,"38a High Street, Wimbledon Village, London, United Kingdom",0,0,0,0,0,0,1,0,0,0,0,0,51.4254654,-0.2204949
Morden Hall Park,"Morden Road, Morden, London, United Kingdom",1,0,0,0,0,0,0,0,0,1,0,0,51.4089702,-0.1931478
Cannon Hill Common,"Cannon Hill Lane, London, United Kingdom",1,0,0,0,0,0,0,0,0,1,0,0,51.4028094,-0.2153794
Moreton Green,United Kingdom,1,0,0,0,0,0,0,0,0,1,0,0,54.7023545,-3.2765753
Thomas Wall Park,United Kingdom,1,0,0,0,0,0,0,0,0,1,0,0,54.7023545,-3.2765753
Streatham Memorial Gardens,"London, United Kingdom",1,0,0,0,0,0,0,0,0,1,0,0,51.5074456,-0.1277653
Streatham Common,"London, United Kingdom",1,0,0,0,0,0,0,0,0,1,0,0,51.5074456,-0.1277653
Little Jannah Organic Hair & Beauty Spa,"532 Streatham High Road, London, United Kingdom",0,0,0,0,0,0,0,0,0,0,0,0,51.4175758,-0.1267534
Pollards Hill,"London, United Kingdom",1,0,0,0,0,0,0,0,0,1,0,0,51.5074456,-0.1277653
Watermead Country Park,"Wanlip Road, United Kingdom",1,0,0,0,0,0,1,0,0,1,0,0,51.5226712,0.0288372
Ravensbury Park,United Kingdom,1,0,0,0,0,0,1,0,0,1,0,0,54.7023545,-3.2765753
Pearl Escapes,"338 London Rd, Mitcham, United Kingdom",0,0,0,0,1,0,1,0,0,0,0,0,51.402045,-0.1679666
King George's Field,"London, United Kingdom",1,0,0,0,0,0,0,0,0,1,0,0,51.5074456,-0.1277653
Cheam Leisure Centre,"Sutton, United Kingdom",0,0,0,0,0,0,1,0,0,0,0,0,51.3574644,-0.1736269
Go Gym Ltd,"6 Sutton Park Road, Sutton, United Kingdom",0,0,0,0,0,0,1,0,0,0,0,0,51.3603709,-0.1946584
Honeywood Museum,United Kingdom,0,0,0,0,0,0,0,0,1,0,0,0,54.7023545,-3.2765753
Pinks Gym,"9-11 High St, Carshalton, United Kingdom",0,0,0,0,0,0,1,0,0,0,0,0,51.3601203,-0.1918314
Sutton Ecology Centre,United Kingdom,1,0,0,0,0,0,0,0,0,1,0,0,54.7023545,-3.2765753
Duppas Hill,"Duppas Hill Road, Croydon, United Kingdom",1,0,0,0,0,0,0,0,0,1,0,0,51.3679709,-0.1155626
Solutions Health & Fitness,"1 Lansdowne Road, Croydon, United Kingdom",0,0,0,0,0,0,1,0,0,0,0,0,51.3352132,-0.1191461
LA fitness Croydon,"33 Imperial Way, Croydon, United Kingdom",0,0,0,0,0,0,1,0,0,0,0,0,51.3559708,-0.1193542
Croydon Muscle & Fitness Gym,"47 Tamworth Rd, Croydon, London, United Kingdom",0,0,0,0,0,0,1,0,0,0,0,0,51.3744047,-0.1057958
Riddlesdown,United Kingdom,1,0,0,0,0,0,0,0,0,1,0,0,54.7023545,-3.2765753
Coulsdon Common,United Kingdom,1,0,0,0,0,0,0,0,0,1,0,0,54.7023545,-3.2765753
Peckham Pulse Healthy Living Centre,"10 Melon Road, London, United Kingdom",0,0,0,0,0,0,1,0,0,0,0,0,51.5576234,0.0046854
Hilly Fields Park,"London, United Kingdom",1,0,0,0,0,0,0,0,0,1,0,0,51.5074456,-0.1277653
BEARSPACE gallery,"152 Deptford High Street, London, United Kingdom",0,0,0,0,0,0,0,1,0,0,0,0,51.4794274,-0.025996
Peckham Multiplex,"95A Rye Lane, London, United Kingdom",0,0,0,0,0,0,0,0,0,0,0,1,51.470859,-0.0679233
Somerville Adventure Playground,"London, United Kingdom",1,0,0,0,0,0,0,0,0,0,0,0,51.5074456,-0.1277653
Central Venture Park,"London, United Kingdom",0,0,0,0,0,0,1,0,0,1,0,0,51.5074456,-0.1277653
Cocoa's Personal Training,"London, United Kingdom",0,0,0,0,0,0,1,0,0,0,0,0,51.5074456,-0.1277653
The Fan Museum,"12 Croom's Hill, London, United Kingdom",0,0,0,0,0,0,0,0,1,0,0,0,51.4778441,-0.0075667
David Lloyd Kidbrooke,"Kidbrooke Park Road, London, United Kingdom",0,0,0,0,0,0,1,0,0,0,0,0,51.4736103,0.0219
Pure Gym London Greenwich,"48-80 Greenwich High Road, London, United Kingdom",0,0,0,0,0,0,1,0,0,0,0,0,51.476214,-0.0183531
Wavelengths Leisure Centre,"Giffin Street, London, United Kingdom",0,0,0,0,0,0,1,0,0,0,0,0,51.4776118,-0.0256543
Blackheath,"London, United Kingdom",0,0,0,0,0,0,0,0,0,1,0,0,51.5074456,-0.1277653
Age Exchange,"11 Blackheath Village, London, United Kingdom",0,0,1,0,0,0,0,1,0,0,0,0,51.4655332,0.0094912
Bliss Fish,"93 Blackheath Road, London, United Kingdom",0,0,0,0,0,0,0,0,0,0,0,0,51.4731452,-0.0160254
National Maritime Museum Gardens,"London, United Kingdom",1,0,0,0,0,0,0,0,1,1,0,0,51.5074456,-0.1277653
ReGeneris Spa- Organic Treatment Rooms,"15 Delacourt Road, London, United Kingdom",0,0,0,0,0,0,0,0,0,0,0,0,51.4758235,0.0245909
energie Fitness Club Forest Hill,"26 London Road, Forest Hill, United Kingdom",0,0,0,0,0,0,1,0,0,0,0,0,51.4410627,-0.064542
Ladywell Fields,"London, United Kingdom",1,0,0,0,0,0,0,0,0,1,0,0,51.5074456,-0.1277653
Grow Mayow,"Mayow Park, Mayow road, London, United Kingdom",1,0,0,0,0,0,0,0,0,1,0,0,51.4287878,-0.0470534
Honor Oak Gallery,"52 Honor Oak Park, London, United Kingdom",0,0,0,0,0,0,0,1,0,0,0,0,51.449672,-0.0458153
Waterlink Way,"London, United Kingdom",1,0,0,0,0,0,0,0,0,1,0,0,51.5074456,-0.1277653
Gallery136,"136 Hither Green Lane, London, United Kingdom",0,0,0,0,0,0,0,1,0,0,0,0,51.4543754,-0.0087325
Bannatyne's Health Club Grove Park,"35 Marvels Lane, London, United Kingdom",0,0,0,0,0,0,1,0,0,0,0,0,51.4256099,0.0341784
Kashgar Tribal Art,"139 Victoria Way, London, United Kingdom",0,0,0,0,0,0,0,1,0,0,0,0,51.4832041,0.0293275
Winn's Common,"London, United Kingdom",1,0,0,0,0,0,0,0,0,1,0,0,51.5074456,-0.1277653
Crook Log Leisure Centre,"Brampton Road, Bexleyheath, United Kingdom",0,0,0,0,0,0,1,0,0,0,0,0,51.4627708,0.128214
Okehampton Crescent Gardens,United Kingdom,1,0,0,0,0,0,0,0,0,1,0,0,54.7023545,-3.2765753
Avery Hill Park,"London, United Kingdom",1,0,0,0,0,0,0,0,0,1,0,0,51.5074456,-0.1277653
Sutcliffe Park,"London, United Kingdom",1,0,0,0,0,0,0,0,0,1,0,0,51.5074456,-0.1277653
Footscray Playing Fields,"London, United Kingdom",0,0,0,0,0,0,1,0,0,0,0,0,51.5074456,-0.1277653
Charlton Park R.F.C. Sports Ground,"London, United Kingdom",0,0,0,0,0,0,1,0,0,0,0,0,51.5074456,-0.1277653
Bardhill Club,"London, United Kingdom",0,0,0,0,0,0,1,0,0,0,0,0,51.5074456,-0.1277653
Sidcup Leisure Centre,"Hurst Road, Sidcup, United Kingdom",0,0,0,0,0,0,1,0,0,0,0,0,51.4353263,0.110977
South Norwood Lake & Grounds,"Woodvale Avenue, London, United Kingdom",1,0,0,0,0,0,0,0,0,1,0,0,51.4047788,-0.0782579
New Wave Academy MMA,"Crystal Palace, Maberley Road, London, United Kingdom",0,0,0,0,0,0,1,0,0,0,0,0,51.4119161,-0.0773498
LA Fitness - Sydenham,"London, United Kingdom",0,0,0,0,0,0,1,0,0,0,0,0,51.5074456,-0.1277653
Kirkdale Bookshop & Gallery,"272 Kirkdale, London, United Kingdom",0,0,0,0,0,0,0,1,0,0,0,0,51.426611,-0.055405
Friction Lounge & Club Ltd,"1-4 Southend Road, Beckenham, United Kingdom",0,1,1,1,1,0,0,0,0,0,0,0,51.4121963,-0.0247756
Bonnys Beauty,"84 High Street, London, United Kingdom",0,0,0,0,0,0,0,0,0,0,0,0,51.4159095,-0.0545844
Frames & Art,"230 High St, Bromley, United Kingdom",0,0,0,0,0,0,0,1,0,0,0,0,51.4063824,0.0127882
Ashburton Park,"Croydon, United Kingdom",1,0,0,0,0,0,0,0,0,1,0,0,51.3713049,-0.101957
West Wickham Leisure Centre,"Station Road, West Wickham, United Kingdom",0,0,0,0,0,0,1,0,0,0,0,0,51.3759651,-0.0146054
Fair Acres Gardens,"Bromley, United Kingdom",1,0,0,0,0,0,0,0,0,1,0,0,51.4028046,0.0148142
Mini-Golf,"Beckenham, United Kingdom",0,0,0,0,0,0,1,0,0,0,0,0,51.4070938,-0.0303183
Chinbrook Meadows,"Amblecote Road, London, United Kingdom",1,0,0,0,0,0,0,0,0,1,0,0,51.4302434,0.0258021
Foots Cray Meadows,United Kingdom,1,0,0,0,0,0,0,0,0,1,0,0,54.7023545,-3.2765753
LA fitness Orpington,"Sandy Lane, Orpington, United Kingdom",0,0,0,0,0,0,1,0,0,0,0,0,51.3818886,0.0978245
Jubilee Country Park,"Petts Wood, Bromley, London, United Kingdom",1,0,0,0,0,0,0,0,0,1,0,0,51.3909147,0.0771282
Petts Wood Recreation Ground,"Eynsford Close, Petts Wood, United Kingdom",1,0,0,0,0,0,0,0,0,1,0,0,51.3836914,0.0730913
Hoblingwell Wood Recreation Ground,"Orpington, United Kingdom",1,0,0,0,0,0,1,0,0,0,0,0,51.3796373,0.1053732
Saint Mary Cray Recreation Ground,"Orpington, United Kingdom",1,0,0,0,0,0,1,0,0,1,0,0,51.3796373,0.1053732
Grassmead Recreation Ground,"Dyke Drive, Orpington, United Kingdom",1,0,0,0,0,0,0,0,0,1,0,0,51.3798617,0.1120593
Pure,"239 Broadway, Bexleyheath, United Kingdom",0,1,1,1,1,0,0,0,0,0,0,0,51.4582722,0.1329906
Martens Grove Park,"Bexleyheath, United Kingdom",1,0,0,0,0,0,0,0,0,1,0,0,51.4634854,0.1480552
T Hats Gallery,"57 Heath Way, Erith, United Kingdom",0,0,0,0,0,0,0,1,0,0,0,0,51.4709454,0.1674023
KBT Academy of Martial Arts,"16 Upland Road, Bexleyheath, United Kingdom",0,0,0,0,0,0,1,0,0,0,0,0,51.4609719,0.13967
Parkhouse Football Club Rugby Ground,"Bromley, United Kingdom",0,0,0,0,0,0,1,0,0,0,0,0,51.4028046,0.0148142
